name,address,latitude,longitude
ゆめシティ新下関店,山口県下関市伊倉新町3-1-1,34.007175,130.935349
大分下郡店,大分県大分市下郡北3-25-16,33.229885,131.635101
浦添バークレーズコート店,沖縄県浦添市当山2-2-9,26.253496,127.735565
高崎上中居店,群馬県高崎市上中居町1746,36.31897,139.030075
神楽坂下店,東京都新宿区神楽坂1-9-2,35.700066,139.742065
イオンモールむさし村山1階店,東京都武蔵村山市榎1-1-3,35.746552,139.385162
させぼ五番街店,長崎県佐世保市新港町4-10,33.163387,129.725281
豊洲センタービル店,東京都江東区豊洲3-3-3,35.656506,139.796036
郡山安積店,福島県郡山市安積町荒井南千保8-2,37.369232,140.370453
昭島モリタウン店,東京都昭島市代官山2-3-1,35.705673,139.353607
青山骨董通り店,東京都港区南青山5-10-1,35.66259,139.71109
ビーンズ赤羽店,東京都北区赤羽1-1-1,35.778782,139.720963
沖縄国体道路店,沖縄県中頭郡北谷町上勢頭813-1,26.328392,127.770775
スターバックスコーヒーゆめタウン広島店,広島県広島市南区皆実町2-224-7,34.376289,132.463593
郡山駅店,福島県郡山市燧田195,37.397964,140.388947
イオンモール富谷店,宮城県富谷市大清水1-33-1,38.363411,140.87381
横浜モアーズ8階店,神奈川県横浜市西区南幸1-3-1,35.467518,139.622421
山形白山店,山形県山形市白山3-9-24,38.225475,140.320023
アクアシティお台場店,東京都港区台場1-7-1,35.627804,139.77359
新宿南口店,東京都渋谷区代々木2-13-8,35.687183,139.696625
岡山シネマタウン岡南店,岡山県岡山市南区築港新町1-25-1,34.603302,133.940384
FKD宇都宮インターパーク店,栃木県宇都宮市インターパーク6-1-1,36.490471,139.906799
アクタ西宮店,兵庫県西宮市北口町1-2,34.746296,135.35701
浜田山店,東京都杉並区浜田山3-37-15,35.685261,139.625427
東武北千住駅店,東京都足立区千住旭町42-1,35.752808,139.806046
金立サービスエリア（下り線）店,佐賀県佐賀市金立町金立1197-57,33.337917,130.306046
栄広小路店,愛知県名古屋市中区錦3-24-24,35.169121,136.905823
新宿西口店,東京都新宿区西新宿1-12-1,35.689949,139.697449
黒埼パーキングエリア（下り線）店,新潟県新潟市西区木場1206-3,37.824257,138.983505
テラスウォーク一宮店,愛知県一宮市両郷町1-2,35.311169,136.816635
