name,address,latitude,longitude
ベイスクエア津店,三重県津市藤方716,34.685066,136.518753
サンド店,京都府京都市下京区烏丸通七条下ル東塩小路町721-1,34.992943,135.759583
ららぽーと磐田店,静岡県磐田市高見丘1200,34.750164,137.842026
京都新京極店,京都府京都市中京区新京極通三条下ル桜之町421,35.009998,135.751389
立川若葉店,東京都立川市若葉町1-11-7,35.719738,139.436661
サザンスカイタワー八王子店,東京都八王子市子安町4-7-1,35.654045,139.338806
イオン入間店,埼玉県入間市上藤沢下原462,35.816055,139.392166
箕面小野原店,大阪府箕面市小野原西5-5-19,34.830368,135.512161
堺筋本町店,大阪府大阪市中央区本町1-8-12,34.683849,135.506638
京都三条大橋店,京都府京都市中京区三条通河原町東入ル中島町113,NaN,NaN
ららぽーとTOKYOBAY南館店,千葉県船橋市浜町2-1-1,35.686241,139.990204
武蔵浦和BEANS店,埼玉県さいたま市南区別所7-12-1,35.846249,139.646439
大宮マルイ店,埼玉県さいたま市大宮区桜木町2-3,35.90699,139.621796
エスパル仙台本館店,宮城県仙台市青葉区中央1-1-1,38.260338,140.881699
ビーンズ阿佐ヶ谷駅前店,東京都杉並区阿佐谷南3-58-1,35.704941,139.635956
シャミネ松江店,島根県松江市朝日町472-2,35.46386,133.06279
大宮西口店,埼玉県さいたま市大宮区桜木町1-1-12,35.905525,139.621902
新宿エルタワー店,東京都新宿区西新宿1-6-1,35.692799,139.697296
大分わさだトキハ店,大分県大分市玉沢楠本755-1,33.18956,131.583542
松井山手店,京都府京田辺市松井ケ丘3-2-1,34.832207,135.729034
IWATAYA本店新館店,福岡県福岡市中央区天神2-5-35,33.588985,130.396927
九段下店,東京都千代田区九段北1-2-1,35.695782,139.752228
札幌医科大学附属病院店,北海道札幌市中央区南1条西16,43.056339,141.332993
セブンパークアリオ柏店,千葉県柏市大島田1-6-1,35.840897,140.005997
イオンタウン伊勢ララパーク店,三重県伊勢市小木町538,34.504902,136.725616
松本平田店,長野県松本市平田東2-18-14,36.189713,137.964386
大丸梅田店,大阪府大阪市北区梅田3-1-1,34.701881,135.496338
名古屋久屋南店,愛知県名古屋市中区栄3-31-10,35.163631,136.908463
福生西友店,東京都福生市東町5-1,35.743267,139.328079
カナート洛北店,京都府京都市左京区高野西開町36,35.040871,135.779327
