name,address,latitude,longitude
ウイングタウン岡崎店,愛知県岡崎市羽根町小豆坂3,34.923637,137.174545
宮崎大学医学部附属病院店,宮崎県宮崎市清武町木原5200,31.840258,131.399185
イオンモール各務原店,岐阜県各務原市那加萱場町3-8,35.392418,136.823975
武蔵小金井店,東京都小金井市本町5-12-14,35.702076,139.506058
名鉄刈谷店,愛知県刈谷市若松町1-72,34.990288,137.009766
文京グリーンコート店,東京都文京区本駒込2-28-10,35.73064,139.746964
ビッグワンTSUTAYA宇都宮南店,栃木県宇都宮市針ヶ谷町472-7,36.490593,139.856796
西宮名塩サービスエリア下り店,兵庫県西宮市塩瀬町名塩字蛇豆906,34.840046,135.291214
モール長町店,宮城県仙台市太白区長町7-20-15,38.225822,140.876862
楽市街道くるめ店,福岡県久留米市新合川2-7-10,33.319946,130.542267
フジグラン石井店,徳島県名西郡石井町高川原544-1,34.082977,134.441574
阪急塚口店,兵庫県尼崎市塚口町1-2-9,34.753082,135.415955
ダイエー光明池店,大阪府和泉市室堂町841-1,34.470581,135.471069
立場イトーヨーカドー店,神奈川県横浜市泉区中田西1-1,35.414616,139.499939
EneJet沼田店,広島県広島市安佐南区伴東7-57-1,34.461216,132.410522
仙台定禅寺通り店,宮城県仙台市青葉区国分町3-1-11,38.266396,140.869385
イズミヤ千里丘店,大阪府吹田市山田南1-1,34.788815,135.538727
溝の口店,神奈川県川崎市高津区久本3-1-1,35.598061,139.613159
奈良コトモール店,奈良県奈良市東向南町23-1,34.682625,135.828491
旭中央病院店,千葉県旭市イ1326,35.717331,140.662506
石巻中里店,宮城県石巻市南中里2-9-36,38.440838,141.30043
霞が関第2号館店,東京都千代田区霞が関2-1-2,35.676193,139.751129
東京医科大学茨城医療センター店,茨城県稲敷郡阿見町中央3-20-1,36.037308,140.215683
横浜東口店,神奈川県横浜市西区高島2-14-14,35.46376,139.622498
中板橋北口店,東京都板橋区中板橋23-2,35.75581,139.69574
国立がん研究センター東病院店,千葉県柏市柏の葉6-5-1,35.900532,139.940231
あざみ野西口店,神奈川県横浜市青葉区あざみ野1-11-1,35.568481,139.552292
小田原シティーモール店,神奈川県小田原市前川120,35.281898,139.193695
一宮西病院店,愛知県一宮市開明字平1,35.313931,136.777985
新丸子東口店,神奈川県川崎市中原区新丸子東1-772,35.580219,139.661957
富山エスタ店,富山県富山市桜町1-1-1,36.700573,137.213745
浜松町1丁目店,東京都港区浜松町1-29-9,35.65683,139.755798
草加駅西口店,埼玉県草加市氷川町2121-3,35.827908,139.802948
南青山5丁目店,東京都港区南青山5-4-31,35.662231,139.714432
京王仙川店,東京都調布市仙川町1-12-14,35.660683,139.584641
北野病院店,大阪府大阪市北区扇町2-4-20,34.705494,135.506256
都営五反田店,東京都品川区東五反田1-26-2,35.626339,139.723907
備後町1丁目店,大阪府大阪市中央区備後町1-6-15,34.685555,135.506653
沖縄県立南部医療センター店,沖縄県島尻郡南風原町新川118-1,26.205864,127.72374
郡山駅店,福島県郡山市燧田195,37.397964,140.388947
沖縄イオン那覇店,沖縄県那覇市金城5-10-2,26.196909,127.665909
方南町店,東京都杉並区方南2-13-9,35.683601,139.658524
代々木店,東京都渋谷区代々木1-36-7,35.683533,139.701447
西新宿1丁目店,東京都新宿区西新宿1-13-8,35.689587,139.696548
高井戸店,東京都杉並区高井戸西2-1-26,35.683319,139.615463
相鉄さがみ野駅前店,神奈川県海老名市東柏ケ谷3-3-15,35.472313,139.428513
神田淡路町店,東京都千代田区神田須田町1-2-1,35.695206,139.767776
函館中央病院店,北海道函館市本町33-2,41.78643,140.751053
五反田桜田通り店,東京都品川区西五反田1-30-2,35.624878,139.721985
代々木八幡店,東京都渋谷区富ヶ谷1-52-1,35.669075,139.688919
伊勢佐木町店,神奈川県横浜市中区伊勢佐木町2-11-1,35.443672,139.6315
新木場メトロピア店,東京都江東区新木場1-6,35.645264,139.827408
瑞江店,東京都江戸川区東瑞江1-26-14,35.692398,139.897476
成城学園北口店,東京都世田谷区成城6-9-1,35.640453,139.598541
西船橋南口店,千葉県船橋市印内町584-1,35.706207,139.959335
ケーズタウン若里店,長野県長野市若里3-22-1,36.631809,138.19577
産業貿易センター店,神奈川県横浜市中区山下町2,35.44688,139.645905
博多呉服町店,福岡県福岡市博多区上呉服町10-10-101,33.597832,130.409943
川口東口店,埼玉県川口市栄町3-5-17,35.803802,139.718811
千葉労災病院店,千葉県市原市辰巳台東2-16,35.521713,140.157928
竹田綜合病院店,福島県会津若松市山鹿町3-27,37.49115,139.922028
神戸さんちか店,兵庫県神戸市中央区三宮町1-10-1,34.693146,135.193771
大田原若草店,栃木県大田原市若草1-721-1,36.858398,140.033081
シャポー市川店,千葉県市川市市川1-1-1,35.72897,139.907639
シャミネ松江店,島根県松江市朝日町472-2,35.46386,133.06279
ビバモール加須店,埼玉県加須市下高柳1-7,36.112015,139.608459
稲田堤店,神奈川県川崎市多摩区菅2-8-1,35.633766,139.532852
十日市場店,神奈川県横浜市緑区十日市場町800-2,35.526009,139.517807
兵庫駅前店,兵庫県神戸市兵庫区駅南通5-1,34.668053,135.165573
東戸塚店,神奈川県横浜市戸塚区品濃町517-1,35.429157,139.558289
エッソ東青田店,山形県山形市東青田1-1-30,38.226955,140.336929
甲府昭和イトーヨーカドー店,山梨県中巨摩郡昭和町西条13-1,35.635384,138.537491
明大前店,東京都世田谷区松原2-46-2,35.668697,139.650116
下赤塚店,東京都板橋区赤塚2-2-6,35.771168,139.644867
名鉄百貨店店,愛知県名古屋市中村区名駅1-2-1,35.169827,136.884384
新川1丁目店,東京都中央区新川1-4-11,35.677467,139.780518
日本橋本石町店,東京都中央区日本橋本石町4-6-7,35.689507,139.771042
武蔵境イトーヨーカドー店,東京都武蔵野市境南町2-2-20,35.701035,139.545349
三郷スーパービバホーム店,埼玉県三郷市ピアラシティ1-1-140,35.842663,139.855316
ドトールコーヒーショップ高尾駅前店,東京都八王子市初沢町1231-16,35.641376,139.283844
大宮ラクーン店,埼玉県さいたま市大宮区宮町1-60,35.907829,139.625732
原木中山店,千葉県船橋市本中山7-1157-2,35.703316,139.940903
町田ターミナル店,東京都町田市原町田3-1-4,35.54055,139.449173
梓川サービスエリア店,長野県松本市島内字西河原6931-5,36.260956,137.940994
本町店,大阪府大阪市中央区久太郎町3-5-17,34.681049,135.500778
エッソ米沢店,山形県米沢市中田町921,37.94046,140.118454
ニッセイ新大阪ビル店,大阪府大阪市淀川区宮原3-4-30,34.734299,135.496719
五井駅西口店,千葉県市原市五井中央西2-2-5,35.513985,140.0896
鷺沼店,神奈川県川崎市宮前区鷺沼3-1-1,35.579124,139.572708
十条銀座店,東京都北区十条仲原1-4-7,35.762577,139.721344
町田中町店,東京都町田市中町1-1-4,35.545696,139.445572
篠崎店,東京都江戸川区篠崎町2-6-1,35.706078,139.904526
大崎市民病院店,宮城県大崎市古川穂波3-8-1,38.565533,140.944031
西日暮里店,東京都荒川区西日暮里5-14-1,35.73267,139.767868
江戸崎パンプ店,茨城県稲敷市江戸崎甲4836,35.959206,140.315918
人形町1丁目店,東京都中央区日本橋人形町1-17-6,35.685352,139.782974
安土町店,大阪府大阪市中央区安土町3-2-4,34.684326,135.502609
希望ヶ丘店,神奈川県横浜市旭区中希望が丘265,35.460484,139.514008
みずほ台店,埼玉県富士見市東みずほ台2-29-1,35.838673,139.549988
本町中央大通り店,大阪府大阪市中央区久太郎町2-5-31,34.681511,135.504349
花小金井店,東京都小平市花小金井1-1-13,35.726696,139.512909
エッソ国見ヶ丘店,宮城県仙台市青葉区吉成台1-1-8,38.292858,140.822723
相模大野コリドー街店,神奈川県相模原市南区相模大野3-18-11,35.532959,139.435349
白河店,福島県白河市北中川原161-1,37.122177,140.227051
三鷹南口店,東京都三鷹市下連雀3-35-6,35.70145,139.560944
下りホーム店,東京都足立区千住旭町42-1,35.752808,139.806046
川崎ダイス店,神奈川県川崎市川崎区駅前本町8-14,35.531353,139.70015
天神橋2丁目店,大阪府大阪市北区天神橋2-1-23,34.696247,135.511826
津駅チャム店,三重県津市羽所町官有地,34.733402,136.511154
西天満宇治電ビル店,大阪府大阪市北区西天満4-8-17,34.697784,135.50444
菊川店,東京都墨田区菊川2-5-6,35.68824,139.805161
イオンタウン水戸南店,茨城県東茨城郡茨城町長岡3480-101,36.309364,140.439804
秋葉原和泉橋店,東京都千代田区神田岩本町1,35.69606,139.774963
八戸ピアドゥ店,青森県八戸市沼館4-7-112,40.526081,141.497589
アリオ蘇我店,千葉県千葉市中央区川崎町52-7,35.588078,140.122589
国立大学通り店,東京都国立市中1-16,35.69709,139.445145
Emio狭山市店,埼玉県狭山市祇園4-55,35.856785,139.413498
三軒茶屋キャロットタワー店,東京都世田谷区太子堂4-1-1,35.643543,139.66983
浦安南口店,千葉県浦安市北栄1-13-25,35.66581,139.893646
伊勢原店,神奈川県伊勢原市桜台1-1-7,35.395618,139.313553
西神戸医療センター店,兵庫県神戸市西区糀台5-7-1,34.716888,135.018921
盛岡大通り2丁目店,岩手県盛岡市大通2-6-12,39.703495,141.144943
四谷1丁目南店,東京都新宿区四谷1-18,35.686249,139.727737
等々力店,東京都世田谷区等々力3-6-16,35.608746,139.647217
道修町店,大阪府大阪市中央区道修町3-4-11,34.688557,135.501862
福生駅東口店,東京都福生市東町4-12,35.742439,139.328094
高麗橋4丁目店,大阪府大阪市中央区高麗橋4-4-6,34.689999,135.499466
大手町フィナンシャルシティ店,東京都千代田区大手町1-9-7,35.688286,139.765411
雑色店,東京都大田区仲六郷2-28-4,35.550381,139.714706
みなとみらいグランモール公園店,神奈川県横浜市西区みなとみらい4-8-1,35.460423,139.628922
須賀川東店,福島県須賀川市仲の町40-1,37.297417,140.381424
羽村店,東京都羽村市五ノ神1-8-9,35.757927,139.316879
飯田橋富士見店,東京都千代田区富士見2-3-10,35.699394,139.744858
ゲートシティ大崎店,東京都品川区大崎1-11-2,35.619869,139.731308
桜上水店,東京都世田谷区桜上水4-17-4,35.668095,139.632706
広島紙屋町店,広島県広島市中区紙屋町2-2-32,34.394886,132.456268
イオンモール鳥取北店,鳥取県鳥取市晩稲100-1,35.523964,134.201614
武蔵小山店,東京都品川区小山3-22-17,35.618763,139.705429
湯島春日通り店,東京都文京区湯島3-46-3,35.708324,139.77034
水戸済生会総合病院店,茨城県水戸市双葉台3-3-10,36.398888,140.393967
川崎医科大学附属病院店,岡山県倉敷市松島577,34.631077,133.809937
札幌大通西3丁目店,北海道札幌市中央区大通西3-11,43.059963,141.353058
代々木パーキングエリア店,東京都渋谷区代々木神園町1-2,35.669754,139.702164
八戸駅店,青森県八戸市尻内町字舘田1-1,40.508949,141.431335
タイムズステーション川崎店,神奈川県川崎市川崎区駅前本町14-2,35.532719,139.699203
グリナード永山店,東京都多摩市永山1-4,35.629246,139.448135
札幌福住店,北海道札幌市豊平区福住二条1-2-5,43.020599,141.404022
イオンタウン郡山店,福島県郡山市松木町2-88,37.388954,140.387589
東向島店,東京都墨田区東向島4-29-6,35.725296,139.819229
外神田1丁目店,東京都千代田区外神田1-6-6,35.699474,139.769562
川西能勢口店,兵庫県川西市小花1-1-10,34.827297,135.414444
基山パーキングエリア下り店,福岡県筑紫野市原田1318,33.442554,130.531631
ドーチカ店,大阪府大阪市北区堂島1堂島地下街7,34.696594,135.497665
エッソ酒田店,山形県酒田市大町6-19,38.904827,139.856537
戸越銀座店,東京都品川区平塚1-8-1,35.61557,139.715134
倉敷中央病院店,岡山県倉敷市美和1-1-1,34.602867,133.774002
新杉田店,神奈川県横浜市磯子区新杉田町3-6,35.387005,139.619049
西武大泉学園駅店,東京都練馬区東大泉1-29-7,35.750179,139.58577
ドトールコーヒーショップアリオ八尾店,大阪府八尾市光町2-3,34.632385,135.60582
薬院駅店,福岡県福岡市中央区渡辺通2-6-1,33.581856,130.401627
目白駅前店,東京都豊島区目白3-14-3,35.721992,139.706223
フレンテ笹塚店,東京都渋谷区笹塚1-47-1,35.67387,139.668213
半蔵門店,東京都千代田区麹町1-8-8,35.685211,139.741913
イオンモール幕張新都心店,千葉県千葉市美浜区豊砂1-8,35.65609,140.02652
神田駿河台店,東京都千代田区神田駿河台1-6,35.697113,139.762665
JR神戸店,兵庫県神戸市中央区相生町3-1-2,34.679741,135.177948
鶴間駅前店,神奈川県大和市西鶴間1-1-1,35.48999,139.45079
スカイプラザ柏店,千葉県柏市柏1-1-20,35.862251,139.972305
江戸川橋新目白通り店,東京都文京区関口1-47,35.709881,139.731094
尾山台店,東京都世田谷区尾山台3-34-8,35.60693,139.653214
郡山中央通り店,福島県郡山市中町11-1,37.397495,140.384323
弘前大学医学部附属病院店,青森県弘前市本町53,40.599808,140.465576
ドトールコーヒーショップひばりヶ丘南口店,東京都西東京市住吉町3-9-8,35.750782,139.544861
エスパル福島店,福島県福島市栄町1-1,37.753189,140.460678
光が丘店,東京都練馬区光が丘2-10-1,35.759888,139.629608
エッソ菱野ウエスト店,愛知県瀬戸市赤重町1-9,35.210678,137.080093
ディアモール店,大阪府大阪市北区梅田1-12,34.700634,135.498581
白楽店,神奈川県横浜市神奈川区白楽124,35.490074,139.62735
須磨パティオ店,兵庫県神戸市須磨区中落合2-2-7,34.678413,135.09465
みなとみらい駅店,神奈川県横浜市西区みなとみらい3-5,35.457706,139.63176
目黒東口店,東京都品川区上大崎2-14-5,35.634094,139.717163
赤坂1丁目店,東京都港区赤坂1-11-28,35.668858,139.741394
イオン大塔ショッピングセンター店,長崎県佐世保市大塔町14-2,33.147987,129.777878
JR和歌山駅店,和歌山県和歌山市美園町5-61,34.231262,135.19162
長岡東口店,新潟県長岡市台町2-4-56,37.446583,138.854828
矢向駅前店,神奈川県横浜市鶴見区矢向6-5-2,35.538612,139.680573
広島市民病院店,広島県広島市中区基町7-33,34.397812,132.458832
ふじみ野店,埼玉県富士見市ふじみ野西1-20-2,35.860523,139.521988
牧の原モア店,千葉県印西市牧の原1-3,35.804539,140.166428
円町駅前店,京都府京都市中京区西ノ京円町8,35.018314,135.731552
オズ大泉店,東京都練馬区東大泉2-10-11,35.75275,139.59494
世田谷ビジネススクエア店,東京都世田谷区用賀4-10-1,35.62669,139.633987
芝田店,大阪府大阪市北区芝田2-7-18,34.707211,135.496536
新宿1丁目南店,東京都新宿区新宿1-20-4,35.689037,139.712265
金沢文庫店,神奈川県横浜市金沢区谷津町367,35.342571,139.622452
エッソ秦野中井インターチェンジ店,神奈川県秦野市西大竹706-1,35.357151,139.236069
千歳烏山南口店,東京都世田谷区南烏山5-12-3,35.667198,139.60228
PLANT境港店,鳥取県境港市竹内団地276,35.520149,133.251648
鹿児島中町店,鹿児島県鹿児島市中町4-24,31.592072,130.556015
梅屋敷店,東京都大田区大森西6-14-13,35.567558,139.727112
虎ノ門2丁目店,東京都港区虎ノ門2-5-4,35.668034,139.747711
曙橋店,東京都新宿区住吉町7-1,35.692493,139.723312
エッソ嶋店,山形県山形市嶋北4-5-30,38.289288,140.31871
神保町駅前店,東京都千代田区神田神保町1-10-1,35.696121,139.758408
名鉄岐阜店,岐阜県岐阜市長住町2-11-1,35.411823,136.760895
ドトールコーヒーショップ京都四条通り北店,京都府京都市下京区柳馬場西入ル立売中之町104,,
名古屋ブロッサ店,愛知県名古屋市東区東桜1-1,35.173351,136.909592
富士宮バイパス店,静岡県富士宮市ひばりが丘700,35.233921,138.620209
博多駅いきいき通り店,福岡県福岡市博多区博多駅中央街1-1,33.589912,130.420395
札幌元町店,北海道札幌市東区北三十一条東15-1-1,43.101254,141.36908
難波店,大阪府大阪市中央区難波1-8-2,34.66769,135.501297
藤が丘店,愛知県名古屋市名東区藤が丘169,35.182888,137.021622
武蔵中原店,神奈川県川崎市中原区上小田中6-22-7,35.581436,139.642227
ジョイフル本田幸手店,埼玉県幸手市上高野1258-1,36.059711,139.713699
地下鉄淀屋橋駅店,大阪府大阪市中央区北浜3-6-14,34.692326,135.501236
下井草店,東京都杉並区下井草2-40-17,35.723518,139.625351
南林間店,神奈川県大和市南林間1-6-11,35.495918,139.447495
都営馬喰横山店,東京都中央区日本橋横山町4-13,35.691868,139.782806
東武朝霞台店,埼玉県朝霞市浜崎933,35.815521,139.588562
新高円寺店,東京都杉並区梅里2-1-17,35.697693,139.647675
阿佐ヶ谷南口店,東京都杉並区阿佐谷南1-33-10,35.701847,139.636642
相模原駅前店,神奈川県相模原市中央区相模原1-1-19,35.581741,139.369141
広島本通り店,広島県広島市中区本通5-7,34.393318,132.458374
久留米大学病院店,福岡県久留米市旭町67,33.328121,130.511475
仙台駅店,宮城県仙台市青葉区中央1-1-1,38.260338,140.881699
千葉北総病院店,千葉県印西市鎌苅1715,35.78017,140.196228
青森下田店,青森県上北郡おいらせ町中野平40-1,40.602257,141.41777
会津若松滝沢店,福島県会津若松市一箕町八幡字牛ヶ墓7-1,37.506145,139.95224
浅草田原町店,東京都台東区西浅草1-1-16,35.710289,139.791397
五所川原金木店,青森県五所川原市金木町沢部460,40.920578,140.55191
調布南口店,東京都調布市布田4-17-10,35.650826,139.543777
本山店,愛知県名古屋市千種区東山通1-38-1,35.163586,136.963409
弘明寺店,神奈川県横浜市南区弘明寺町154,35.42342,139.598923
東急荏原中延店,東京都品川区中延3-1-9,35.609673,139.711609
ドトールコーヒーショップ三鷹北口店,東京都武蔵野市中町1-13-1,35.70364,139.560745
名古屋タワーズ通り店,愛知県名古屋市中村区名駅1-1-4,35.17075,136.883423
聖蹟桜ヶ丘東口店,東京都多摩市関戸2-40-1,35.650848,139.448578
渋谷3丁目北店,東京都渋谷区渋谷3-6-2,35.657997,139.705002
帝京大学医学部附属病院店,東京都板橋区加賀2-11-1,35.759392,139.714478
溝の口KSP店,神奈川県川崎市高津区坂戸3-2-1,35.594444,139.620865
相鉄星川店,神奈川県横浜市保土ケ谷区星川1-1-2,35.458225,139.595459
九段店,東京都千代田区九段南2-2-8,35.69437,139.747223
堺市立総合医療センター店,大阪府堺市西区家原寺町1丁1-1,34.537155,135.473618
田村船引店,福島県田村市船引町船引字川代58,37.43399,140.591751
アミュプラザ小倉店,福岡県北九州市小倉北区浅野1-1-1,33.887192,130.881485
長原店,東京都大田区上池台1-32-3,35.601704,139.69783
仙台一番町3丁目店,宮城県仙台市青葉区一番町3-10-25,38.261612,140.871567
神田小川町店,東京都千代田区神田小川町2-2,35.694706,139.764847
本郷三丁目店,東京都文京区本郷2-40-18,35.706779,139.760132
ブルメール舞多聞店,兵庫県神戸市垂水区舞多聞東2-1-45,34.664722,135.053909
入谷駅前店,東京都台東区下谷2-1-10,35.720188,139.783875
盛岡駅店,岩手県盛岡市盛岡駅前通1-48,39.696434,141.138824
十条南口店,東京都北区上十条1-11-8,35.759483,139.722382
三ノ輪店,東京都台東区根岸5-22-6,35.730095,139.791275
経堂農大通り店,東京都世田谷区経堂1-21-18,35.650436,139.637085
仙台中央通り大町店,宮城県仙台市青葉区一番町3-6-8,38.260822,140.873535
京阪三条店,京都府京都市東山区三条大橋東詰,35.00703,135.775436
渋谷1丁目店,東京都渋谷区渋谷1-14-15,35.660191,139.702484
豊橋広小路店,愛知県豊橋市広小路1-36,34.76413,137.383682
千歳烏山店,東京都世田谷区南烏山4-12-5,35.668777,139.600983
高松丸亀町店,香川県高松市丸亀町14-6,34.345123,134.050507
早稲田店,東京都新宿区馬場下町14-1,35.706238,139.718674
エッソ多摩ニュータウン店,東京都八王子市松木33-14,35.624878,139.394135
仙台クリスロード店,宮城県仙台市青葉区中央2-5-6,38.261417,140.876663
ドトールコーヒーショップ渋谷神南1丁目店,東京都渋谷区神南1-10-1,35.66267,139.701263
梅田シティ店,大阪府大阪市北区大淀中1-1-90,34.704723,135.491013
ドトールコーヒーショップ飯田橋神楽坂店,東京都新宿区神楽坂1-12,35.700867,139.742706
ドトールコーヒーショップ,東京都日野市高幡116-10,35.661751,139.414551
八千代台店,千葉県八千代市八千代台東1-2-14,35.699997,140.091843
アートヴィレッジ大崎セントラルタワー店,東京都品川区大崎1-2-2,35.621803,139.728378
天童八文字屋店,山形県天童市鍬ノ町2-3-43,38.354103,140.38768
上大岡ウイング店,神奈川県横浜市港南区上大岡西1-6-1,35.408283,139.596436
池袋グリーン大通り店,東京都豊島区南池袋2-29-12,35.727772,139.71579
イトーヨーカドー曳舟店,東京都墨田区京島1-2-1,35.717327,139.817184
麹町四番町店,東京都千代田区四番町4-9,35.68959,139.737656
百合ヶ丘駅前店,神奈川県川崎市麻生区百合丘1-1-1,35.608608,139.516632
コーチャンフォー北見店,北海道北見市並木町521-4,43.827484,143.916061
天六店,大阪府大阪市北区天神橋6ー6-21,34.709171,135.51123
小倉魚町2丁目店,福岡県北九州市小倉北区魚町2-3-24,33.883671,130.879898
上大岡camio店,神奈川県横浜市港南区上大岡西1-15-1,35.409103,139.595398
大和鶴間イトーヨーカドー店,神奈川県大和市下鶴間1-3-1,35.490524,139.457245
なんさん通り店,大阪府大阪市中央区難波千日前6-5,34.663265,135.505188
ドトールコーヒーショップ大手町ファーストスクエア店,東京都千代田区大手町1-5-1,35.685574,139.764664
山下町店,神奈川県横浜市中区山下町60-1,35.444057,139.648651
エッソ六角橋店,神奈川県横浜市神奈川区六角橋6-2-48,35.491405,139.620728
五所川原エルム店,青森県五所川原市唐笠柳藤巻517-1,40.800228,140.452988
アリオ深谷店,埼玉県深谷市上柴町西4-2-14,36.18111,139.298462
溜池山王店,東京都港区赤坂1-5-14,35.670277,139.742798
エッソ柳田店,栃木県宇都宮市柳田町592-1,36.569679,139.961594
新横浜駅前店,神奈川県横浜市港北区新横浜3-6,35.508923,139.618225
京都新京極三条店,京都府京都市中京区新京極通三条下ル桜之町398,35.009998,135.751389
大森店,東京都大田区大森北1-5-5,35.587276,139.728165
三軒茶屋2丁目店,東京都世田谷区三軒茶屋2-14-13,35.643356,139.669861
豊島園駅前店,東京都練馬区練馬4-15-11,35.742699,139.648178
イオンモール佐賀大和店,佐賀県佐賀市大和町尼寺3535,33.303963,130.280472
西池袋1丁目メトロポリタン通り店,東京都豊島区西池袋1-9-11,35.728855,139.70874
アピタ松任店,石川県白山市幸明町280,36.515965,136.576904
渋谷新南口店,東京都渋谷区渋谷3-27-15,35.65609,139.70459
ヨシヅヤ名古屋名西店,愛知県名古屋市西区名西2-33-8,35.190826,136.87796
佐賀大学医学部附属病院店,佐賀県佐賀市鍋島5-1-1,33.284588,130.266861
不動前店,東京都品川区西五反田5-12-1,35.625717,139.713913
沖縄イオン具志川店,沖縄県うるま市字前原幸崎原303,26.337858,127.844788
鶴岡S‐MALL店,山形県鶴岡市錦町2-21,38.738201,139.832336
玉川学園店,東京都町田市玉川学園2-21-37,35.562923,139.463379
新宿3丁目東店,東京都新宿区新宿3-11-9,35.691994,139.706604
弘前イトーヨーカドー店,青森県弘前市駅前3-2-1,40.599476,140.480881
天満駅前店,大阪府大阪市北区天神橋4-10-2,34.705711,135.511169
中国労災病院店,広島県呉市広多賀谷1-5-1,34.230743,132.613968
八女店,福岡県八女市大島182-1,33.219826,130.562653
大泉学園北口店,東京都練馬区東大泉1-30-4,35.749832,139.58638
松戸東口店,千葉県松戸市松戸1226-5,35.783482,139.901688
町田駅前店,東京都町田市原町田6-11-10,35.544483,139.446243
日吉店,神奈川県横浜市港北区日吉本町1-21-9,35.553532,139.646057
徳山中央病院店,山口県周南市孝田町1-1,34.047676,131.83287
銀座4丁目店,東京都中央区銀座4-11-6,35.66993,139.768784
北海道庁店,北海道札幌市中央区北三条西6,43.064438,141.347061
築地聖路加通り店,東京都中央区築地3-7-1,35.668041,139.773697
サカエチカ店,愛知県名古屋市中区栄3-4-6先,35.168667,136.906448
ドトールコーヒーショップ人形町箱崎店,東京都中央区日本橋箱崎町25-1,35.680386,139.786911
モービル柳通り新津店,静岡県浜松市中央区新津町637-1,34.720024,137.74144
中標津店,北海道標津郡中標津町南町3-10,43.534557,144.978394
与野東口店,埼玉県さいたま市浦和区上木崎1-1-2,35.885181,139.638931
アレア品川店,東京都港区港南1-9-36,35.63068,139.741974
阪急庄内店,大阪府豊中市庄内西町3-1-5,34.749115,135.474411
船橋北口店,千葉県船橋市本町5-4-5,35.702911,139.986145
市が尾駅前店,神奈川県横浜市青葉区市ヶ尾町1063-4,35.551044,139.541061
エッソ公津の杜店,千葉県成田市公津の杜2-27-11,35.759106,140.297852
松山湊町店,愛媛県松山市湊町4-7-12,33.835777,132.767303
麹町4丁目店,東京都千代田区麹町4-3-1,35.683212,139.737595
名駅広小路店,愛知県名古屋市中村区名駅南1-17-28,35.167896,136.887604
札幌狸小路店,北海道札幌市中央区南三条西3-17-9,43.057087,141.35379
神田北口店,東京都千代田区内神田3-20-3,35.69281,139.770798
シュロアモール筑紫野店,福岡県筑紫野市原田836-6,33.44191,130.535904
田町センタービル店,東京都港区芝5-34-7,35.64587,139.746704
イオンモール鈴鹿店,三重県鈴鹿市庄野羽山4-1-2,34.87376,136.533142
京王府中店,東京都府中市府中町1-3-6,35.6721,139.480743
京王橋本店,神奈川県相模原市緑区橋本2-3-2,35.595039,139.343643
石川町北口店,神奈川県横浜市中区吉浜町1-6,35.439529,139.642532
福島野田店,福島県福島市野田町4-1-3,37.759838,140.453857
上野浅草通り店,東京都台東区東上野4-2-3,35.712086,139.779205
菊名駅前店,神奈川県横浜市港北区菊名4-1-6,35.509865,139.631943
高田馬場4丁目店,東京都新宿区高田馬場4-8-4,35.713566,139.703232
阪急富田店,大阪府高槻市富田町1-6-3,34.83609,135.593735
有楽町電気ビル店,東京都千代田区有楽町1-7-1,35.674358,139.761444
ドトールコーヒーショップ西国分寺店,東京都国分寺市泉町3-35-1,35.699017,139.465683
天満橋店,大阪府大阪市中央区谷町1-5-1,34.688553,135.516769
プラザ鶴見店,岐阜県大垣市鶴見町字上渡瀬641-2,35.359066,136.641968
生田駅前店,神奈川県川崎市多摩区生田7-8-4,35.61536,139.541931
イオンモール盛岡店,岩手県盛岡市前潟4-7-1,39.710526,141.101059
三重大学病院店,三重県津市江戸橋2-174,34.742409,136.522507
八戸十三日町店,青森県八戸市十三日町15,40.508873,141.488846
追浜店,神奈川県横須賀市追浜本町1-28-5,35.31662,139.625565
練馬高野台店,東京都練馬区高野台1-7-32,35.741177,139.616013
北心斎橋店,大阪府大阪市中央区南船場3-11-2,34.676537,135.501389
アトレ新浦安店,千葉県浦安市入船1-1-1,35.64994,139.91272
ドトールコーヒーショップイオン東神奈川店,神奈川県横浜市神奈川区富家町1-1,35.479996,139.634232
モービル浜松上島店,静岡県浜松市中央区上島6-1-39,34.739388,137.737244
高麗橋店,大阪府大阪市中央区高麗橋2-4-9,34.689781,135.50502
荻窪駅前店,東京都杉並区上荻1-8-10,35.704998,139.620499
鴬谷北口店,東京都台東区根岸1-9-9,35.722816,139.777786
麹町2丁目店,東京都千代田区麹町2-7-11,35.683636,139.741272
沖縄県立中部病院店,沖縄県うるま市宮里281,26.35405,127.835503
神戸三宮店,兵庫県神戸市中央区三宮町1-7-27,34.692379,135.19455
EneJetせんげん台店,埼玉県越谷市千間台東3-6-1,35.93259,139.778824
西新宿青梅街道店,東京都新宿区西新宿7-20-3,35.693817,139.695267
広島八丁堀京口門店,広島県広島市中区八丁堀12-15,34.395588,132.462982
アスティ大垣店,岐阜県大垣市高屋町1-145,35.366787,136.61731
武蔵境北口店,東京都武蔵野市境2-13-1,35.702843,139.54277
用賀店,東京都世田谷区用賀2-38-11,35.626774,139.634521
赤羽スズラン通り店,東京都北区赤羽2-14-1,35.779392,139.723526
ベルランド総合病院店,大阪府堺市中区東山500-3,34.517414,135.508102
雷門2丁目店,東京都台東区雷門2-18-16,35.710255,139.796799
ドトールコーヒーショップつつじヶ丘店,東京都調布市西つつじケ丘3-35-29,35.658253,139.574554
横浜駅店,神奈川県横浜市西区高島2-16-1,35.465988,139.623001
本所吾妻橋店,東京都墨田区吾妻橋2-3-11,35.708733,139.803986
千葉県庁前駅前店,千葉県千葉市中央区長洲1-9-1,35.603199,140.12265
札幌大通駅店,北海道札幌市中央区大通西3-4,43.059963,141.353058
関内山下町店,神奈川県横浜市中区山下町89-6,35.445065,139.643494
茅ヶ崎南口店,神奈川県茅ヶ崎市共恵1-1-4,35.329681,139.40625
近畿大学医学部附属病院店,大阪府大阪狭山市大野東377-2,34.475994,135.550369
近鉄針中野駅前店,大阪府大阪市東住吉区駒川5-16-4,34.617519,135.53273
鶴ヶ峰店,神奈川県横浜市旭区鶴ケ峰2-21,35.475071,139.548233
仙台長町たいはっくる店,宮城県仙台市太白区長町5-3-1,38.228699,140.884338
天王寺北口店,大阪府大阪市天王寺区堀越町14-12,34.648571,135.513519
成増2丁目店,東京都板橋区成増2-21-3,35.777702,139.630264
鹿島田サウザンドモール店,神奈川県川崎市幸区新塚越201,35.549274,139.676758
雪が谷店,東京都大田区南雪谷2-2-16,35.591663,139.680832
ベルシャイン伊那店,長野県伊那市日影435-1,35.837654,137.973633
新所沢西口店,埼玉県所沢市緑町1-1-11,35.805317,139.456284
大塚南口店,東京都豊島区南大塚3-53-5,35.730415,139.728333
ドトールコーヒーショップ熊本下通り店,熊本県熊本市中央区手取本町4-7,32.802948,130.709732
上尾ショッピングアベニュー店,埼玉県上尾市緑丘3-3-11-2,35.986404,139.579102
JR高槻南口店,大阪府高槻市紺屋町1-1,34.851681,135.618958
神保町3丁目店,東京都千代田区神田神保町3-2,35.696079,139.754456
釧路労災病院店,北海道釧路市中園町13-23,43.006557,144.384811
静岡呉服町2丁目店,静岡県静岡市葵区呉服町2-2-10,34.974476,138.382202
東高円寺店,東京都杉並区高円寺南1-7-1,35.698097,139.658066
三和子供の国店,神奈川県横浜市青葉区奈良1-2-1,35.557125,139.484268
恵比寿東店,東京都渋谷区東3-25-5,35.648594,139.710266
アイモール三好店,愛知県みよし市三好町青木88,35.092922,137.078735
成瀬店,東京都町田市南成瀬1-1-3,35.53537,139.473297
浅草橋南店,東京都台東区浅草橋1-9-13,35.696873,139.785782
阪急淡路店,大阪府大阪市東淀川区淡路4-14-14,34.740303,135.51532
エッソ久地店,神奈川県川崎市高津区久地770,35.612049,139.600739
みなとみらいセンタービル店,神奈川県横浜市西区みなとみらい3-6-1,35.457485,139.632874
谷町2丁目店,大阪府大阪市中央区谷町2-2-20,34.686249,135.517548
恵比寿1丁目店,東京都渋谷区恵比寿1-11-1,35.646801,139.711502
上野御徒町中央通り店,東京都台東区上野6-13-6,35.710793,139.77504
都営大手町店,東京都千代田区丸の内1-3-1,35.684296,139.76355
ドトールコーヒーショップ鶴川店,東京都町田市能ヶ谷1-6-11,35.583374,139.48114
災害医療センター店,東京都立川市緑町3256,35.706291,139.407944
公立置賜総合病院店,山形県東置賜郡川西町西大塚2000,38.044968,140.058105
学芸大学西口店,東京都目黒区鷹番3-6-21,35.62923,139.68486
アピタタウンけいはんな店,京都府相楽郡精華町精華台9-2-4,34.745991,135.770935
志村坂上店,東京都板橋区小豆沢2-18-7,35.776207,139.695084
今池店,愛知県名古屋市千種区今池1-30-6,35.167625,136.936539
平塚ユーユー駅前館店,神奈川県平塚市紅谷町5-20,35.328831,139.349228
アピタ御嵩店,岐阜県可児郡御嵩町上恵土字西畑1052-1,35.433804,137.07103
川崎ソリッドスクエア店,神奈川県川崎市幸区堀川町580,35.53569,139.70047
八丁堀店,東京都中央区八丁堀2-26-15,35.675758,139.777924
関内仲通り店,神奈川県横浜市中区住吉町2-22,35.445812,139.638016
神田中央通り店,東京都千代田区鍛冶町2-6-1,35.691917,139.771942
石神井公園駅前店,東京都練馬区石神井町3-20-15,35.74316,139.60614
町田金森店,東京都町田市金森3-21-15,35.528423,139.462952
DOUTOR）,群馬県太田市大島町455-1,36.298759,139.360474
コーチャンフォー若葉台店,東京都稲城市若葉台2-9,35.623409,139.473785
ビーンズ新杉田店,神奈川県横浜市磯子区新杉田町6,35.386219,139.619858
洗足駅前店,東京都目黒区洗足2-21-1,35.610592,139.694443
川越店,埼玉県川越市脇田町6-5,35.909641,139.48291
吉祥寺元町通り店,東京都武蔵野市吉祥寺本町1-8-10,35.704861,139.578293
我孫子南口店,千葉県我孫子市本町2-1-2,35.872398,140.011551
イズミヤ八尾店,大阪府八尾市沼1-1,34.588596,135.602982
竹の塚店,東京都足立区竹の塚6-8-4,35.79451,139.792282
ドトールコーヒーショップ上板橋南口店,東京都板橋区上板橋2-36-8,35.763409,139.676041
千駄ヶ谷1丁目店,東京都渋谷区千駄ヶ谷1-21-14,35.678787,139.709625
ニコモール新田店,群馬県太田市新田市野井町592-13,36.30278,139.302261
南行徳店,千葉県市川市南行徳1-20-13,35.672054,139.901825
イズミヤ八幡店,京都府八幡市八幡一ノ坪23-1,34.860188,135.712051
JR六甲道店,兵庫県神戸市灘区永手町4-1-1,34.715218,135.239136
PLANT岐阜瑞穂店,岐阜県瑞穂市犀川5-38,35.369984,136.677109
大久保店,東京都新宿区百人町1-17-7,35.701603,139.697617
新宿アイランド店,東京都新宿区西新宿6-4-1,35.694016,139.693192
豊田店,東京都日野市多摩平1-2-1,35.66029,139.380692
御嶽山店,東京都大田区北嶺町32-13,35.585579,139.681549
葛西駅前店,東京都江戸川区中葛西5-34-11,35.663033,139.872116
府中フォーリス店,東京都府中市宮町1-41-1,35.670776,139.479736
大分中央商店街店,大分県大分市中央町1-3-10,33.236694,131.606598
横須賀大滝町店,神奈川県横須賀市大滝町2-16,35.281563,139.67012
名古屋栄店,愛知県名古屋市中区栄3-14-13,35.166393,136.906998
東日本橋店,東京都中央区東日本橋2-1-6,35.691986,139.785049
川崎銀柳街店,神奈川県川崎市川崎区駅前本町4-13,35.530075,139.699417
新馬場店,東京都品川区北品川2-17-9,35.618134,139.741104
新川崎京急ストア店,神奈川県川崎市幸区新川崎5-2,35.550671,139.670135
港南台店,神奈川県横浜市港南区港南台4-1-1,35.374939,139.576279
蒲田西口店,東京都大田区西蒲田7-66-5,35.562439,139.714661
逗子・葉山店,神奈川県逗子市逗子5-1-6,35.295567,139.580841
柏高島屋ステーションモール店,千葉県柏市末広町8-18,35.864052,139.970169
サンライズ蒲田店,東京都大田区西蒲田7-62-4,35.562237,139.712967
平和島店,東京都大田区大森北6-13-11,35.578613,139.734619
仙台南町通り店,宮城県仙台市青葉区中央3-4-3,38.25943,140.877136
三宮京町筋店,兵庫県神戸市中央区三宮町1-3-15,34.691006,135.193451
妙蓮寺店,神奈川県横浜市港北区菊名1-1-6,35.498493,139.632889
野村ビル店,東京都新宿区西新宿1-26-2,35.692776,139.696732
富山総曲輪店,富山県富山市総曲輪3-5-4,36.689526,137.215134
沼津ラクーン店,静岡県沼津市大手町3-4-1,35.101707,138.85939
東梅田店,大阪府大阪市北区堂山町3-3,34.702347,135.503235
本厚木一番街店,神奈川県厚木市中町2-8-2,35.441456,139.364822
高知帯屋町1丁目店,高知県高知市帯屋町1-9-3,33.560806,133.540039
桜新町店,東京都世田谷区桜新町1-12-9,35.631531,139.644379
湘南台西口駅前店,神奈川県藤沢市湘南台2-2-5,35.39669,139.466019
湘南とうきゅう店,神奈川県藤沢市遠藤698-10,35.384098,139.439621
新浦安モナ店,千葉県浦安市入船1-5-1,35.648975,139.913177
秦野北口店,神奈川県秦野市大秦町1-10,35.370598,139.22731
浦和東口店,埼玉県さいたま市浦和区東高砂町2-3,35.858273,139.658249
向河原店,神奈川県川崎市中原区下沼部1758,35.571861,139.665863
小田急相模原店,神奈川県相模原市南区南台3-20-1,35.514729,139.422043
相模大野ステーションスクエア店,神奈川県相模原市南区相模大野3-8-1,35.531628,139.436768
聖蹟桜ヶ丘店,東京都多摩市関戸1-7-1,35.652206,139.447906
イオンモール木曽川店,愛知県一宮市木曽川町黒田字南八ツヶ池25-1,35.349159,136.773605
御茶ノ水北店,東京都千代田区外神田2-19-3,35.702492,139.76651
川崎銀柳街店,神奈川県川崎市川崎区駅前本町4-13,35.530075,139.699417
新馬場店,東京都品川区北品川2-17-9,35.618134,139.741104
新川崎京急ストア店,神奈川県川崎市幸区新川崎5-2,35.550671,139.670135
港南台店,神奈川県横浜市港南区港南台4-1-1,35.374939,139.576279
蒲田西口店,東京都大田区西蒲田7-66-5,35.562439,139.714661
逗子・葉山店,神奈川県逗子市逗子5-1-6,35.295567,139.580841
柏高島屋ステーションモール店,千葉県柏市末広町8-18,35.864052,139.970169
サンライズ蒲田店,東京都大田区西蒲田7-62-4,35.562237,139.712967
平和島店,東京都大田区大森北6-13-11,35.578613,139.734619
仙台南町通り店,宮城県仙台市青葉区中央3-4-3,38.25943,140.877136
三宮京町筋店,兵庫県神戸市中央区三宮町1-3-15,34.691006,135.193451
妙蓮寺店,神奈川県横浜市港北区菊名1-1-6,35.498493,139.632889
野村ビル店,東京都新宿区西新宿1-26-2,35.692776,139.696732
富山総曲輪店,富山県富山市総曲輪3-5-4,36.689526,137.215134
沼津ラクーン店,静岡県沼津市大手町3-4-1,35.101707,138.85939
東梅田店,大阪府大阪市北区堂山町3-3,34.702347,135.503235
本厚木一番街店,神奈川県厚木市中町2-8-2,35.441456,139.364822
高知帯屋町1丁目店,高知県高知市帯屋町1-9-3,33.560806,133.540039
桜新町店,東京都世田谷区桜新町1-12-9,35.631531,139.644379
湘南台西口駅前店,神奈川県藤沢市湘南台2-2-5,35.39669,139.466019
湘南とうきゅう店,神奈川県藤沢市遠藤698-10,35.384098,139.439621
新浦安モナ店,千葉県浦安市入船1-5-1,35.648975,139.913177
秦野北口店,神奈川県秦野市大秦町1-10,35.370598,139.22731
浦和東口店,埼玉県さいたま市浦和区東高砂町2-3,35.858273,139.658249
向河原店,神奈川県川崎市中原区下沼部1758,35.571861,139.665863
小田急相模原店,神奈川県相模原市南区南台3-20-1,35.514729,139.422043
相模大野ステーションスクエア店,神奈川県相模原市南区相模大野3-8-1,35.531628,139.436768
聖蹟桜ヶ丘店,東京都多摩市関戸1-7-1,35.652206,139.447906
イオンモール木曽川店,愛知県一宮市木曽川町黒田字南八ツヶ池25-1,35.349159,136.773605
御茶ノ水北店,東京都千代田区外神田2-19-3,35.702492,139.76651
大阪駅前第一ビル店,大阪府大阪市北区梅田1-3-1,34.698494,135.49704
高津駅前店,神奈川県川崎市高津区溝口4-1-17,35.603279,139.616516
淵野辺南口店,神奈川県相模原市中央区淵野辺4-16-36,35.568523,139.395264
ティアラ21熊谷店,埼玉県熊谷市筑波3-202,36.139412,139.392044
岡山医療センター店,岡山県岡山市北区田益1711-1,34.708179,133.899582
イオン高槻店,大阪府高槻市萩之庄3-47-2,34.859531,135.644958
根岸店,神奈川県横浜市磯子区西町15-7,35.415936,139.634399
EneJet常盤平店,千葉県松戸市金ケ作93-1,35.804928,139.944901
マーサ21店,岐阜県岐阜市正木中1-2-1,35.446793,136.745743
京橋中央通り店,東京都中央区京橋3-6-21,35.675522,139.769501
京成青砥店,東京都葛飾区青戸3-39-11,35.745556,139.855347
ドトールコーヒーショップ四谷三丁目店,東京都新宿区四谷3-9,35.68763,139.719666
神保町すずらん通り店,東京都千代田区神田神保町1-17,35.69524,139.759903
都城M’sガーデン店,宮崎県都城市乙房町4113-1,31.765148,131.024399
福岡天神3丁目店,福岡県福岡市中央区天神3-16-23,33.593208,130.39772
福岡新天町店,福岡県福岡市中央区天神2-8-139,33.590611,130.396896
船橋駅南口店,千葉県船橋市本町1-3-1,35.700726,139.985504
幕張テクノガーデン店,千葉県千葉市美浜区中瀬1-3,35.651276,140.041779
霞ケ関メトロピア店,東京都千代田区霞が関2-1-2,35.676193,139.751129
四条烏丸店,京都府京都市中京区烏丸通錦小路上ル手洗水町659,35.007889,135.758133
神戸大学病院店,兵庫県神戸市中央区楠町7-5-2,34.685452,135.171051
西葛西北口店,東京都江戸川区西葛西3-16-12,35.665695,139.858948
金沢武蔵ヶ辻店,石川県金沢市下堤町7,36.570385,136.655243
宮城県庁店,宮城県仙台市青葉区本町3-8-1,38.268494,140.87178
市ヶ谷駅前店,東京都千代田区九段南4-8-27,35.69146,139.737869
三郷駅前店,埼玉県三郷市三郷1-1-10,35.844479,139.886154
自由ヶ丘店,東京都目黒区自由が丘2-11,35.607494,139.667252
渋谷井の頭通り店,東京都渋谷区宇田川町36-6,35.661713,139.697556
京都四条大橋店,京都府京都市下京区四条通小橋東入橋本町113,,
マーレ武蔵浦和店,埼玉県さいたま市南区白幡5-19-19,35.84491,139.647385
関西医科大学附属枚方病院店,大阪府枚方市新町2-3-1,34.817467,135.64505
上永谷店,神奈川県横浜市港南区丸山台1-13-5,35.401466,139.572098
町屋駅前店,東京都荒川区荒川7-50-9,35.742722,139.780869
名古屋セントラル病院店,愛知県名古屋市中村区太閤3-7-7,35.165829,136.880219
関西ろうさい病院店,兵庫県尼崎市稲葉荘3-1-69,34.73568,135.386536
本川越ペペ店,埼玉県川越市新富町1-22,35.914635,139.481705
鴻巣駅前店,埼玉県鴻巣市本町1-1-3,36.059147,139.509964
祖師ヶ谷大蔵駅店,東京都世田谷区祖師谷1-7-1,35.643196,139.609253
岡山表町2丁目店,岡山県岡山市北区表町2-2-66,34.66127,133.929276
北浦和東口店,埼玉県さいたま市浦和区北浦和3-8-15,35.872849,139.645828
仙台一番町4丁目店,宮城県仙台市青葉区一番町4-5-21,38.264454,140.870834
能見台店,神奈川県横浜市金沢区能見台通1-2,35.360519,139.629074
近鉄橿原神宮前駅店,奈良県橿原市久米町618,34.483025,135.793121
京成成田店,千葉県成田市花崎町816-15,35.777283,140.315475
要町店,東京都豊島区要町1-9-3,35.733551,139.697876
九州労災病院店,福岡県北九州市小倉南区曽根北町1-1,33.837269,130.938339
新宿サブナード店,東京都新宿区歌舞伎町1,35.695393,139.701294
台東4丁目店,東京都台東区台東4-28-8,35.707188,139.77951
北上さくら野店,岩手県北上市本通り2-2-1,39.289082,141.115906
浜田山店,東京都杉並区浜田山3-30-11,35.68261,139.627258
西武池袋駅店,東京都豊島区南池袋1-28,35.729187,139.711411
MALL江南店,愛知県江南市松竹町上野205,35.342606,136.855438
練馬千川通り店,東京都練馬区豊玉北5-18-9,35.737183,139.653992
平井北口店,東京都江戸川区平井3-30-35,35.706276,139.842941
松戸伊勢丹前店,千葉県松戸市松戸1305-2,35.783115,139.89949
藤枝市立総合病院店,静岡県藤枝市駿河台4-1-11,34.861412,138.229004
新大手町ビル店,東京都千代田区大手町2-2-1,35.685474,139.767288
エッソ狭山ヶ丘21店,埼玉県所沢市林3-556-1,35.808964,139.403244
ドトールコーヒーショップ日暮里駅前店,東京都荒川区西日暮里2-19-7,35.728195,139.771561
初台南口店,東京都渋谷区初台1-53-1,35.680622,139.68573
仲御徒町店,東京都台東区上野5-15-15,35.705338,139.775787
東武新越谷駅店,埼玉県越谷市南越谷1-11-4,35.875111,139.789734
御堂筋店,大阪府大阪市中央区南船場3-11-24,34.676712,135.500763
アスティ岐阜店,岐阜県岐阜市橋本町1,35.41011,136.756775
ホームズ葛西店,東京都江戸川区東葛西9-3-6,35.653355,139.880692
ドトールコーヒーショップ立川南口駅前店,東京都立川市柴崎町3-3-2,35.69693,139.413925
西新宿1丁目南店,東京都新宿区西新宿1-14-8,35.688438,139.696762
東十条店,東京都北区東十条4-5-23,35.76601,139.728165
新宿ビルディング店,東京都新宿区西新宿1-8-1,35.69088,139.69725
あきる野とうきゅう店,東京都あきる野市秋川1-17-1,35.730888,139.287292
水道橋東口店,東京都千代田区三崎町2-1-16,35.700134,139.755722
両国東口店,東京都墨田区両国3-26-5,35.695602,139.793457
木場店,東京都江東区東陽3-7,35.669563,139.809601
ドトールコーヒーショップ北千住西口店,東京都足立区千住3-92,35.751083,139.804565
ビーンズ赤羽店,東京都北区赤羽1-1-1,35.778782,139.720963
姫路みゆき通り店,兵庫県姫路市駅前町237,34.827621,134.690842
祐天寺店,東京都目黒区祐天寺1-23-21,35.638054,139.692078
神田松永町店,東京都千代田区神田松永町18-1,35.700535,139.775192
渋谷センター街店,東京都渋谷区宇田川町28-2,35.660206,139.698349
所沢店,埼玉県所沢市日吉町3-5,35.787712,139.472351
伏見桃山駅前店,京都府京都市伏見区両替町4-293-1,34.932503,135.763809
西荻窪南口店,東京都杉並区西荻南3-9-11,35.702972,139.600143
中野島店,神奈川県川崎市多摩区中野島3-14-33,35.629482,139.550247
ジョイフル本田千葉ニュータウン店,千葉県印西市牧の原2-1,35.807137,140.155594
天神ソラリアステージ店,福岡県福岡市中央区天神2-11-3,33.59042,130.398895
文苑堂富山豊田店,富山県富山市豊田町2-8-14,36.723228,137.236862
会津若松アピオ店,福島県会津若松市インター西118,37.520454,139.917221
沼袋店,東京都中野区沼袋3-27-10,35.72031,139.662994
埼玉大井イトーヨーカドー店,埼玉県ふじみ野市西鶴ケ岡1-3-15,35.862591,139.501144
御徒町昭和通り店,東京都台東区上野6-6-1,35.708542,139.776031
横浜北幸店,神奈川県横浜市西区北幸2-5-17,35.467522,139.617462
名古屋大学病院店,愛知県名古屋市昭和区鶴舞町65,35.157745,136.921539
山形大学病院店,山形県山形市飯田西2-2-2,38.213795,140.315613
市立函館病院店,北海道函館市港町1-10-1,41.804401,140.72966
国際展示場駅店,東京都江東区有明3-7-3,35.634727,139.792694
石川町店,神奈川県横浜市中区石川町1-3,35.438873,139.644775
三宮駅前店,兵庫県神戸市中央区北長狭通1-30,34.691998,135.19162
東陽町店,東京都江東区東陽4-5-18,35.669815,139.818604
会津若松神明通り店,福島県会津若松市栄町2-14,37.495956,139.928452
JR三宮東口店,兵庫県神戸市中央区琴ノ緒町5-1-304,34.694775,135.194626
ドトールコーヒーショップ日本橋浜町店,東京都中央区日本橋浜町3-3-1,35.684128,139.787857
大宮ソニックシティ前店,埼玉県さいたま市大宮区桜木町2-194,35.906147,139.620483
中目黒店,東京都目黒区上目黒3-3-2,35.644611,139.698532
横浜労災病院店,神奈川県横浜市港北区小机町3211,35.510883,139.611008
ドトールコーヒーコスパ松原店,埼玉県草加市松原1-2-15,35.845196,139.797668
近鉄鶴橋駅店,大阪府大阪市生野区鶴橋1-1,34.664219,135.530228
藤沢南口店,神奈川県藤沢市南藤沢3-2,35.337963,139.488617
衣笠店,神奈川県横須賀市衣笠栄町1-70-128,35.257278,139.662567
学芸大学店,東京都目黒区鷹番2-16-18,35.628841,139.686935
エッソ郡山美術館通り店,福島県郡山市向河原町4-65,37.40102,140.395996
妙典駅前店,千葉県市川市富浜1-3-2,35.691608,139.925735
金町北口店,東京都葛飾区東金町1-24-7,35.769924,139.86969
ホワイティウメダ店,大阪府大阪市北区角田町梅田地下街2-8,34.703751,135.499283
奈良県立医科大学附属病院店,奈良県橿原市四条町840,34.503887,135.792542
たまプラーザ店,神奈川県横浜市青葉区美しが丘2-15-8,35.578915,139.558945
元町鯉川筋店,兵庫県神戸市中央区三宮町3-7-4,34.689636,135.18959
鹿児島空港店,鹿児島県霧島市溝辺町麓822,31.800259,130.71759
福岡天神4丁目店,福岡県福岡市中央区天神4-4-1,33.5938,130.399002
西武入間ペペ店,埼玉県入間市河原町2-1,35.84132,139.38945
銀座6丁目店,東京都中央区銀座6-13-6,35.6689,139.765045
湘南鎌倉総合病院店,神奈川県鎌倉市岡本1370-1,35.34404,139.512985
ドトールコーヒーショップ喜多見店,東京都世田谷区喜多見8-18-11,35.636353,139.587936
大川店,福岡県大川市酒見215-1,33.2155,130.391327
新橋銀座口店,東京都港区新橋1-8-4,35.667068,139.760483
エッソ狩場インター店,神奈川県横浜市保土ケ谷区権太坂1-3-30,35.444645,139.577393
関東労災病院店,神奈川県川崎市中原区木月住吉町1-1,35.568249,139.65712
長岡天神店,京都府長岡京市天神1-1-7,34.925686,135.692596
吉祥寺公園口店,東京都武蔵野市吉祥寺南町1-8-5,35.701904,139.578857
新青山ビル店,東京都港区南青山1-1-1,35.672642,139.724991
ひたちなかファッションクルーズ店,茨城県ひたちなか市新光町35,36.406807,140.586945
西新宿3丁目店,東京都新宿区西新宿3-1-7,35.687344,139.694641
京阪古川橋店,大阪府門真市垣内町1-20,34.740944,135.593536
赤坂青山通り店,東京都港区赤坂4-8-20,35.67593,139.733521
新宿三井ビル店,東京都新宿区西新宿2-1-1,35.691662,139.693924
石川パーキングエリア下り店,東京都八王子市石川町2975,35.676861,139.371567
ららぽーとTOKYO‐BAY店,千葉県船橋市浜町2-1-1,35.686241,139.990204
みぞのくちノクティ店,神奈川県川崎市高津区溝口1-4-1,35.599026,139.612564
大山サンロード店,東京都板橋区大山東町52-2,35.748989,139.704056
東久留米西口店,東京都東久留米市本町1-5-21,35.759926,139.533691
ドトールコーヒーショップ問屋町店,青森県青森市第二問屋町4-10-26,40.788097,140.750565
大宮駅前店,埼玉県さいたま市大宮区桜木町1-8-1,35.904579,139.621017
横浜ジョイナス店,神奈川県横浜市西区南幸1-4,35.466694,139.621292
長崎観光通り店,長崎県長崎市万屋町4-13,32.745056,129.878876
荻窪南口店,東京都杉並区荻窪5-29-7,35.703735,139.621094
泉ヶ丘駅店,大阪府堺市南区竹城台1丁1-1,34.497997,135.511017
エッソ相模富士店,神奈川県相模原市中央区富士見1-8-1,35.570827,139.378082
JR岡山駅2階改札内店,岡山県岡山市北区駅元町1-1,34.665607,133.918015
清瀬北口店,東京都清瀬市元町1-2-7,35.772301,139.52037
神田和泉町店,東京都千代田区神田和泉町1-2-19,35.699192,139.77597
心斎橋1丁目店,大阪府大阪市中央区心斎橋筋1-2-16,34.674583,135.501404
久我山店,東京都杉並区久我山5-7-18,35.688103,139.59996
赤坂5丁目店,東京都港区赤坂5-4-12,35.671631,139.735382
駒込東口店,東京都北区中里1-6-1,35.736881,139.749512
イオンモール扶桑店,愛知県丹羽郡扶桑町南山名字高塚5-1,35.362358,136.89801
東中野店,東京都中野区東中野3-8-2,35.706806,139.682678
京都市立病院店,京都府京都市中京区壬生東高田町1-2,34.997562,135.73465
大倉山店,神奈川県横浜市港北区大倉山3-1-25,35.521782,139.629395
浅草ROX店,東京都台東区浅草1-25-15,35.71294,139.793137
西葛西南口店,東京都江戸川区西葛西6-16-4,35.663963,139.859619
ドトールコーヒーショップ二本松店,福島県二本松市油井字福岡133-1,37.614147,140.462433
イオンモール名取店,宮城県名取市杜せきのした5-3-1,38.163731,140.895782
千葉銀座通り店,千葉県千葉市中央区中央3-4-11,35.608753,140.121857
津久野イトーヨーカドー店,大阪府堺市西区下田町20-1,34.54179,135.464508
川越西口店,埼玉県川越市脇田本町1-9,35.907391,139.482651
元住吉東口店,神奈川県川崎市中原区木月2-5-5,35.564667,139.654953
千歳船橋店,東京都世田谷区船橋1-1-5,35.647633,139.62381
JR藤枝駅店,静岡県藤枝市駅前1-1-1,34.849796,138.252136
さくら店,栃木県さくら市櫻野505,36.681461,139.977371
新宿文化センター通り店,東京都新宿区新宿5-18-10,35.694756,139.706024
アピタ福井大和田店,福井県福井市大和田2-1230,36.096699,136.250656
大島駅前店,東京都江東区大島5-34-3,35.689342,139.834412
錦糸町楽天地ビル地下店,東京都墨田区江東橋4-27-14,35.696064,139.815231
神保町白山通り店,東京都千代田区神田神保町2-14-4,35.69698,139.757339
ゆめタウン下松店,山口県下松市中央町21-3,34.018559,131.86322
熊本上通り店,熊本県熊本市中央区上通町4-18,32.804031,130.710709
西神中央店,兵庫県神戸市西区糀台5-2-3,34.718746,135.019836
横浜南幸店,神奈川県横浜市西区南幸1-9-7,35.465679,139.619339
岩槻駅前店,埼玉県さいたま市岩槻区本町3-2-5,35.950104,139.693756
有楽町日比谷口店,東京都千代田区有楽町1-3-7,35.673389,139.760818
カラフルタウン岐阜店,岐阜県岐阜市柳津町丸野3-3-6,35.363968,136.728607
南浦和駅東口店,埼玉県さいたま市南区南浦和2-36-15,35.847885,139.669891
旗の台中原街道店,東京都品川区旗の台1-4-13,35.607254,139.703766
南池袋1丁目店,東京都豊島区南池袋1-21-7,35.72871,139.71228
新子安オルトヨコハマ店,神奈川県横浜市神奈川区新子安1-2-4,35.487392,139.652786
パルテきたこし店,埼玉県越谷市大沢3-6-1,35.901863,139.781036
中延駅前店,東京都品川区中延4-5-3,35.606094,139.712753
なかもず駅前店,大阪府堺市北区中百舌鳥町2-10,34.557819,135.504486
新宿2丁目店,東京都新宿区新宿2-5-8,35.689766,139.70694
神谷町店,東京都港区虎ノ門4-1-10,35.665405,139.744537
JR倉敷駅店,岡山県倉敷市阿知1-1-1,34.601593,133.765335
赤坂2丁目店,東京都港区赤坂2-11-15,35.670048,139.741119
ドトールコーヒーショップ京都四条通り店,京都府京都市下京区四条通麸屋町西入ル,,
永福町店,東京都杉並区和泉3-4-2,35.676025,139.643799
初台北口店,東京都渋谷区本町1-2-3,35.681213,139.685837
本八幡南口店,千葉県市川市南八幡4-1-13,35.720695,139.927307
盛岡中央店,岩手県盛岡市大通1-6-17,39.702557,141.14888
東武動物公園東口店,埼玉県南埼玉郡宮代町百間2-3-24,36.025322,139.726791
銀座柳通り店,東京都中央区銀座1-9-12,35.67342,139.768509
JR加古川駅店,兵庫県加古川市加古川町溝之口503-2,34.765945,134.840759
アトレ上野店,東京都台東区上野7-1-1,35.713696,139.776917
関内大通り店,神奈川県横浜市中区南仲通3-35,35.448189,139.638397
西鉄福岡駅店,福岡県福岡市中央区天神2-11-3,33.59042,130.398895
郡山富久山店,福島県郡山市富久山町八山田字大森新田36-1,37.431728,140.382843
海老名ビナウォーク店,神奈川県海老名市中央1-13-1,35.453106,139.394333
狛江店,東京都狛江市元和泉1-2-1,35.633244,139.577957
南柏店,千葉県柏市南柏1-1-1,35.844807,139.953995
相鉄大和店,神奈川県大和市中央2-1-1,35.470112,139.460907
仙台泉八文字屋店,宮城県仙台市泉区高玉町4-1,38.31778,140.894852
名駅名進研ビル店,愛知県名古屋市西区名駅2-34-19,35.175327,136.881653
市川総合病院店,千葉県市川市菅野5-11-13,35.732296,139.921616
東京大学安田講堂前店,東京都文京区本郷7-3-1,35.714146,139.763214
盛岡店,岩手県盛岡市みたけ3-36-1,39.740196,141.118011
ドトールコーヒーショップ鷺ノ宮店,東京都中野区鷺宮3-19-5,35.723129,139.638153
五反野駅前店,東京都足立区足立3-33-3,35.76577,139.808914
西武新宿北口店,東京都新宿区歌舞伎町2-46-7,35.697906,139.7005
溝の口駅前店,神奈川県川崎市高津区溝口1-9-5,35.599785,139.611984
ドトールコーヒーショップ芝浦3丁目店,東京都港区芝浦3-11-7,35.642895,139.749969
和光市駅前店,埼玉県和光市丸山台1-10-4,35.787437,139.612549
伊勢赤十字病院店,三重県伊勢市船江町1-471-2,34.499809,136.713074
天満橋OMMビル店,大阪府大阪市中央区大手前1-7-31,34.689873,135.517899
本郷台店,神奈川県横浜市栄区小菅ケ谷1-4-6,35.366375,139.550415
飯田橋ラムラ店,東京都新宿区神楽河岸1-1,35.700947,139.743423
竹橋店,東京都千代田区一ツ橋1-1-1,35.690922,139.757507
ビーンズ戸田公園店,埼玉県戸田市本町4-15-1,35.808144,139.678482
弘前さくら野店,青森県弘前市高崎2-15-1,40.608814,140.495132
練馬西口店,東京都練馬区練馬1-5-6,35.737217,139.653
下総中山北口店,千葉県船橋市本中山2-16-1,35.714832,139.943634
ドトールコーヒーショップ町田幸町通り店,東京都町田市原町田6-21-28,35.542999,139.447739
錦糸町錦糸公園前店,東京都墨田区錦糸3-4-9,35.697952,139.814774
JR福山駅店,広島県福山市三之丸町30-1,34.48941,133.362137
幡ヶ谷店,東京都渋谷区幡ヶ谷1-34-14,35.676781,139.677017
飯田橋東口店,東京都新宿区下宮比町1-4,35.702808,139.743942
みなとみらい三菱重工ビル店,神奈川県横浜市西区みなとみらい3-3-1,35.455715,139.629608
御徒町南口店,東京都台東区上野5-20-6,35.70657,139.774399
調布北口店,東京都調布市小島町1-12-7,35.653984,139.543289
ドトールコーヒーショップ新中野店,東京都中野区中央4-1-1,35.697639,139.670731
大岡山店,東京都大田区北千束1-51-6,35.608284,139.685394
小田原東口店,神奈川県小田原市栄町2-7-39,35.255383,139.157776
戸塚西口店,神奈川県横浜市戸塚区戸塚町16-1,35.400028,139.532776
天神ソラリア店,福岡県福岡市中央区天神2-2-43,33.589344,130.398727
