name,address,latitude,longitude
上野マルイ店,東京都台東区上野6-15-1,35.710232,139.775787
日比谷シティ店,東京都千代田区内幸町2-2-3,35.670513,139.754822
松山中央店,愛媛県松山市中央1-4-12,33.854042,132.753281
カインズホーム青梅店,東京都青梅市新町6-9-4,35.79269,139.315094
Part2店,宮城県仙台市太白区長町7-20-3,38.225822,140.876862
取手ボックスヒル店,茨城県取手市中央町2-5,35.89484,140.06218
イオンモール京都五条店,京都府京都市右京区西院追分町25-1-043,34.997326,135.727249
ちゃやまちアプローズタワー店,大阪府大阪市北区茶屋町19-19,34.708309,135.497833
西友楽市守谷店,茨城県守谷市けやき台4-1-5,35.936146,139.9944
北館店,千葉県船橋市浜町2-1-1,35.686241,139.990204
神戸西舞子店,兵庫県神戸市垂水区西舞子1-10-4,34.639915,135.025269
名鉄百貨店名古屋店,愛知県名古屋市中村区名駅1-2-1,35.169827,136.884384
なんばウォーク店,大阪府大阪市中央区千日前1,34.667622,135.504395
熊本大江店,熊本県熊本市中央区大江3-2-33,32.804131,130.72612
香林坊東急スクエア店,石川県金沢市香林坊2-1-1,36.562077,136.653381
仙台クリスロード店,宮城県仙台市青葉区中央2-5-3,38.261482,140.876999
岡崎竜美店,愛知県岡崎市竜美西2-9-13,34.939133,137.166901
札幌グランドホテル店,北海道札幌市中央区北一条西4,43.062206,141.350815
チェリープラザ店,愛知県名古屋市中区栄3-19-8,35.16576,136.90451
御堂筋グランドビル店,大阪府大阪市中央区難波2-2-3,34.667587,135.500092
みらい長崎ココウォーク店,長崎県長崎市茂里町1-55,32.762981,129.864777
宮崎青葉町店,宮崎県宮崎市青葉町121-6,31.919819,131.436142
沖縄津嘉山店,沖縄県島尻郡南風原町津嘉山1321-1,26.193764,127.71312
学芸大駅前店,東京都目黒区鷹番3-15-25,35.629292,139.684265
イオンモール札幌苗穂店,北海道札幌市東区東苗穂2条3-1-1,43.079685,141.403885
三木サービスエリア（上り線）店,兵庫県三木市大村大門1067-110,34.802406,134.969208
高知潮江店,高知県高知市潮新町2-13-28,33.548752,133.550735
ザザシティ浜松店,静岡県浜松市中央区鍛冶町15,34.703552,137.732422
千葉ニュータウン店,千葉県印西市泉野3-1186-5,35.805866,140.129105
イオンモール新居浜店,愛媛県新居浜市前田町8-8,33.954357,133.270233
LAQUE四条烏丸店,京都府京都市下京区四条通室町東入函谷鉾町101,,
高島屋ステーションモール店,千葉県柏市末広町1-1,35.862377,139.970825
あざみ野みすずが丘店,神奈川県横浜市青葉区あざみ野南4-5-7,35.560482,139.541855
筑波大学附属病院店,茨城県つくば市天久保2-1-18,36.093224,140.10202
長崎空港店,長崎県大村市箕島町593,32.91518,129.914444
イースト2階店,北海道札幌市中央区北5条西2-5,43.068001,141.351227
松山はなみずき通り店,愛媛県松山市古川北3-7-28,33.810444,132.765457
ベイシア西部モール店,群馬県伊勢崎市宮子町3430-6,36.331673,139.158813
イオンモール川口前川店,埼玉県川口市前川1-1-11,35.833347,139.706055
山形県立中央病院店,山形県山形市青柳1800,38.300449,140.346176
大手町東京サンケイビル店,東京都千代田区大手町1-7-2,35.687069,139.765045
イオン若松店,福岡県北九州市若松区二島1-3-1,33.891369,130.74173
立川伊勢丹店,東京都立川市曙町2-5-1,35.699078,139.413345
北谷国道58号店,沖縄県中頭郡北谷町美浜1-5-11,26.313107,127.761292
イオン秦野店,神奈川県秦野市入船町12-1,35.377827,139.228149
多賀サービスエリア（上り線）店,滋賀県犬上郡多賀町敏満寺62-2,35.219063,136.282852
新大阪駅新幹線ラチ内店,大阪府大阪市淀川区西中島5-16-1,34.733185,135.500671
西武新宿PePe店,東京都新宿区歌舞伎町1-30-1,35.695972,139.699722
高松レインボーロード店,香川県高松市伏石町2084-5,34.311234,134.060135
茨木真砂店,大阪府茨木市真砂玉島台1-5,34.799839,135.582687
ゆめタウン徳島店,徳島県板野郡藍住町奥野東中須88-1,34.119118,134.500977
金沢フォーラス6Fクーゴ店,石川県金沢市堀川新町3-1,36.57856,136.649506
なんばCITY店,大阪府大阪市中央区難波5-1-60,34.664921,135.501114
アルビ住道店,大阪府大東市住道2-3-1,34.70628,135.621765
横浜スカイビル店,神奈川県横浜市西区高島2-19-12,35.464603,139.625
CIAL桜木町店,神奈川県横浜市中区桜木町1-1,35.453564,139.629242
泉中央セルバ店,宮城県仙台市泉区泉中央1-4-1,38.323639,140.882217
北心斎橋店,大阪府大阪市中央区南船場3-11-10,34.675991,135.501053
ひたちなか西光地店,茨城県ひたちなか市西光地2-17-2,36.416935,140.531631
なんばパークス店,大阪府大阪市浪速区難波中2-10-70,34.662411,135.501251
秋田東通店,秋田県秋田市東通4-5-20,39.713104,140.142944
福岡次郎丸店,福岡県福岡市早良区次郎丸2-10-10,33.552872,130.328781
イオンモール加西北条店,兵庫県加西市北条町北条308-1,34.930515,134.828217
高知帯屋町店,高知県高知市帯屋町2-2-14,33.560219,133.536774
旭川医科大学病院店,北海道旭川市緑が丘東二条1-1-1,43.730633,142.381897
埼玉医科大学国際医療センター店,埼玉県日高市山根稲荷山1397-1,35.918953,139.323944
久留米東櫛原店,福岡県久留米市東櫛原町413-1,33.325916,130.521729
ひたち野うしく店,茨城県牛久市ひたち野東2-7-1,36.007099,140.163895
広尾店,東京都渋谷区広尾5-14-5,35.650475,139.721802
イオンモール四條畷店,大阪府四條畷市砂4-3-2,34.744938,135.631226
蛍池ルシオーレ店,大阪府豊中市蛍池中町3-2-1,34.794266,135.448837
お茶の水村田ビル店,東京都千代田区神田駿河台2-5,35.700001,139.760956
イオン札幌桑園店,北海道札幌市中央区北8条西14-28,43.068291,141.333588
聖蹟桜ヶ丘オーパ店,東京都多摩市関戸4-72,35.649632,139.447052
エビスタ西宮店,兵庫県西宮市田中町1-6,34.737003,135.338486
郡山コスモス通り店,福島県郡山市堤2-41,37.397354,140.335861
アスナル金山店,愛知県名古屋市中区金山1-17-1,35.143738,136.900146
エトモ大井町店,東京都品川区大井1-1-1,35.607479,139.734772
グランデュオ蒲田店,東京都大田区西蒲田7-68-1,35.562431,139.715424
出雲大社店,島根県出雲市大社町杵築南841,35.396343,132.685959
美浜アメリカンビレッジ店,沖縄県中頭郡北谷町美浜16-2,26.315678,127.758156
つくば研究学園店,茨城県つくば市学園南3-20-6,36.072777,140.085464
6階店,千葉県柏市末広町1-1,35.862377,139.970825
NU茶屋町プラス店,大阪府大阪市北区茶屋町8-26,34.707348,135.499878
新宿三井ビル店,東京都新宿区西新宿2-1-1,35.691662,139.693924
丸の内ビル店,東京都千代田区丸の内2-4-1,35.681046,139.763794
高崎駅ビルモントレー店,群馬県高崎市八島町222,36.321606,139.013107
イオンモール大日店,大阪府守口市大日東町1-18,34.749195,135.579391
神戸旧居留地店,兵庫県神戸市中央区栄町通1-2-1,34.687683,135.189362
中野通り店,東京都中野区中野5-64-5,35.706882,139.665359
金山駅南口店,愛知県名古屋市熱田区金山町1-2-26,35.142212,136.901154
品川駅店,東京都港区港南2-1-78,35.631676,139.740341
千葉おゆみ野店,千葉県千葉市緑区おゆみ野南1-1-1,35.552868,140.158508
名古屋伏見ATビル店,愛知県名古屋市中区錦1-18-22,35.168175,136.894348
ココリア多摩センター店,東京都多摩市落合1-46-1,35.622295,139.424759
志木駅前店,埼玉県新座市東北2-39-1,35.822765,139.575027
御器所駅前店,愛知県名古屋市昭和区阿由知通4-2-1,35.149265,136.933334
コーヒー弘前公園前店,青森県弘前市上白銀町1-1,40.603149,140.46315
蔦屋書店,東京都港区六本木6-11-1,35.658768,139.731949
海老名市立中央図書館店,神奈川県海老名市上郷474-4,35.455582,139.38179
イオンモール大高オレンジコート店,愛知県名古屋市緑区南大高2-450,35.053516,136.947189
東京スカイツリー・ソラマチ西1階店,東京都墨田区押上1-1-2,35.710083,139.808609
2階店,宮崎県宮崎市新別府町江口862-1,31.924305,131.452423
池袋明治通り店,東京都豊島区南池袋1-18-17,35.727982,139.711823
エミフルMASAKI店,愛媛県伊予郡松前町筒井850,33.789639,132.715591
諏訪湖サービスエリア（上り線）店,長野県諏訪市豊田所久保3171,36.006775,138.056183
天神地下街店,福岡県福岡市中央区天神2,33.58939,130.398041
ララガーデン川口店,埼玉県川口市宮町18-9,35.806213,139.699142
イオンモール姫路大津店,兵庫県姫路市大津区大津町2-5,34.806774,134.606537
南青山2丁目店,東京都港区南青山2-26-37,35.669441,139.717606
横川サービスエリア（上り線）店,群馬県安中市松井田町横川917,36.34145,138.740234
神戸北野異人館店,兵庫県神戸市中央区北野町3-1-31,34.699791,135.190384
北参道店,東京都渋谷区千駄ケ谷3-39-9,35.678101,139.705948
イオンモール佐久平店,長野県佐久市佐久平駅南11-10,36.275497,138.464325
博多の森店,福岡県福岡市博多区東平尾1-71-9,33.589798,130.456314
小田急町田駅店,東京都町田市原町田6-12-20,35.544312,139.445557
尼崎つかしん店,兵庫県尼崎市塚口本町4-8-1,34.761581,135.417938
相模原共和店,神奈川県相模原市中央区共和4-19-20,35.562473,139.396606
日本大学板橋病院店,東京都板橋区大谷口上町30-1,35.749275,139.691055
新横浜店,神奈川県横浜市港北区新横浜2-5-1,35.509392,139.615524
イオンモール名取店,宮城県名取市杜せきのした5-3-1,38.163731,140.895782
スターバックスコーヒー,福岡県福岡市博多区博多駅中央街1-1,33.589912,130.420395
長野駅前店,長野県長野市南千歳町826,36.645218,138.189636
ウィング上大岡店,神奈川県横浜市港南区上大岡西1-6-1,35.408283,139.596436
蔦屋書店,神奈川県藤沢市辻堂元町6-20-1,35.334618,139.46405
羽田空港第1ターミナルマーケットプレイス3階店,東京都大田区羽田空港3-3-2,35.549461,139.78389
奥沢2丁目店,東京都世田谷区奥沢2-38-9,35.607376,139.671082
テラスモール湘南店,神奈川県藤沢市辻堂神台1-3-1,35.337242,139.446487
桜通り大津店,愛知県名古屋市中区丸の内3-20-17,35.173847,136.905914
朝霞駅前店,埼玉県朝霞市本町2-4-18,35.796467,139.599396
JR東京駅日本橋口店,東京都千代田区丸の内1-9-1,35.681252,139.767242
自治医科大学附属病院店,栃木県下野市薬師寺3311-1,36.4034,139.858521
宇都宮パセオ店,栃木県宇都宮市川向町1-23,36.560127,139.897675
カインズホーム鶴ヶ島店,埼玉県鶴ヶ島市三ツ木奥仲580-1,35.92905,139.391861
イオンモール伊丹昆陽店,兵庫県伊丹市池尻4-1-1,34.784988,135.381805
福井西環状やしろ店,福井県福井市渕2-1717,36.045799,136.187775
日吉店,神奈川県横浜市港北区日吉2-2-3,35.553875,139.646423
東仙台店,宮城県仙台市宮城野区東仙台4-14-1,38.277847,140.90834
東急プラザ表参道オモカド店,東京都渋谷区神宮前4-30-3,35.668392,139.706177
草津A・SQUARE店,滋賀県草津市西渋川1-23-23,35.024189,135.960098
イオンモールかほく店,石川県かほく市内日角タ25,36.708992,136.702209
イオンモール旭川西店,北海道旭川市緑町23-2161-3,43.794594,142.325775
上越店,新潟県上越市下門前1766,37.159203,138.253922
石垣空港店,沖縄県石垣市白保1960-104-1,24.392313,124.242783
港北ノースポート・モール店,神奈川県横浜市都筑区中川中央1-25-1,35.553181,139.579468
函館ベイサイド店,北海道函館市末広町24-6,41.766296,140.715057
用賀店,東京都世田谷区瀬田5-39-22,35.626419,139.626541
三木サービスエリア（下り線）店,兵庫県三木市加佐湯谷1142,34.805687,134.979767
木更津店,千葉県木更津市ほたる野1-15-2,35.377132,139.962402
和歌山パームシティ店,和歌山県和歌山市中野長差31-1,34.25621,135.140472
コトチカ烏丸御池店,京都府京都市中京区虎屋町地先,35.010387,135.759521
紙屋町シャレオ店,広島県広島市中区紙屋町,34.394382,132.458588
イオンモールつくば店,茨城県つくば市稲岡66-1,36.034595,140.132721
天神西通り店,福岡県福岡市中央区大名1-13-25,33.587917,130.39679
イーアスつくば店,茨城県つくば市研究学園5-19,36.088585,140.084579
天満橋京阪シティモール店,大阪府大阪市中央区天満橋京町1-1,34.690426,135.51712
宇都宮ゆいの杜店,栃木県宇都宮市ゆいの杜4-12-17,36.568237,139.991669
モラージュ柏店,千葉県柏市大山台2-3,35.882629,139.969238
千葉美浜店,千葉県千葉市美浜区幸町2-20-1,35.626415,140.089783
スターバックスコーヒー赤坂プルデンシャルタワー店,東京都千代田区永田町2-13-10,35.675842,139.738007
大泉学園ゆめりあフェンテ店,東京都練馬区東大泉5-43-1,35.748936,139.585556
イオンモール姫路リバーシティー店,兵庫県姫路市飾磨区細江2560,34.79826,134.668427
アピタ新潟西店,新潟県新潟市西区小新5-7-21,37.88055,139.00354
岐阜茜部店,岐阜県岐阜市茜部野瀬2-14-1,35.376961,136.746109
スターバックスコーヒー厚木及川店,神奈川県厚木市及川1101-1,35.469608,139.340393
蔦屋書店,大阪府大阪市北区梅田3-1-3,34.701881,135.496338
倉敷天満屋店,岡山県倉敷市阿知1-7-1,34.602062,133.767487
西宮鞍掛店,兵庫県西宮市鞍掛町6-7,34.729156,135.338669
サピアタワー店,東京都千代田区丸の内1-7-12,35.683498,139.767944
新鎌ケ谷店,千葉県鎌ケ谷市新鎌ケ谷3-1-5,35.774719,140.001007
新潟万代シテイ店,新潟県新潟市中央区万代1-6-1,37.916565,139.056198
木の葉モール橋本店,福岡県福岡市西区橋本2-27-2,33.55592,130.321625
福岡朝日ビル店,福岡県福岡市博多区博多駅前2-1-1,33.59063,130.418579
神宮前6丁目店,東京都渋谷区神宮前6-17-11,35.665535,139.703323
井の頭公園店,東京都武蔵野市吉祥寺南町1-15-7,35.700829,139.578339
中目黒山手通り店,東京都目黒区上目黒3-1-3,35.645374,139.697632
イオンモール東員店,三重県員弁郡東員町長深510-1,35.061817,136.57991
アリオ上田店,長野県上田市天神3-5-1,36.399662,138.244141
スターバックスコーヒー池袋ショッピングパーク店,東京都豊島区南池袋1-29-1,35.730278,139.712662
NHK広島ビル店,広島県広島市中区大手町2-11-10,34.390347,132.455399
福岡新宮店,福岡県糟屋郡新宮町中央駅前2-5-15,33.709198,130.454987
Coffee）,大阪府大阪市中央区今橋4-1-1,34.691063,135.500702
甲府アルプス通り店,山梨県中巨摩郡昭和町清水新居59-12,35.650974,138.543365
吉祥寺駅前店,東京都武蔵野市吉祥寺本町1-15-9,35.703838,139.580521
蔦屋書店,東京都渋谷区猿楽町17-5,35.648823,139.699509
2階レイクタウンゲート店,埼玉県越谷市レイクタウン4-2-2,35.877773,139.825058
仙台市名坂店,宮城県仙台市泉区高玉町3-10,38.318485,140.893326
フェアモール松任店,石川県白山市幸明町232-1,36.517498,136.578049
覚王山店,愛知県名古屋市千種区末盛通1-1,35.166622,136.952301
NEOPASA岡崎サービスエリア店,愛知県岡崎市宮石町六ツ田10-4,35.030331,137.224365
東京スカイツリーソラマチ東6階店,東京都墨田区押上1-1-2,35.710083,139.808609
京都四条葛野大路店,京都府京都市右京区山ノ内池尻町8-2,35.004738,135.720474
サンロード店,愛知県名古屋市中村区名駅4-7-25,35.169647,136.884903
南青山骨董通り店,東京都港区南青山5-4-27,35.662231,139.714432
東京ガーデンテラス紀尾井町店,東京都千代田区紀尾井町1-2,35.67992,139.737183
アピタ千代田橋店,愛知県名古屋市千種区千代田橋2-1-1,35.187107,136.969559
三軒茶屋店,東京都世田谷区太子堂4-20-25,35.644539,139.6698
大府柊山店,愛知県大府市柊山町3-401,35.018784,136.953247
イオンモール高崎店,群馬県高崎市棟高町1400,36.390381,139.006577
上小田井mozoワンダーシティ店,愛知県名古屋市西区二方町40,35.225266,136.883301
ふじみ野店,埼玉県ふじみ野市ふじみ野4-9-1,35.857895,139.516418
成田空港店,千葉県成田市三里塚御料牧場1-1,35.749569,140.370987
藤が丘effe店,愛知県名古屋市名東区藤が丘170-4,35.182381,137.021469
MIDORI松本店,長野県松本市深志1-1-1,36.230938,137.965363
東京駅新幹線南ラチ内店,東京都千代田区丸の内1-9-1,35.681252,139.767242
中部国際空港セントレア店,愛知県常滑市セントレア1-1,34.858509,136.809021
宇都宮イトーヨーカドー店,栃木県宇都宮市陽東6-2-1,36.552746,139.93161
イオンモール直方店,福岡県直方市湯野原2-1-1,33.76894,130.749512
Qiz溝の口店,神奈川県川崎市高津区溝口1-13-1,35.599899,139.613907
武蔵小杉北口店,神奈川県川崎市中原区小杉町1-403,35.577137,139.65802
豊中ロマンチック街道店,大阪府豊中市向丘2-10-22,34.809994,135.472916
ゆめタウン呉店,広島県呉市宝町5-10,34.242977,132.556091
EXPASA御在所サービスエリア（上り線）店,三重県四日市市山之一色町池の谷口1569-2,35.012653,136.600891
CIAL鶴見店,神奈川県横浜市鶴見区鶴見中央1-1-2,35.507988,139.676743
福岡大濠公園店,福岡県福岡市中央区大濠公園1-8,33.589401,130.373947
太宰府向佐野店,福岡県太宰府市向佐野1-10-20,33.509483,130.494934
イオンモール与野店,埼玉県さいたま市中央区本町西5-2-9,35.889599,139.615906
久留米上津バイパス店,福岡県久留米市野伏間1-7-25,33.285419,130.511047
三井アウトレットパーク滋賀竜王店,滋賀県蒲生郡竜王町薬師砂山1178-694,35.066269,136.111084
ヴァル小山店,栃木県小山市城山町3-3-22,36.313061,139.806091
鎌倉店,神奈川県鎌倉市小町1-2-7,35.318497,139.551056
宇都宮福田屋店,栃木県宇都宮市今泉町237,36.573658,139.90004
アピタ鳴海店,愛知県名古屋市緑区鳴海町伝治山3-9,35.093197,136.959259
尾張一宮パーキングエリア（下り線）店,愛知県一宮市千秋町塩尻14-2,35.281567,136.854004
高田馬場早稲田通り店,東京都新宿区高田馬場1-25-32,35.712204,139.706787
イオンモール広島祇園店,広島県広島市安佐南区祇園3-2-1,34.443783,132.461578
アトレ上野店,東京都台東区上野7-1-1,35.713696,139.776917
PLiCO垂水店,兵庫県神戸市垂水区神田町1-17,34.629021,135.053436
滋賀長浜店,滋賀県長浜市川崎町265,35.392147,136.28421
千葉センシティタワー店,千葉県千葉市中央区新町1000,35.611118,140.113571
KDDI大手町ビル店,東京都千代田区大手町1-8-1,35.687778,139.764343
プラザ館店,大阪府大阪市天王寺区悲田院町10-48,34.647835,135.513748
芦花公園店,東京都世田谷区南烏山1-2-17,35.667915,139.613251
筑波大学中央図書館店,茨城県つくば市天王台1-1-1,36.108723,140.100632
MOSAIC店,兵庫県神戸市中央区東川崎町1-6-1,34.679356,135.184692
アリオ札幌店,北海道札幌市東区北7条東9-2-20,43.072914,141.370392
南条サービスエリア（上り線）店,福井県南条郡南越前町牧谷39,35.841614,136.231125
武蔵小杉東急スクエア店,神奈川県川崎市中原区小杉町3-472,35.575596,139.659225
イオンモール倉敷店,岡山県倉敷市水江1,34.601658,133.744385
住吉リブ店,兵庫県神戸市東灘区住吉本町1-2-1,34.719433,135.260788
豊中緑地公園店,大阪府豊中市東寺内町12-38,34.775429,135.496109
イオンモール船橋店,千葉県船橋市山手1-1-8,35.711884,139.975769
奈良学園前駅店,奈良県奈良市学園南3-1-5,34.696838,135.750397
長崎大村店,長崎県大村市幸町25-32,32.901123,129.951385
つくば駅店,茨城県つくば市吾妻2-128,36.084427,140.111145
蔦屋家電店,東京都世田谷区玉川2-21-1,35.611366,139.628525
六本木7丁目店,東京都港区六本木7-14-1,35.663563,139.731369
アピタ四日市店,三重県四日市市安島1-3-31,34.968884,136.616714
徳島駅クレメントプラザ店,徳島県徳島市寺島本町西1-61,34.074863,134.549835
アリオ橋本店,神奈川県相模原市緑区大山町1-22,35.592728,139.348618
豊川正岡店,愛知県豊川市正岡町流田506,34.802139,137.386719
イオンモール鹿児島店,鹿児島県鹿児島市東開町7,31.527231,130.53653
茅ヶ崎スルガビル店,神奈川県茅ヶ崎市元町2-3,35.331215,139.406601
プリンスショッピングプラザ店,長野県北佐久郡軽井沢町軽井沢,36.350819,138.630157
さいたま新都心店,埼玉県さいたま市大宮区吉敷町4-263-1,35.896694,139.634338
銀座松屋通り店,東京都中央区銀座3-7-14,35.671623,139.766632
豊橋ココラフロント店,愛知県豊橋市駅前大通1-55,34.762749,137.383865
橿原中和幹線店,奈良県橿原市葛本町789-1,34.520573,135.805649
札幌南一条店,北海道札幌市中央区南一条西2-5,43.059025,141.354935
五反田東急スクエア店,東京都品川区東五反田2-1-2,35.625713,139.724411
高松丸亀町フェスタ店,香川県高松市丸亀町6-1,34.342861,134.049652
なめがわ森林モール店,埼玉県比企郡滑川町羽尾2806-1,36.059055,139.369339
広島段原店,広島県広島市南区段原日出2-3-1,34.387173,132.484848
栄大津通店,愛知県名古屋市中区栄3-27-7,35.165134,136.906876
獨協医科大学越谷病院店,埼玉県越谷市南越谷2-1-50,35.878487,139.789307
横浜ワールドポーターズ店,神奈川県横浜市中区新港2-2-1,35.453987,139.638855
アピタ長津田店,神奈川県横浜市緑区長津田みなみ台4-7-1,35.518532,139.498703
名古屋大学附属図書館店,愛知県名古屋市千種区不老町,35.155655,136.964676
和歌山高松店,和歌山県和歌山市西高松1-7-87,34.209324,135.170319
近江八幡店,滋賀県近江八幡市鷹飼町北2-3-11,35.127338,136.105667
香川大学病院店,香川県木田郡三木町池戸1750-1,34.293594,134.121765
イオンモール桑名店,三重県桑名市新西方1-22,35.072212,136.662552
浦安店,千葉県浦安市北栄1-15-9,35.665394,139.893875
宮崎赤江店,宮崎県宮崎市恒久今井出916,31.886568,131.424332
渋谷マークシティ店,東京都渋谷区道玄坂1-12-3,35.658092,139.698685
横浜北幸店,神奈川県横浜市西区北幸2-6-1,35.46685,139.617172
日本橋スルガビル店,東京都中央区日本橋室町1-7-1,35.684696,139.774811
香里園店,大阪府寝屋川市香里新町31-17,34.784962,135.630066
渋谷クロスタワー店,東京都渋谷区渋谷2-15-1,35.659077,139.705292
阪急大井町ガーデン店,東京都品川区大井1-50-5,35.606041,139.734039
イオン橋本店,神奈川県相模原市緑区橋本6-2-1,35.596298,139.344482
品川駅ラチ内店,東京都港区港南2-1-78,35.631676,139.740341
鎌倉御成町店,神奈川県鎌倉市御成町15-11,35.31963,139.547485
ベイシア富里店,千葉県富里市七栄532,35.750504,140.309891
アリオ鳳店,大阪府堺市西区鳳南町3-199-12,34.526146,135.456894
イオンモール茨木店,大阪府茨木市松ケ本町8-30,34.811398,135.557831
スターバックスコーヒー日野万願寺店,東京都日野市万願寺4-24-6,35.6702,139.411499
イオンモール久御山店,京都府久世郡久御山町森南大内156-1,34.893517,135.745865
盛岡西バイパス店,岩手県盛岡市北飯岡4-12-20,39.669132,141.134293
海老名店,神奈川県海老名市中央1-4-1,35.452129,139.392563
明石ビブレ店,兵庫県明石市大久保町ゆりのき通り36952,34.681107,134.938416
港南台バーズ店,神奈川県横浜市港南区港南台3-1-3,35.375042,139.577301
スターバックスコーヒー神田小川町2丁目店,東京都千代田区神田小川町2-5-5,35.694206,139.763412
ミーナ天神店,福岡県福岡市中央区天神4-3-8,33.592609,130.398712
新栄葵町店,愛知県名古屋市東区葵1-21-4,35.170654,136.921066
ららぽーと甲子園店,兵庫県西宮市甲子園八番町1-100,34.717068,135.36261
イオン北千里店,大阪府吹田市古江台4-2-50,34.820385,135.509125
アトレヴィ三鷹店,東京都三鷹市下連雀3-46-4,35.702454,139.560333
仙台駅東口店,宮城県仙台市宮城野区榴岡1-2-10,38.259537,140.88588
イオンモール福津店,福岡県福津市日蒔野6-16-1,33.753025,130.492828
アリオ蘇我店,千葉県千葉市中央区川崎町52-7,35.588078,140.122589
三井アウトレットパーク倉敷店,岡山県倉敷市寿町12-3,34.603951,133.761246
自由が丘駅前店,東京都目黒区自由が丘1-11-6,35.607918,139.669281
イオンモール土浦店,茨城県土浦市上高津367,36.08086,140.17955
札幌円山店,北海道札幌市中央区南1条西27-1-1,43.055416,141.318375
横浜鶴見店,神奈川県横浜市鶴見区諏訪坂5-27,35.515011,139.665405
イオン那覇ショッピングセンター店,沖縄県那覇市金城5-10-2,26.196909,127.665909
プレ葉ウォーク浜北店,静岡県浜松市浜名区貴布祢1200,34.797241,137.779282
福島エスパル店,福島県福島市栄町1-1,37.753189,140.460678
カレッタ汐留店,東京都港区東新橋1-8-2,35.664555,139.762268
尾張一宮パーキングエリア（上り線）店,愛知県一宮市丹陽町三ツ井2709-6,35.278114,136.845886
神戸垂水桃山台店,兵庫県神戸市垂水区下畑町小川1400-12,34.650688,135.084778
龍ケ崎店,茨城県龍ケ崎市中根台4-1-13,35.931358,140.173737
EXPASA御在所サービスエリア（下り線）店,三重県四日市市山之一色町乱取口1491-2,35.012653,136.600891
神戸国際会館SOL店,兵庫県神戸市中央区御幸通8-1-6,34.691883,135.195938
イオンモール熊本店,熊本県上益城郡嘉島町上島長池2232,32.737942,130.743988
グランデュオ立川店,東京都立川市柴崎町3-2-1,35.697296,139.414185
新宿野村ビル店,東京都新宿区西新宿1-26-2,35.692776,139.696732
西本町店,大阪府大阪市西区阿波座1-3-18,34.681175,135.49704
熊本インターチェンジ店,熊本県熊本市東区神園1-1-6,32.837139,130.778641
スターバックスコーヒーアトレ恵比寿店（5F）,東京都渋谷区恵比寿南1-5-5,35.647175,139.709305
浜名湖サービスエリア店,静岡県浜松市浜名区三ケ日町佐久米61-2,34.782066,137.608337
アウトレット店,埼玉県越谷市レイクタウン4-1-1,35.880707,139.825058
イオン南砂店,東京都江東区南砂6-7-15,35.672672,139.835953
近鉄東大阪店,大阪府東大阪市長堂1-1-1,34.664043,135.561966
飯田橋サクラテラス店,東京都千代田区富士見2-10-2,35.699116,139.744629
西鉄天神高速バスターミナル店,福岡県福岡市中央区天神2-1-1,33.587925,130.400894
新宿マインズタワー店,東京都渋谷区代々木2-1-1,35.686947,139.699448
アピタ豊田元町店,愛知県豊田市土橋町1-21,35.063358,137.129593
新大阪ニッセイビル店,大阪府大阪市淀川区宮原3-4-30,34.734299,135.496719
グランマルシェ店,大阪府大阪市北区梅田3-1-3,34.701881,135.496338
くずは美咲店,大阪府枚方市楠葉朝日2-20,34.859375,135.687302
友部サービスエリア（下り線）店,茨城県笠間市長兎路梶山久保1051-3,36.304745,140.338669
北の丸スクエア店,東京都千代田区九段北1-13-12,35.695705,139.751221
イオンモール高の原店,京都府木津川市相楽台1-1-1,34.725586,135.790634
イオンモール太田店,群馬県太田市石原町81,36.294003,139.400223
大手町ビル店,東京都千代田区大手町1-6-1,35.68644,139.764771
四ツ橋店,大阪府大阪市西区北堀江1-1-18,34.673584,135.496918
丸の内三菱ビル店,東京都千代田区丸の内2-5-2,35.67997,139.763443
イオンモール四日市北店,三重県四日市市富州原町2-40,35.008869,136.655441
アピタ長久手店,愛知県長久手市戸田谷901-1,35.172455,137.038345
町田パリオ店,東京都町田市森野1-15-13,35.543427,139.443756
イオンモール東浦店,愛知県知多郡東浦町緒川旭13-2,34.982567,136.971863
湘南台駅ビル店,神奈川県藤沢市湘南台2-15,35.39518,139.46698
水戸エクセル5階店,茨城県水戸市宮町1-1-1,36.369884,140.481567
沖縄読谷店,沖縄県中頭郡読谷村古堅639-1,26.369532,127.746368
イオンモール成田店,千葉県成田市ウイング土屋24,35.795254,140.318909
小田原駅店,神奈川県小田原市城山1-1-1,35.255745,139.154007
広小路口店,愛知県名古屋市中村区太閤1-3-16,35.166203,136.882385
ガーデンパーク和歌山店,和歌山県和歌山市松江向鵜ノ島1469-1,34.241173,135.13063
EXPASA多賀サービスエリア（下り線）店,滋賀県犬上郡多賀町敏満寺66-11,35.220375,136.283661
マリンピア神戸店,兵庫県神戸市垂水区海岸通12-2,34.627895,135.045639
京都錦小路店,京都府京都市中京区東洞院通蛸薬師下ル元竹田町651,35.011112,135.764404
栄ラシック店,愛知県名古屋市中区栄3-6-1,35.167721,136.907272
TSUTAYA角盤町店,鳥取県米子市角盤町4-41,35.437286,133.32785
1階店,広島県安芸郡府中町大須2-1-1,34.394566,132.499527
久居インターガーデン店,三重県津市久居明神町風早2533,34.684696,136.462875
中目黒駅前店,東京都目黒区上目黒2-1-1,35.643978,139.699295
CoCoLo長岡店,新潟県長岡市城内町1-611-1,37.44659,138.853516
パークプレイス大分店,大分県大分市公園通り西2-1,33.195293,131.658203
みんなの森ぎふメディアコスモス店,岐阜県岐阜市司町40-5,35.426994,136.760193
カインズホーム前橋吉岡店,群馬県北群馬郡吉岡町大久保821,36.421471,139.024231
飯能PePe店,埼玉県飯能市仲町11-21,35.851208,139.320114
戸塚店,神奈川県横浜市戸塚区戸塚町10,35.400505,139.534561
日産グローバル本社ギャラリー店,神奈川県横浜市西区高島1-1-1,35.463299,139.625732
アピタ江南西店,愛知県江南市松竹町上野205,35.342606,136.855438
茅場町店,東京都中央区日本橋茅場町1-12-2,35.67942,139.780823
イオンモール浦和美園店,埼玉県さいたま市緑区大門3710,35.882477,139.731079
多賀城市立図書館店,宮城県多賀城市中央2-4-3,38.29221,141.00441
青葉台東急スクエア店,神奈川県横浜市青葉区青葉台2-1-1,35.542065,139.515961
アークヒルズ店,東京都港区赤坂1-12-32,35.667343,139.741302
渋谷文化村通り店,東京都渋谷区道玄坂2-25-6,35.660328,139.696564
イオンモール明和店,三重県多気郡明和町中村1223,34.581547,136.612457
イオン宇品店,広島県広島市南区宇品東6-1-15,34.362583,132.469528
高崎貝沢店,群馬県高崎市貝沢町1327-3,36.338943,139.027893
エスパル仙台東館店,宮城県仙台市青葉区中央1-1-1,38.260338,140.881699
イオンモール八千代緑が丘店,千葉県八千代市緑が丘2-1-3,35.727856,140.072845
長崎ゆめタウン夢彩都店,長崎県長崎市元船町10-1,32.74733,129.87117
アトレヴィ大塚店,東京都豊島区南大塚3-33-1,35.73135,139.72908
アミュプラザ鹿児島店,鹿児島県鹿児島市中央町1-1,31.58415,130.542221
ビエラ塚口店,兵庫県尼崎市上坂部1-1-1,34.751328,135.425171
イオンモール高岡店,富山県高岡市下伏間江383,36.723873,137.016861
イオンモール伊丹店,兵庫県伊丹市藤ノ木1-1-1,34.781769,135.423691
上里サービスエリア（上り線）店,埼玉県児玉郡上里町五明849-1,36.255943,139.120575
赤坂Bizタワー店,東京都港区赤坂5-3-1,35.672558,139.735168
スターバックスコーヒー大手町カンファレンスセンター店,東京都千代田区大手町1-3-1,35.690128,139.762375
モレラ岐阜店,岐阜県本巣市三橋1100,35.454281,136.675323
東京ドームシティラクーア店,東京都文京区春日1-1-1,35.705814,139.753983
アズ熊谷店,埼玉県熊谷市筑波2-115,36.139484,139.390518
恵比寿ユニオンビル店,東京都渋谷区恵比寿南1-2-10,35.646236,139.70784
沖縄アウトレットモールあしびなー店,沖縄県豊見城市豊崎1-1192,26.158119,127.655182
上里サービスエリア（下り線）店,埼玉県児玉郡上里町五明820,36.254246,139.11937
仙台パルコ店,宮城県仙台市青葉区中央1-2-3,38.261703,140.881943
山形エスパル店,山形県山形市香澄町1-1-1,38.248405,140.327972
カインズモール彦根店,滋賀県彦根市馬場2-1-1,35.277943,136.243561
札幌環状通東店,北海道札幌市東区本町二条1-5-1,43.082638,141.381668
渋谷公園通り店,東京都渋谷区神南1-7-5,35.66399,139.699203
諏訪城南店,長野県諏訪市城南2-2312-1,36.03278,138.118637
東銀座店,東京都中央区銀座5-15-8,35.668034,139.767654
西五反田店,東京都品川区西五反田1-18-1,35.623718,139.722961
松山湊町店,愛媛県松山市湊町7-1-29,33.835487,132.757553
イオンモール大曲店,秋田県大仙市和合坪立177,39.438168,140.509277
トレッサ横浜店,神奈川県横浜市港北区師岡町700,35.524197,139.645462
アトレ大森店,東京都大田区大森北1-6-16,35.588772,139.728455
蔦屋書店,埼玉県さいたま市浦和区高砂1-16-12,35.858215,139.657028
基山パーキングエリア（上り線）店,佐賀県三養基郡基山町小倉2097-1,33.440655,130.5298
和歌山県立医科大学附属病院店,和歌山県和歌山市紀三井寺811-1,34.187664,135.181717
アピタ高蔵寺店,愛知県春日井市中央台2-5,35.282776,137.048828
桜橋プラザビル店,大阪府大阪市北区曽根崎新地1-4-12,34.698135,135.495728
イオンモール千葉ニュータウン店,千葉県印西市中央北3-2,35.802212,140.112183
幕張WBG店,千葉県千葉市美浜区中瀬2-6-1,35.648041,140.038834
アトレ吉祥寺店,東京都武蔵野市吉祥寺南町1-1-24,35.703297,139.579697
渋谷ファイヤー通り店,東京都渋谷区神南1-12-10,35.663357,139.701019
ららぽーと横浜店,神奈川県横浜市都筑区池辺町4035-1,35.5173,139.566422
熊本光の森ロードサイド店,熊本県菊池郡菊陽町光の森3-22-2,32.862488,130.78273
ラザウォーク甲斐双葉店,山梨県甲斐市志田柿木645-1,35.68454,138.48378
小山店,栃木県小山市東城南1-27-1,36.29665,139.808228
南足柄店,神奈川県南足柄市竹松1003,35.32579,139.117798
富山総曲輪フェリオ店,富山県富山市総曲輪3-8-6,36.689693,137.213104
JR奈良駅旧駅舎店,奈良県奈良市三条本町1082,34.679401,135.81842
スターバックスコーヒー千葉長沼店,千葉県千葉市稲毛区長沼町333-10,35.657303,140.117447
東急スクエアガーデンサイト店,東京都大田区田園調布2-62-3,35.597439,139.667313
中部国際空港出発ターミナル内店,愛知県常滑市セントレア1-1,34.858509,136.809021
倉敷中島店,岡山県倉敷市中島2236-102,34.582146,133.74115
StarbucksCoffee経塚シティ店,沖縄県浦添市経塚652,26.237585,127.722748
神宮前4丁目店,東京都渋谷区神宮前4-3-4,35.666592,139.710922
岡山一番街店,岡山県岡山市北区駅元町一番街地下3,34.665607,133.918015
明大前店,東京都世田谷区松原2-46-5,35.669018,139.649994
熊本シャワー通り店,熊本県熊本市中央区下通2-3-1,32.798782,130.707611
那覇メインプレイス店,沖縄県那覇市おもろまち4-4-9,26.225033,127.694359
新横浜3丁目店,神奈川県横浜市港北区新横浜3-17-2,35.511169,139.617859
札幌美園店,北海道札幌市豊平区美園三条6-2-18,43.040607,141.389175
岡山大学病院店,岡山県岡山市北区鹿田町2-5-1,34.65099,133.920837
池袋サンシャイン通り店,東京都豊島区東池袋1-20-5,35.730808,139.715378
イオンモール甲府昭和店,山梨県中巨摩郡昭和町常永土地区画整理地内1街区,35.627975,138.53511
恵比寿ガーデンプレイスタワー1F店,東京都渋谷区恵比寿4-20-3,35.643627,139.712708
イオン北谷店,沖縄県中頭郡北谷町美浜8-3,26.316607,127.756149
アトレ秋葉原1店,東京都千代田区外神田1-17-6,35.698345,139.772522
中部国際空港第2セントレアビル店,愛知県常滑市セントレア1-1,34.858509,136.809021
三井アウトレットパーク木更津店,千葉県木更津市金田東3-1-1,35.435112,139.934372
大宮宮原ステラタウン店,埼玉県さいたま市北区宮原町1-854-1,35.932701,139.622437
スターバックスコーヒー三井住友銀行名古屋ビル店,愛知県名古屋市中区錦2-18-19,35.168522,136.899567
横浜公園店,神奈川県横浜市中区日本大通り60,35.446369,139.642365
山科駅前店,京都府京都市山科区安朱中小路町5,34.992359,135.817688
ミーナ津田沼店,千葉県習志野市津田沼1-3-1,35.68943,140.023071
イオンモール札幌平岡店,北海道札幌市清田区平岡三条5-3-1,42.998219,141.458145
イオンモール天童店,山形県天童市芳賀土地区画整理事業地内34街区,38.331913,140.370529
エチカ池袋店,東京都豊島区西池袋3-28-14,35.731293,139.708008
西武東戸塚S．C．店,神奈川県横浜市戸塚区品濃町537-1,35.430286,139.558716
市原店,千葉県市原市更級4-1-32,35.508595,140.099442
札幌パルコ店,北海道札幌市中央区南1条西3-3,43.058811,141.353348
姫路南店,兵庫県姫路市飾磨区三宅3-3,34.810265,134.680832
浜松メイワンエキマチウエスト店,静岡県浜松市中央区砂山町6-2,34.703781,137.734451
仙台大野田店,宮城県仙台市太白区大野田王ノ檀5(32ブロック1ロット),38.214161,140.876923
佐世保四ヶ町店,長崎県佐世保市島瀬町7-14,33.171993,129.720642
仙台国分町店,宮城県仙台市青葉区国分町2-2-2,38.262283,140.869843
吉祥寺東急店,東京都武蔵野市吉祥寺本町2-3-1,35.704521,139.57782
クリスタ長堀店,大阪府大阪市中央区南船場3,34.676495,135.501877
天王寺ミオ店,大阪府大阪市天王寺区悲田院町10-39,34.647064,135.513474
山形馬見ヶ崎店,山形県山形市馬見ヶ崎2-7-28,38.281464,140.331619
岐阜正木店,岐阜県岐阜市正木中2-3-8,35.449226,136.741837
熊本三年坂店,熊本県熊本市中央区安政町1-2,32.802357,130.709671
福岡大学病院店,福岡県福岡市城南区七隈7-45-1,33.546318,130.358902
芝大門店,東京都港区芝公園2-3-4,35.656536,139.752151
アリオ北砂店,東京都江東区北砂2-17-1,35.681305,139.82663
イオン板橋店,東京都板橋区徳丸2-6-1,35.769421,139.660797
伊勢原成瀬店,神奈川県伊勢原市下糟屋2008-1,35.403839,139.328445
ららぽーと豊洲サウスポート2階店,東京都江東区豊洲2-4-9,35.6563,139.792923
麻布十番店,東京都港区麻布十番1-11-14,35.655727,139.736496
パワーモール前橋みなみ店,群馬県前橋市新堀町938,36.329418,139.097214
伊勢崎SMARK店,群馬県伊勢崎市西小保方町368,36.339588,139.232391
富山ファボーレ店,富山県富山市婦中町下轡田165-1,36.662628,137.17131
なんば南海通店,大阪府大阪市中央区難波千日前12-30,34.665123,135.501938
9階店,大阪府大阪市北区梅田3-1-3,34.701881,135.496338
ラウンジ店,東京都港区六本木6-10-1,35.660206,139.729202
大倉山駅前店,神奈川県横浜市港北区大倉山1-2-10,35.521626,139.630096
イオンモール熱田店,愛知県名古屋市熱田区六野1-201,35.136627,136.911407
アトレ川崎店,神奈川県川崎市川崎区駅前本町26-1,35.530125,139.697968
秋田アルス店,秋田県秋田市中通7-2-1,39.712402,140.128632
自由が丘店,東京都目黒区自由が丘2-10-18,35.608799,139.667435
イオンモール秋田店,秋田県秋田市御所野地蔵田1-1-1,39.663094,140.160889
ミーツポート店,東京都文京区後楽1-3-61,35.703152,139.752151
龍谷大学店,京都府京都市伏見区深草塚本町67,34.963924,135.766693
高松瓦町駅店,香川県高松市常磐町1-3-1,34.338688,134.052551
イオンモール京都桂川1階店,京都府京都市南区久世高田町376-1,34.963566,135.707932
四谷3丁目店,東京都新宿区四谷2-14-4,35.68763,139.723404
京都三条烏丸ビル店,京都府京都市中京区三条通烏丸西入ル御倉町85-1,,
トリトンスクエア店,東京都中央区晴海1-8-10,35.655556,139.78183
仙台アエル店,宮城県仙台市青葉区中央1-3-1,38.262653,140.881424
藤枝蓮華寺池公園店,静岡県藤枝市本町1-2,34.873684,138.258606
東松本店,長野県松本市元町1-2-1,36.238594,137.980255
福山蔵王店,広島県福山市南蔵王町6-2-14,34.500393,133.401031
福岡春日店,福岡県春日市春日6-14,33.518223,130.469376
京都四条通ヤサカビル店,京都府京都市下京区四条通柳馬場西入ル立売中之町106,,
平塚田村店,神奈川県平塚市田村1-5-7,35.36615,139.361389
イオンモールナゴヤドーム前店,愛知県名古屋市東区矢田南4-102-3,35.188564,136.944626
西船橋メトロピア店,千葉県船橋市西船4-27-7,35.708256,139.957825
稲城東長沼店,東京都稲城市東長沼1711-6,35.638145,139.508286
STEP店,大阪府大阪市中央区西心斎橋1-6-14,34.671967,135.498718
阪急池田駅店,大阪府池田市栄町1-1,34.821823,135.425629
おやまゆうえんハーヴェストウォーク店,栃木県小山市喜沢1475,36.334133,139.806915
高松サン・フラワー通り店,香川県高松市太田下町3010-3,34.303612,134.051773
エキマルシェ新大阪店,大阪府大阪市淀川区西中島5-16-1,34.733185,135.500671
スターバックスコーヒー六本木ヒルズウエストウォーク店,東京都港区六本木6-10-1,35.660206,139.729202
ダイエー市川コルトンプラザ店,千葉県市川市鬼高1-1-1,35.715031,139.932663
新宿ダイアンビル店,東京都新宿区新宿3-36-6,35.690392,139.701706
JR有楽町駅京橋口店,東京都千代田区有楽町2-9,35.674507,139.762558
EXPASA足柄サービスエリア（下り線）店,静岡県駿東郡小山町桑木599,35.313461,138.96701
太閤通南口店,愛知県名古屋市中村区名駅1-1-4,35.17075,136.883423
JR高槻駅北店,大阪府高槻市芥川町1-2B-0202,34.851784,135.616257
イオンモール名古屋茶屋店,愛知県名古屋市港区西茶屋2-11,35.10471,136.825943
アトリウムガーデン店,大阪府大阪市北区梅田3-1-3,34.701881,135.496338
イオンモール沖縄ライカム店,沖縄県中頭郡北中城村字ライカム1,26.314575,127.796043
甲府リバーシティ店,山梨県中央市山ノ神1122,35.61478,138.513565
銀座ファイブ店,東京都中央区銀座5-1先,35.672363,139.761658
飯田橋アイガーデンテラス店,東京都千代田区飯田橋3-10-9,35.700607,139.748947
ららぽーと和泉店,大阪府和泉市あゆみ野4-4-7,34.435585,135.448669
新宿3丁目店,東京都新宿区新宿3-11-6,35.691933,139.70639
飯田橋軽子坂店,東京都新宿区揚場町2-1,35.70155,139.742813
下関あるかぽーと店,山口県下関市あるかぽーと2-28,33.953407,130.941116
福岡赤坂門店,福岡県福岡市中央区大名2-4-22,33.58868,130.390823
青森中央店,青森県青森市荒川藤戸134-2,40.7957,140.736145
多摩野猿街道店,東京都八王子市堀之内2-12-1,35.629181,139.401688
蔦屋書店,京都府京都市左京区岡崎最勝寺町13,35.014297,135.781448
スターバックスコーヒー秋田大学医学部付属病院店,秋田県秋田市広面蓮沼44-2,39.729149,140.149078
札幌紀伊國屋書店,北海道札幌市中央区北5条西5-7,43.067032,141.348038
西新宿三井ビル店,東京都新宿区西新宿6-24-1,35.695251,139.689072
三宮ダイエー店,兵庫県神戸市中央区雲井通6-1-15,34.695,135.196228
日進竹の山店,愛知県日進市竹の山2-2306,35.157089,137.034012
モザイクモール港北店,神奈川県横浜市都筑区中川中央1-31-1,35.555016,139.577957
大分大学医学部附属病院店,大分県由布市挾間町医大ヶ丘1-1,33.210209,131.534531
アトレ四谷店,東京都新宿区四谷1-5-25,35.686192,139.729874
イオンモール堺北花田店,大阪府堺市北区東浅香山町4丁1-12,34.584618,135.513718
イオンモール盛岡店,岩手県盛岡市前潟4-7-1,39.710526,141.101059
イオンモール羽生店,埼玉県羽生市川崎2-281-3,36.142914,139.541718
ゆめタウン八代店,熊本県八代市建馬町3-1,32.507446,130.584839
イオンモール幕張新都心グランドモール店,千葉県千葉市美浜区豊砂1-1,35.65609,140.02652
立命館大学大阪いばらき店,大阪府茨木市岩倉町2-150,34.80991,135.56163
順天堂医院店,東京都文京区本郷3-1-3,35.701878,139.762177
加古川別府店,兵庫県加古川市別府町朝日町11-1,34.729984,134.850006
東京大学工学部店,東京都文京区本郷7-3-1,35.714146,139.763214
酒田みずほ店,山形県酒田市みずほ1-20-6,38.9035,139.849518
富山藤の木店,富山県富山市開1330,36.681622,137.260223
東武池袋店,東京都豊島区西池袋1-1-25,35.729939,139.71051
三郷イトーヨーカドー店,埼玉県三郷市ピアラシティ1-1-1,35.842663,139.855316
新丸ビル店,東京都千代田区丸の内1-5-1,35.682579,139.764313
広島大学病院店,広島県広島市南区霞1-2-3,34.380127,132.477371
東武成増駅店,東京都板橋区成増2-13-1,35.777378,139.633148
アトレ恵比寿店（2F）,東京都渋谷区恵比寿南1-5-5,35.647175,139.709305
常陸多賀店,茨城県日立市桜川町1-2-15,36.557419,140.628983
メトロハット／ハリウッドプラザ店,東京都港区六本木6-4-1,35.661423,139.729691
浅草駅前店,東京都台東区花川戸1-5-1,35.711918,139.797913
徳島沖浜店,徳島県徳島市沖浜2-5,34.053226,134.552719
三宮磯上通店,兵庫県神戸市中央区磯上通7-1-19,34.692085,135.196884
三井アウトレットパーク北陸小矢部店,富山県小矢部市西中野972-1,36.687923,136.878403
山梨大学医学部附属病院店,山梨県中央市下河東1110,35.6092,138.538177
イオンモール扶桑店,愛知県丹羽郡扶桑町南山名高塚5-1,35.362358,136.89801
淡路町駅前店,東京都千代田区神田淡路町1-2,35.695717,139.767792
カインズスーパーモールかわじま店,埼玉県比企郡川島町上伊草210,35.975552,139.466812
ゆめタウン廿日市店,広島県廿日市市下平良2-2-1,34.345757,132.335617
ユニモール店,愛知県名古屋市中村区名駅4-5-26先,35.171429,136.88623
三宮生田新道店,兵庫県神戸市中央区下山手通2-1-13,34.693092,135.190857
ギャラリエアピタ知立店,愛知県知立市長篠町大山18-1,34.997875,137.051651
セントラルコート店,富山県高岡市下伏間江383,36.723873,137.016861
イクスピアリ店,千葉県浦安市舞浜1-4,35.631268,139.874329
湾岸幕張パーキングエリア（下り線）店,千葉県千葉市美浜区浜田2-102,35.659882,140.029068
新宿新南口店,東京都新宿区新宿4-1-9,35.688919,139.702332
小田原飯泉店,神奈川県小田原市飯泉374-1,35.289173,139.173737
ゆめタウン大牟田店,福岡県大牟田市旭町2-28,33.036034,130.452225
北生駒ならやま大通り店,奈良県生駒市上町3420-1,34.718609,135.721741
FIVE店,大阪府大阪市北区角田町5-15,34.703846,135.499634
虎ノ門2丁目タワー店,東京都港区虎ノ門2-3-17,35.668568,139.746826
湾岸幕張パーキングエリア（上り線）店,千葉県千葉市美浜区浜田2-102,35.659882,140.029068
アウトレット店,大阪府泉佐野市りんくう往来南3-28,34.406223,135.295151
大阪大学医学部附属病院店,大阪府吹田市山田丘2-15,34.81937,135.527527
イオンモール盛岡南店,岩手県盛岡市本宮7-1-1,39.684128,141.128922
聖路加国際病院店,東京都中央区明石町9-1,35.667965,139.776779
スターバックスコーヒー多摩境店,東京都町田市小山ヶ丘3-2-8,35.59972,139.380005
盛岡フェザン店,岩手県盛岡市盛岡駅前通1-44,39.696392,141.139297
大阪ガーデンシティ店,大阪府大阪市北区梅田3-3-20,34.698376,135.491592
県庁前店,茨城県水戸市笠原町978-40,36.340679,140.444077
シーサイドデッキ店,東京都江東区豊洲2-4-9,35.6563,139.792923
ミスターマックス湘南藤沢ショッピングセンター店,神奈川県藤沢市辻堂新町4-3-5,35.341549,139.465073
錦糸町テルミナ2店,東京都墨田区錦糸1-2-47,35.697327,139.813919
甲府和戸通り店,山梨県甲府市向町172-4,35.648949,138.610962
イオンモール札幌発寒店,北海道札幌市西区発寒8条12-1-1,43.095791,141.278183
イオン苫小牧ショッピングセンター店,北海道苫小牧市柳町3-1-20,42.657063,141.640335
イオン上田店,長野県上田市常田2-12-18,36.39249,138.258423
神栖店,茨城県神栖市平泉281-22,35.916241,140.635422
キュービックプラザ新横浜3階店,神奈川県横浜市港北区新横浜2-100-45,35.508678,139.614029
桑名サンシパーク店,三重県桑名市大仲新田111-1,35.079826,136.608124
中之島三井ビル店,大阪府大阪市北区中之島3-3-3,34.692722,135.494186
岡山大安寺店,岡山県岡山市北区野殿西町329-1,34.659546,133.880798
イオンモール春日部店,埼玉県春日部市下柳420-1,35.987579,139.788605
グランフロント大阪店,大阪府大阪市北区大深町4-20,34.703659,135.494705
アークヒルズサウスタワー店,東京都港区六本木1-4-5,35.665691,139.739304
WEST店,神奈川県小田原市中里208,35.28397,139.185623
イオン金沢八景店,神奈川県横浜市金沢区泥亀1-27-1,35.333851,139.622452
築地駅前店,東京都中央区築地2-12-8,35.667881,139.772079
御徒町春日通り店,東京都台東区上野6-2-1,35.707832,139.775604
イオンモール多摩平の森店,東京都日野市多摩平2-4-1,35.662437,139.38092
大和郡山アピタ店,奈良県大和郡山市田中町宮西517,34.642391,135.769135
福山ポートプラザ天満屋店,広島県福山市入船町3-1-25,34.486069,133.376144
町田東急ツインズ店,東京都町田市原町田6-4-1,35.542442,139.44606
海ほたるパーキングエリア店,千葉県木更津市中島地先海ほたる,35.463558,139.875549
名古屋自由ヶ丘店,愛知県名古屋市千種区鹿子殿14-8,35.179028,136.97583
東京科学大学店,東京都文京区湯島1-5-45,35.701828,139.765274
小田急相模大野ステーションスクエア店,神奈川県相模原市南区相模大野3-8-1,35.531628,139.436768
谷町筋NSビル店,大阪府大阪市中央区谷町2-2-22,34.686436,135.517548
新宿マルイ本館8階店,東京都新宿区新宿3-30-13,35.691158,139.703949
名古屋市立大学病院店,愛知県名古屋市瑞穂区瑞穂町川澄1,35.139385,136.935196
熊本ゆめタウン光の森店,熊本県菊池郡菊陽町光の森7-39-1,32.859192,130.785522
守谷サービスエリア（下り線）店,茨城県守谷市野木崎97-3,35.938236,139.966522
TSUTAYA京都リサーチパーク店,京都府京都市下京区中堂寺粟田町91,34.994747,135.737457
三芳パーキングエリア（下り線）店,埼玉県入間郡三芳町上富2218-1,35.839874,139.500397
佐賀大学通り店,佐賀県佐賀市与賀町70-1,33.247746,130.292328
沖縄西原シティ店,沖縄県中頭郡西原町嘉手苅130,26.224003,127.764923
長野川中島店,長野県長野市稲里町中氷鉋963-1,36.609558,138.170624
姫路飾磨店,兵庫県姫路市飾磨区恵美酒236,34.804646,134.672791
仙川駅前店,東京都調布市仙川町1-49-2,35.660618,139.586182
西武本川越駅店,埼玉県川越市新富町1-22,35.914635,139.481705
千葉中央駅店,千葉県千葉市中央区本千葉町15-1,35.607456,140.11763
ヴェルサウォーク西尾店,愛知県西尾市高畠町3-23-9,34.863388,137.059662
二子玉川公園店,東京都世田谷区玉川1-16-1,35.608452,139.632568
鶴川店,東京都町田市能ヶ谷1-5-1,35.58342,139.480591
横浜西口店,神奈川県横浜市西区南幸1-9-13,35.465622,139.619812
北里大学病院店,神奈川県相模原市南区北里1-15-1,35.538513,139.393845
イオンモール木更津店,千葉県木更津市築地1-4,35.356682,139.901382
イオンモール草津店,滋賀県草津市新浜町300,34.99818,135.912125
ゲートシティ大崎店,東京都品川区大崎1-11-1,35.619953,139.731201
プラーレ松戸店,千葉県松戸市松戸1149-1,35.782894,139.902496
錦糸町丸井店,東京都墨田区江東橋3-9-10,35.695351,139.813736
フェアモール福井店,福井県福井市大和田2-1230,36.096699,136.250656
札幌宮ケ丘店,北海道札幌市中央区宮ケ丘1-1-1,43.057507,141.313156
エキュート立川店,東京都立川市柴崎町3-1-1,35.697231,139.413162
神田駅前店,東京都千代田区神田鍛冶町3-2,35.693409,139.771225
北千住マルイ店,東京都足立区千住3-92,35.751083,139.804565
イオンモール木曽川店,愛知県一宮市木曽川町黒田南八ツヶ池25-1,35.349159,136.773605
水戸赤塚店,茨城県水戸市姫子2-751-16,36.37907,140.425064
三鷹武蔵境通り店,東京都三鷹市井口2-1-2,35.688942,139.550461
下関大丸店,山口県下関市竹崎町4-4-10,33.949104,130.92363
吹田山田店,大阪府吹田市山田東2-17-5,34.798515,135.525787
東京ビッグサイト店,東京都江東区有明3-11-1,35.630508,139.792313
みのおキューズモール店,大阪府箕面市西宿1-17-22,34.833054,135.490784
イオンモール各務原店,岐阜県各務原市那加萱場町3-8,35.392418,136.823975
けやきウォーク前橋店,群馬県前橋市文京町2-1-1,36.380619,139.076813
沖縄宜野湾店,沖縄県宜野湾市大謝名216-2,26.270123,127.734489
逗子駅前店,神奈川県逗子市逗子1-4-1,35.297157,139.579468
札幌西町店,北海道札幌市西区西町南4-1-20,43.07803,141.290421
リバーウォーク北九州デコシティ店,福岡県北九州市小倉北区室町1-1-1,33.885876,130.875244
千葉オーロラモールジュンヌ店,千葉県千葉市中央区新町1001,35.610691,140.115372
目黒店,東京都品川区上大崎2-25-2,35.634674,139.714447
阪神御影クラッセ店,兵庫県神戸市東灘区御影中町3-2-1,34.716091,135.254868
フレンテ南大沢店,東京都八王子市南大沢2-1-6,35.615257,139.382294
南池袋店,東京都豊島区南池袋2-16-4,35.727077,139.712341
新千歳空港店,北海道千歳市美々,42.783916,141.695938
下り線店,静岡県富士市岩淵1348-3,35.158443,138.619949
リーフウォーク稲沢店,愛知県稲沢市長野7-1-2,35.261143,136.819443
利晶の杜店,大阪府堺市堺区宿院町西2丁1-41,34.576527,135.470337
佐野プレミアムアウトレット店,栃木県佐野市越名町2058,36.292492,139.604828
スターバックスコーヒー明治神宮前メトロピア店,東京都渋谷区神宮前1-18-22,35.670052,139.702774
川西加茂店,兵庫県川西市加茂6-2-22,34.812073,135.411301
アトレヴィ田端店,東京都北区東田端1-17-2,35.738358,139.760513
イオンモール水戸内原店,茨城県水戸市内原2-1,36.374561,140.358841
郡山モルティ店,福島県郡山市駅前2-11-1,37.399582,140.387833
アトレ目黒1店,東京都品川区上大崎2-16-9,35.634079,139.71611
佐鳴台店,静岡県浜松市中央区入野町621-1,34.701099,137.699112
心斎橋オーパ店,大阪府大阪市中央区西心斎橋1-4-3,34.673267,135.500092
浦和別所店,埼玉県さいたま市南区別所3-2-2,35.855087,139.64743
横浜みなとみらい店,神奈川県横浜市西区みなとみらい4-7-1,35.458794,139.63028
恵比寿ファーストスクエア店,東京都渋谷区恵比寿1-18-14,35.647221,139.714584
堺プラットプラット店,大阪府堺市堺区戎島町3-22-1,34.582748,135.469559
横浜アイマークプレイス店,神奈川県横浜市西区みなとみらい4-4-5,35.460339,139.628647
酒々井パーキングエリア（下り線）店,千葉県印旛郡酒々井町墨1420-11,35.713905,140.285614
二子玉川ライズドッグウッドプラザ店,東京都世田谷区玉川2-23-1,35.612579,139.627243
イオンモール筑紫野店,福岡県筑紫野市立明寺434-1,33.480873,130.524292
池尻2丁目店,東京都世田谷区池尻2-27-7,35.649147,139.683182
スターバックスコーヒー秋葉原駅前店,東京都千代田区神田佐久間町1-6-5,35.697826,139.773346
横浜ベイクォーター店,神奈川県横浜市神奈川区金港町1-10,35.466892,139.626587
池袋西口店,東京都豊島区西池袋1-17-10,35.731113,139.708755
ベイシア佐倉店,千葉県佐倉市寺崎北6-1-2,35.714504,140.216965
福島県立医科大学附属病院店,福島県福島市光が丘1,37.689926,140.471603
3階店,埼玉県越谷市レイクタウン3-1-1,35.882484,139.828323
宮崎山形屋店,宮崎県宮崎市橘通東3-4-12,31.916191,131.423386
サンリブシティ小倉店,福岡県北九州市小倉南区上葛原2-14-1,33.839863,130.907883
金沢大桑店,石川県金沢市大桑2-394,36.534966,136.675751
くずはモール店,大阪府枚方市楠葉花園町15-1,34.861504,135.677216
JRJP博多店,福岡県福岡市博多区博多駅中央街8-1,33.589069,130.418991
マーゴ店,岐阜県関市倉知516,35.477791,136.900055
イオンモール柏店,千葉県柏市豊町2-5-25,35.852562,139.9599
西武高田馬場駅店,東京都新宿区高田馬場1-35-2,35.712494,139.703873
獨協医科大学病院店,栃木県下都賀郡壬生町北小林880,36.472305,139.825363
イオンモール高知店,高知県高知市秦南町1-4-8,33.575348,133.541473
イオンモール和歌山店,和歌山県和歌山市中楠谷573,34.271103,135.148483
イオンモール日の出,東京都西多摩郡日の出町平井237-3,35.734825,139.275146
スターバックスコーヒーピオレ明石店,兵庫県明石市大明石町1-1-23,34.648937,134.992722
イオンモール石巻店,宮城県石巻市茜平4-104,38.447937,141.266296
関内馬車道店,神奈川県横浜市中区常盤町4-45,35.446659,139.63588
国立店,東京都国立市東1-6,35.697807,139.447296
大和高田店,奈良県大和高田市神楽281-4,34.527695,135.744598
上野恩賜公園店,東京都台東区上野公園8-22,35.716244,139.7733
スターバックスコーヒーKITTE博多店,福岡県福岡市博多区博多駅中央街9-1,33.58884,130.419357
梓川サービスエリア（上り線）店,長野県安曇野市豊科高家961-1,36.269215,137.931671
たまプラーザテラス店,神奈川県横浜市青葉区美しが丘1-1-2,35.578224,139.559586
新宿グリーンタワービル店,東京都新宿区西新宿6-14-1,35.692436,139.689697
千葉若松店,千葉県千葉市若葉区若松町1-1,35.640526,140.174942
スクエア豊橋店,愛知県豊橋市藤沢町141,34.743671,137.37175
世田谷ビジネススクエア店,東京都世田谷区用賀4-10-1,35.62669,139.633987
江坂オッツ店,大阪府吹田市豊津町14-8,34.758049,135.495895
藤島通り店,福井県福井市二の宮3-2-11,36.083252,136.218613
浦和パルコ店,埼玉県さいたま市浦和区東高砂町11-1,35.857906,139.65863
麹町店,東京都千代田区麹町3-2-5,35.684242,139.738571
イオンモール佐野新都市店,栃木県佐野市高萩町1324-1,36.298794,139.606155
新百合ヶ丘エルミロード店,神奈川県川崎市麻生区上麻生1-4-1,35.603123,139.509323
汐留シティセンター店,東京都港区東新橋1-5-2,35.665634,139.761398
小谷サービスエリア（上り線）店,広島県東広島市高屋町小谷5661,34.432034,132.83699
横浜ビジネスパーク店,神奈川県横浜市保土ケ谷区神戸町134,35.454716,139.600159
本厚木店,神奈川県厚木市中町2-6-20,35.44075,139.364426
EBISUBASHI店,大阪府大阪市中央区道頓堀1-8-19,34.668682,135.501404
名古屋大須万松寺店,愛知県名古屋市中区大須3-31-14,35.158535,136.905823
LAQUE四条烏丸店,京都府京都市下京区四条通室町東入函谷鉾町101,,
高島屋ステーションモール店,千葉県柏市末広町1-1,35.862377,139.970825
あざみ野みすずが丘店,神奈川県横浜市青葉区あざみ野南4-5-7,35.560482,139.541855
筑波大学附属病院店,茨城県つくば市天久保2-1-18,36.093224,140.10202
長崎空港店,長崎県大村市箕島町593,32.91518,129.914444
イースト2階店,北海道札幌市中央区北5条西2-5,43.068001,141.351227
松山はなみずき通り店,愛媛県松山市古川北3-7-28,33.810444,132.765457
ベイシア西部モール店,群馬県伊勢崎市宮子町3430-6,36.331673,139.158813
イオンモール川口前川店,埼玉県川口市前川1-1-11,35.833347,139.706055
山形県立中央病院店,山形県山形市青柳1800,38.300449,140.346176
大手町東京サンケイビル店,東京都千代田区大手町1-7-2,35.687069,139.765045
イオン若松店,福岡県北九州市若松区二島1-3-1,33.891369,130.74173
立川伊勢丹店,東京都立川市曙町2-5-1,35.699078,139.413345
北谷国道58号店,沖縄県中頭郡北谷町美浜1-5-11,26.313107,127.761292
イオン秦野店,神奈川県秦野市入船町12-1,35.377827,139.228149
多賀サービスエリア（上り線）店,滋賀県犬上郡多賀町敏満寺62-2,35.219063,136.282852
新大阪駅新幹線ラチ内店,大阪府大阪市淀川区西中島5-16-1,34.733185,135.500671
西武新宿PePe店,東京都新宿区歌舞伎町1-30-1,35.695972,139.699722
高松レインボーロード店,香川県高松市伏石町2084-5,34.311234,134.060135
茨木真砂店,大阪府茨木市真砂玉島台1-5,34.799839,135.582687
ゆめタウン徳島店,徳島県板野郡藍住町奥野東中須88-1,34.119118,134.500977
金沢フォーラス6Fクーゴ店,石川県金沢市堀川新町3-1,36.57856,136.649506
なんばCITY店,大阪府大阪市中央区難波5-1-60,34.664921,135.501114
アルビ住道店,大阪府大東市住道2-3-1,34.70628,135.621765
横浜スカイビル店,神奈川県横浜市西区高島2-19-12,35.464603,139.625
CIAL桜木町店,神奈川県横浜市中区桜木町1-1,35.453564,139.629242
泉中央セルバ店,宮城県仙台市泉区泉中央1-4-1,38.323639,140.882217
北心斎橋店,大阪府大阪市中央区南船場3-11-10,34.675991,135.501053
ひたちなか西光地店,茨城県ひたちなか市西光地2-17-2,36.416935,140.531631
なんばパークス店,大阪府大阪市浪速区難波中2-10-70,34.662411,135.501251
スターバックスコーヒー王子駅前店,東京都北区王子1-9-5,35.754143,139.737732
新潟松崎店,新潟県新潟市東区松崎862,37.933609,139.113037
宇都宮インターパークステージ店,栃木県宇都宮市インターパーク4-2-3,36.49514,139.911209
ららぽーとEXPOCITY店,大阪府吹田市千里万博公園2-1,34.805485,135.53392
摂津本山岡本ビル店,兵庫県神戸市東灘区岡本1-2-17,34.727222,135.276443
イオンモールりんくう泉南店,大阪府泉南市りんくう南浜3-12,34.382992,135.267197
浅草雷門通り店,東京都台東区雷門2-16-7,35.710918,139.794678
岡山けやき通り店,岡山県岡山市中区西川原124-1,34.680775,133.941833
浜松佐鳴台店,静岡県浜松市中央区佐鳴台3-52-34,34.709797,137.69693
下北沢店,東京都世田谷区北沢2-30-6,35.662991,139.66713
大崎ブライトタワー店,東京都品川区北品川5-6-1,35.622047,139.730103
品川インターシティ店,東京都港区港南2-15-2,35.626335,139.742004
横須賀モアーズシティ店,神奈川県横須賀市若松町2-30,35.278214,139.669861
金町駅南口店,東京都葛飾区金町6-4-2,35.769032,139.871368
愛宕グリーンヒルズ店,東京都港区愛宕2-5-1,35.662052,139.748962
羽生パーキングエリア（下り線）店,埼玉県羽生市弥勒三新田824,36.180504,139.585556
霞ダイニング店,東京都千代田区霞が関3-2-5,35.671192,139.74791
元八王子店,東京都八王子市元八王子町1-409-2,35.664753,139.28833
イオンモール下妻店,茨城県下妻市堀篭972-1,36.190086,139.98941
イオンモール大阪ドームシティ店,大阪府大阪市西区千代崎3-13-1,34.669487,135.477341
ASTY岐阜店,岐阜県岐阜市橋本町1-10-1,35.409679,136.754929
ユニバーサル・タワー店,大阪府大阪市此花区島屋6-2-45,34.667362,135.437302
スターバックスコーヒー京都祇園ホテル店,京都府京都市東山区祇園町南側555,35.003292,135.776566
大分大道バイパス店,大分県大分市羽屋229-1,33.210636,131.602081
JR新大阪アルデ店,大阪府大阪市淀川区西中島5-16-1,34.733185,135.500671
熊本New‐S店,熊本県熊本市中央区上通町2-2,32.803276,130.710541
調布パルコ店,東京都調布市小島町1-38-1,35.652805,139.543518
四日市尾平店,三重県四日市市尾平町天王川原1863-1,34.977097,136.591003
イオン南風原店,沖縄県島尻郡南風原町宮平264,26.200636,127.737434
高松ゆめタウン店,香川県高松市三条町中所608-1,34.317055,134.041534
人形町店,東京都中央区日本橋人形町3-6-7,35.687008,139.781525
ビエラ甲子園口店,兵庫県西宮市甲子園口2-1-37,34.738506,135.375137
太宰府天満宮表参道店,福岡県太宰府市宰府3-2-43,33.519581,130.533371
渋谷モディ店,東京都渋谷区神南1-21-3,35.661812,139.700653
イオンモール浜松志都呂店,静岡県浜松市中央区志都呂2-37-1,34.696949,137.650879
奈良西大寺駅前店,奈良県奈良市西大寺東町2-1-63,34.694023,135.783539
ヒルズウォーク徳重ガーデンズ店,愛知県名古屋市緑区元徳重1-505,35.094334,136.999252
ゆめタウン久留米店,福岡県久留米市新合川1-2-1,33.321095,130.536743
シャポー船橋店,千葉県船橋市本町7-1-1,35.702137,139.983231
小倉京町店,福岡県北九州市小倉北区京町2-7-3,33.885677,130.881165
ららぽーと海老名店,神奈川県海老名市扇町13-1,35.45557,139.388977
奈良西大和ニュータウン店,奈良県北葛城郡河合町薬井476-4,34.590027,135.711548
スターバックスコーヒー福岡パルコ店,福岡県福岡市中央区天神2-11-1,33.59042,130.398895
成田空港第1ターミナル店,千葉県成田市三里塚御料牧場1-1,35.749569,140.370987
新幹線南ラチ内店,愛知県名古屋市中村区太閤1-3-16,35.166203,136.882385
成田空港第2ターミナル店,千葉県成田市古込1-1,35.773693,140.386032
イオンモール八幡東店,福岡県北九州市八幡東区東田3-2-102,33.870262,130.811401
天神南渡辺通り店,福岡県福岡市中央区渡辺通4-9-18,33.58744,130.401367
本郷東大前店,東京都文京区本郷4-1-4,35.708103,139.760635
肥後橋南店,大阪府大阪市西区江戸堀1-2-16,34.691753,135.496475
赤坂溜池タワー店,東京都港区赤坂2-17-1,35.670219,139.738419
酒々井プレミアム・アウトレット店,千葉県印旛郡酒々井町飯積2-4-1,35.714443,140.290268
ペディ汐留店,東京都港区東新橋1-9-1,35.662498,139.760895
ひたちなか店,茨城県ひたちなか市馬渡砂久保542-3,36.398067,140.572067
アリオ亀有店,東京都葛飾区亀有3-49-3,35.764343,139.852539
京都烏丸六角店,京都府京都市中京区六角通東洞院西入堂之前町254,,
函館蔦屋書店,北海道函館市石川町85-1,41.835342,140.743637
イオンモール香椎浜店,福岡県福岡市東区香椎浜3-12-1,33.657017,130.429855
土浦店,茨城県土浦市真鍋新町19-17,36.091209,140.208115
イオンモール新潟南店,新潟県新潟市江南区下早通柳田1-1-1,37.875652,139.083664
ゆめシティ新下関店,山口県下関市伊倉新町3-1-1,34.007175,130.935349
大分下郡店,大分県大分市下郡北3-25-16,33.229885,131.635101
浦添バークレーズコート店,沖縄県浦添市当山2-2-9,26.253496,127.735565
高崎上中居店,群馬県高崎市上中居町1746,36.31897,139.030075
神楽坂下店,東京都新宿区神楽坂1-9-2,35.700066,139.742065
イオンモールむさし村山1階店,東京都武蔵村山市榎1-1-3,35.746552,139.385162
させぼ五番街店,長崎県佐世保市新港町4-10,33.163387,129.725281
豊洲センタービル店,東京都江東区豊洲3-3-3,35.656506,139.796036
郡山安積店,福島県郡山市安積町荒井南千保8-2,37.369232,140.370453
昭島モリタウン店,東京都昭島市代官山2-3-1,35.705673,139.353607
青山骨董通り店,東京都港区南青山5-10-1,35.66259,139.71109
ビーンズ赤羽店,東京都北区赤羽1-1-1,35.778782,139.720963
沖縄国体道路店,沖縄県中頭郡北谷町上勢頭813-1,26.328392,127.770775
スターバックスコーヒーゆめタウン広島店,広島県広島市南区皆実町2-224-7,34.376289,132.463593
郡山駅店,福島県郡山市燧田195,37.397964,140.388947
イオンモール富谷店,宮城県富谷市大清水1-33-1,38.363411,140.87381
横浜モアーズ8階店,神奈川県横浜市西区南幸1-3-1,35.467518,139.622421
山形白山店,山形県山形市白山3-9-24,38.225475,140.320023
アクアシティお台場店,東京都港区台場1-7-1,35.627804,139.77359
新宿南口店,東京都渋谷区代々木2-13-8,35.687183,139.696625
岡山シネマタウン岡南店,岡山県岡山市南区築港新町1-25-1,34.603302,133.940384
FKD宇都宮インターパーク店,栃木県宇都宮市インターパーク6-1-1,36.490471,139.906799
アクタ西宮店,兵庫県西宮市北口町1-2,34.746296,135.35701
浜田山店,東京都杉並区浜田山3-37-15,35.685261,139.625427
東武北千住駅店,東京都足立区千住旭町42-1,35.752808,139.806046
金立サービスエリア（下り線）店,佐賀県佐賀市金立町金立1197-57,33.337917,130.306046
栄広小路店,愛知県名古屋市中区錦3-24-24,35.169121,136.905823
新宿西口店,東京都新宿区西新宿1-12-1,35.689949,139.697449
黒埼パーキングエリア（下り線）店,新潟県新潟市西区木場1206-3,37.824257,138.983505
テラスウォーク一宮店,愛知県一宮市両郷町1-2,35.311169,136.816635
キュービックプラザ新横浜2階店,神奈川県横浜市港北区新横浜2-100-45,35.508678,139.614029
ららぽーと立川立飛店,東京都立川市泉町935-1,35.714058,139.411499
スターバックスコーヒー竹橋パレスサイド店,東京都千代田区一ツ橋1-1-1,35.690922,139.757507
飯田橋メトロピア店,東京都新宿区神楽坂1-13,35.699635,139.741928
イオンモール鈴鹿店,三重県鈴鹿市庄野羽山4-1-2,34.87376,136.533142
あべのsolaha店,大阪府大阪市阿倍野区阿倍野筋1-1-43,34.64645,135.513275
新宿マルイ本館2階店,東京都新宿区新宿3-30-13,35.691158,139.703949
所沢けやき台店,埼玉県所沢市けやき台2-17-10,35.796738,139.4552
ららぽーと富士見店,埼玉県富士見市山室1-1313,35.858746,139.547913
アリオ八尾店,大阪府八尾市光町2-3,34.632385,135.60582
ゆめタウン出雲店,島根県出雲市大塚町650-1,35.377205,132.754807
つくばキュート店,茨城県つくば市吾妻1-6-1,36.081863,140.111633
イオンタウン千種店,愛知県名古屋市千種区千種2-16-13,35.160912,136.923828
EXPASA談合坂サービスエリア（下り線）店,山梨県上野原市野田尻710,35.648525,139.037308
春日井南下原店,愛知県春日井市南下原町3-12-4,35.270226,136.974991
らびすた新杉田店,神奈川県横浜市磯子区杉田1-1-1,35.385727,139.619171
札幌石山店,北海道札幌市南区石山2条9-7-50,42.959538,141.314606
神戸上津台店,兵庫県神戸市北区上津台9-2-13,34.862183,135.199905
渋谷3丁目店,東京都渋谷区渋谷3-11-7,35.656456,139.705536
府中くるる店,東京都府中市宮町1-50,35.671555,139.480728
金沢野々市店,石川県野々市市三納1-46,36.517902,136.608414
さいたま大和田店,埼玉県さいたま市見沼区大和田町1-1931,35.923885,139.656326
丸の内パークビル店,東京都千代田区丸の内2-6-1,35.678783,139.763062
イオンタウン富士南店,静岡県富士市鮫島118-10,35.139099,138.677155
八戸田向店,青森県八戸市田向毘沙門平18,40.489807,141.504517
武蔵ヶ辻めいてつエムザ店,石川県金沢市武蔵町15-1,36.571487,136.655136
スターバックスコーヒー日本橋本町店,東京都中央区日本橋本町2-4-5,35.687302,139.775299
大塚駅前店,東京都豊島区北大塚2-13-1,35.732189,139.728531
横浜ジョイナス店,神奈川県横浜市西区南幸1-4,35.466694,139.621292
具志川メインシティ店,沖縄県うるま市江洲450-1,26.352568,127.826202
八重洲地下街店,東京都中央区八重洲2-1,35.679859,139.769608
代沢5丁目店,東京都世田谷区代沢5-8-13,35.657196,139.66774
富士吉田店,山梨県富士吉田市上吉田東4-14-22,35.475109,138.807831
イーサイト高崎店,群馬県高崎市八島町222,36.321606,139.013107
ピオニウォーク東松山店,埼玉県東松山市あずま町4-3,36.005379,139.410278
nonowa武蔵小金井店,東京都小金井市本町6-14-29,35.70097,139.505493
宮島サービスエリア（下り線）店,広島県廿日市市上平良293,34.364578,132.318146
清瀬駅前店,東京都清瀬市元町1-8-1,35.772526,139.519745
イオンモール高松店,香川県高松市香西本町1-1,34.351009,134.003082
イオンモール大垣店,岐阜県大垣市外野2-100,35.336967,136.613708
長野南高田店,長野県長野市南高田1-16-7,36.643028,138.222321
スターバックスコーヒーララガーデン春日部店,埼玉県春日部市南1-1-1(店舗番号1230)ララガーデン春日部,35.97744,139.754761
イオンモール北戸田店,埼玉県戸田市美女木東1-3-1,35.826706,139.65303
キャナルシティ博多店,福岡県福岡市博多区住吉1-2-22,33.589966,130.411606
新宿サブナード店,東京都新宿区歌舞伎町1,35.695393,139.701294
アコルデ代々木上原店,東京都渋谷区西原3-8-5,35.66946,139.680283
丸の内新東京ビル店,東京都千代田区丸の内3-3-1,35.677563,139.76265
宇都宮上戸祭店,栃木県宇都宮市上戸祭町欠ノ上366-7,36.595226,139.864883
武蔵境イトーヨーカドー店,東京都武蔵野市境南町2-3-6,35.70134,139.544708
スターバックスコーヒー東武久喜駅店,埼玉県久喜市久喜中央2-1-1,36.065983,139.676971
東海大学医学部付属病院店,神奈川県伊勢原市下糟屋143,35.406673,139.313675
イオンモール旭川駅前店,北海道旭川市宮下通7-2-5,43.76445,142.358063
白金高輪店,東京都港区白金1-17-2-102,35.644455,139.733154
OBP松下IMPビル店,大阪府大阪市中央区城見1-3-7,34.691883,135.529419
星が丘テラス店,愛知県名古屋市千種区星が丘元町16-50,35.160816,136.985367
モラージュ菖蒲1階店,埼玉県久喜市菖蒲町菖蒲6005-1,36.075214,139.611633
イオンモール新発田店,新潟県新発田市住吉町5-11-5,37.941456,139.309586
談合坂サービスエリア（上り線）店,山梨県上野原市大野4943,35.623985,139.058258
イオン幕張店,千葉県千葉市美浜区ひび野1-3,35.651863,140.045303
ラスパ太田川店,愛知県東海市大田町下浜田102-1,35.022758,136.893448
山王パークタワー店,東京都千代田区永田町2-11-1,35.673264,139.740585
富山けやき通り店,富山県富山市布瀬町南3-6-7,36.673447,137.20134
鹿児島天文館店,鹿児島県鹿児島市東千石町16-18,31.591883,130.554581
須磨大丸店,兵庫県神戸市須磨区中落合2-2-4,34.678413,135.09465
港北ミナモ店,神奈川県横浜市都筑区中川中央2-7-1,35.550484,139.575485
ジャズドリーム長島店,三重県桑名市長島町浦安368,35.029049,136.729919
つくば店,茨城県つくば市稲荷前12-2,36.048397,140.12854
那覇国際通り牧志店,沖縄県那覇市牧志2-1-1,26.216391,127.688072
川崎モアーズ店,神奈川県川崎市川崎区駅前本町7,35.530628,139.699875
ダイバーシティ東京プラザ店,東京都江東区青海1-1-10,35.625084,139.774078
アトレ新浦安店,千葉県浦安市入船1-1-1,35.64994,139.91272
新橋駅前店,東京都港区新橋2-19-3,35.666809,139.759552
水戸駅南中央通り店,茨城県水戸市元吉田町303-1,36.356102,140.473999
守谷サービスエリア（上り線）店,茨城県守谷市大柏166,35.939388,139.969254
横浜元町店,神奈川県横浜市中区元町1-13-5,35.441593,139.650635
イオンモール福岡店,福岡県糟屋郡粕屋町酒殿老ノ木192-1,33.596455,130.480286
沖縄真嘉比店,沖縄県那覇市松島1-14-13,26.222744,127.70491
四街道イトーヨーカドー店,千葉県四街道市中央5,35.667564,140.165146
佐賀南バイパス店,佐賀県佐賀市本庄町袋306-6,33.239628,130.29895
成城店,東京都世田谷区成城2-40-25,35.639919,139.599167
盛岡菜園店,岩手県盛岡市菜園1-11-11,39.7015,141.146759
アウトレット店,兵庫県神戸市北区上津台7-3,34.8592,135.191727
イオンモール岡山店,岡山県岡山市北区下石井1-2-1,34.662712,133.9189
天神VIORO店,福岡県福岡市中央区天神2-10-3,33.589458,130.398575
チッタデッラ,神奈川県川崎市川崎区小川町4-1,35.528072,139.697968
ゆめタウン博多店,福岡県福岡市東区東浜1-1-1,33.61153,130.412064
長岡リバーサイド千秋店,新潟県長岡市千秋2-278,37.460854,138.827026
イオンモール大和郡山店,奈良県大和郡山市下三橋町741,34.650848,135.802139
代々木店,東京都渋谷区代々木1-38-7,35.682724,139.701416
武雄市図書館店,佐賀県武雄市武雄町武雄5304-1,33.188904,130.023087
タピオ店,宮城県仙台市泉区寺岡6-5-1,38.342945,140.836349
ピオレ姫路店,兵庫県姫路市駅前町188-1,34.827621,134.690842
スターバックスコーヒー香取佐原店,千葉県香取市佐原ホ1238-3,35.90107,140.490005
日立総合病院店,茨城県日立市城南町2-1-1,36.591316,140.643677
ビバモール寝屋川店,大阪府寝屋川市寝屋南2-22-2,34.766487,135.651672
宇多津店,香川県綾歌郡宇多津町浜3-21-2,34.311615,133.813553
EXPASA海老名サービスエリア（上り線）店,神奈川県海老名市大谷南5-1-1,35.429092,139.397034
ビーンズ戸田公園店,埼玉県戸田市本町4-15-1,35.808144,139.678482
八王子オクトーレ店,東京都八王子市旭町9-1,35.657307,139.338837
神戸ハーバーランドumie店,兵庫県神戸市中央区東川崎町1-7-2,34.67952,135.182602
天王洲店,東京都品川区東品川2-2-4,35.623642,139.74971
友部サービスエリア（上り線）店,茨城県笠間市長兎路梶山久保1059-6,36.304745,140.338669
木場イトーヨーカドー店,東京都江東区木場1-5-30,35.666195,139.804977
水道橋後楽森ビル店,東京都文京区後楽1-4-14,35.703358,139.749695
虎ノ門駅前店,東京都港区虎ノ門1-1-23,35.670292,139.750565
安城篠目店,愛知県安城市篠目町肥田59-1,34.978886,137.065628
浜松駅新幹線ラチ内店,静岡県浜松市中央区鍛冶町140,34.703953,137.731689
天神ソラリアステージ店,福岡県福岡市中央区天神2-11-3,33.59042,130.398895
鹿児島OPSIAミスミ店,鹿児島県鹿児島市宇宿2-3-5,31.544403,130.544907
海老名中央店,神奈川県海老名市中央2-2-8,35.448467,139.391846
コースカベイサイドストアーズ店,神奈川県横須賀市本町2-1-12,35.282131,139.665558
赤坂見附店,東京都港区赤坂3-21-20,35.676899,139.735764
東急プラザ戸塚店,神奈川県横浜市戸塚区戸塚町16-1,35.400028,139.532776
いわき鹿島街道店,福島県いわき市常磐上矢田町戸石9-1,37.016563,140.90271
帯広稲田店,北海道帯広市稲田町南8線西10-7,42.889851,143.198059
広島アルパーク店,広島県広島市西区草津新町2-26-1,34.37373,132.394516
宇都宮城東店,栃木県宇都宮市城東2-24-11,36.549278,139.904877
高知あぞの店,高知県高知市薊野北町1-9-39,33.578888,133.55394
イオンモール岡崎店,愛知県岡崎市戸崎町外山38-5,34.936401,137.162979
ぽっぽ町田店,東京都町田市原町田4-10-20,35.542072,139.448837
ベイスクエア津店,三重県津市藤方716,34.685066,136.518753
サンド店,京都府京都市下京区烏丸通七条下ル東塩小路町721-1,34.992943,135.759583
ららぽーと磐田店,静岡県磐田市高見丘1200,34.750164,137.842026
京都新京極店,京都府京都市中京区新京極通三条下ル桜之町421,35.009998,135.751389
立川若葉店,東京都立川市若葉町1-11-7,35.719738,139.436661
サザンスカイタワー八王子店,東京都八王子市子安町4-7-1,35.654045,139.338806
イオン入間店,埼玉県入間市上藤沢下原462,35.816055,139.392166
箕面小野原店,大阪府箕面市小野原西5-5-19,34.830368,135.512161
堺筋本町店,大阪府大阪市中央区本町1-8-12,34.683849,135.506638
京都三条大橋店,京都府京都市中京区三条通河原町東入ル中島町113,,
ららぽーとTOKYOBAY南館店,千葉県船橋市浜町2-1-1,35.686241,139.990204
武蔵浦和BEANS店,埼玉県さいたま市南区別所7-12-1,35.846249,139.646439
大宮マルイ店,埼玉県さいたま市大宮区桜木町2-3,35.90699,139.621796
エスパル仙台本館店,宮城県仙台市青葉区中央1-1-1,38.260338,140.881699
ビーンズ阿佐ヶ谷駅前店,東京都杉並区阿佐谷南3-58-1,35.704941,139.635956
シャミネ松江店,島根県松江市朝日町472-2,35.46386,133.06279
大宮西口店,埼玉県さいたま市大宮区桜木町1-1-12,35.905525,139.621902
新宿エルタワー店,東京都新宿区西新宿1-6-1,35.692799,139.697296
大分わさだトキハ店,大分県大分市玉沢楠本755-1,33.18956,131.583542
松井山手店,京都府京田辺市松井ケ丘3-2-1,34.832207,135.729034
IWATAYA本店新館店,福岡県福岡市中央区天神2-5-35,33.588985,130.396927
九段下店,東京都千代田区九段北1-2-1,35.695782,139.752228
札幌医科大学附属病院店,北海道札幌市中央区南1条西16,43.056339,141.332993
セブンパークアリオ柏店,千葉県柏市大島田1-6-1,35.840897,140.005997
イオンタウン伊勢ララパーク店,三重県伊勢市小木町538,34.504902,136.725616
松本平田店,長野県松本市平田東2-18-14,36.189713,137.964386
大丸梅田店,大阪府大阪市北区梅田3-1-1,34.701881,135.496338
名古屋久屋南店,愛知県名古屋市中区栄3-31-10,35.163631,136.908463
福生西友店,東京都福生市東町5-1,35.743267,139.328079
カナート洛北店,京都府京都市左京区高野西開町36,35.040871,135.779327
