name,address,latitude,longitude
中割店,愛知県名古屋市南区中割町3-120-1,35.087299,136.919052
松阪中央店,三重県松阪市中央町514-1,34.583153,136.542526
海老名かしわ台店,神奈川県海老名市柏ヶ谷555-1,35.46384,139.41333
江南西店,愛知県江南市東野町米野85,35.336437,136.859375
イオン新潟青山店,新潟県新潟市西区青山2-5-1,37.896366,139.006012
桑名広見ケ丘店,三重県桑名市広見ケ丘1537-8,35.062222,136.683884
城北店,愛知県名古屋市北区八代町2-10-2,35.201881,136.910645
イオンモール新潟南店,新潟県新潟市江南区下早通柳田1-1-1,37.875652,139.083664
国分寺店,東京都国分寺市並木町1-19-3,35.716621,139.457596
守山口店,愛知県名古屋市守山区市場14-16,35.195389,136.950851
岩倉八剱店,愛知県岩倉市八剱町下り松36,35.293175,136.879593
りんくう羽倉崎店,大阪府泉佐野市羽倉崎1-2-12,34.400616,135.298569
浜松駅北店,静岡県浜松市中央区中央1-5-4,34.713226,137.735474
福岡香椎浜店,福岡県福岡市東区香椎浜3-3-11,33.657818,130.429062
野洲店,滋賀県野洲市小篠原2683,35.067711,136.035324
我孫子天王台店,千葉県我孫子市天王台6-17-8,35.866695,140.041565
館林店,群馬県館林市富士見町4-52,36.245026,139.524948
知立堀切店,愛知県知立市鳥居1-13-9,35.002899,137.035004
岡崎大西店,愛知県岡崎市大西2-1-6,34.942905,137.185043
唐木田店,東京都多摩市鶴牧2-24-1,35.616741,139.412979
カインズ伊勢崎店,群馬県伊勢崎市宮子町3154,36.334038,139.159927
守山城下店,愛知県名古屋市守山区小六町21-12,35.194462,136.970184
半田宮本店,愛知県半田市宮本町5-303-12,34.887733,136.907578
草加店,埼玉県草加市弁天4-12-25,35.842518,139.819504
府中白糸台店,東京都府中市白糸台3-5-3,35.665546,139.514771
ユニモール店,愛知県名古屋市中村区名駅4-5-26,35.171429,136.88623
郡上八幡店,岐阜県郡上市八幡町島谷1436-2,35.74704,136.949036
静岡沓谷店,静岡県静岡市葵区沓谷6-18-1,34.996452,138.412628
貴船店,愛知県名古屋市名東区貴船2-703,35.167419,137.014862
北九州上津役店,福岡県北九州市八幡西区下上津役4-11-10,33.827389,130.746902
神戸ハーバーランド店,兵庫県神戸市中央区東川崎町1-3-3,34.677273,135.179138
敦賀店,福井県敦賀市呉竹町2-5-15,35.646152,136.057404
刈谷店,愛知県刈谷市井ヶ谷町天白19-4,35.06419,137.050156
宇部南浜町店,山口県宇部市南浜町2-7-21,33.965427,131.233139
栄四丁目店,愛知県名古屋市中区栄4-16-10,35.166653,136.910553
東海荒尾店,愛知県東海市荒尾町祢崎106,35.029251,136.914062
多治見錦町店,岐阜県多治見市錦町2-24,35.329601,137.127182
大阪土佐堀店,大阪府大阪市西区土佐堀2-2-4,34.688847,135.491089
刈谷駅南口店,愛知県刈谷市南桜町1-65,34.989872,137.005981
半田やなべ店,愛知県半田市岩滑高山町6-22-12,34.90892,136.914261
ミスターマックスおゆみ野店,千葉県千葉市緑区おゆみ野中央2-3-1,35.555107,140.160767
西心斎橋店,大阪府大阪市中央区西心斎橋1-5-27,34.672707,135.499924
浦和松木店,埼玉県さいたま市緑区松木2-7-3,35.88382,139.687607
鵜方店,三重県志摩市阿児町鵜方3016-33,34.328419,136.834625
福岡宗像店,福岡県宗像市稲元4-22-1,33.809101,130.559128
横浜元町店,神奈川県横浜市中区元町3-119,35.440453,139.648056
知多寺本店,愛知県知多市八幡東水代31-6,34.998032,136.874512
長久手図書館通店,愛知県長久手市西浦812,35.17712,137.037323
保谷店,東京都西東京市富士町3-1-19,35.732014,139.563705
稲葉地店,愛知県名古屋市中村区稲葉地本通2-27-1,35.168308,136.842438
半田瑞穂店,愛知県半田市瑞穂町7-11-2,34.884636,136.941101
碧南店,愛知県碧南市霞浦町2-37,34.882637,137.002701
新潟新和店,新潟県新潟市中央区新和1-5-34,37.902039,139.039429
美濃加茂店,岐阜県美濃加茂市山手町1-146,35.449947,137.017441
恵那長島店,岐阜県恵那市長島町正家2-6-7,35.448727,137.415909
守山瀬古店,愛知県名古屋市守山区瀬古東3-1206,35.21212,136.943573
長泉町桜堤店,静岡県駿東郡長泉町上土狩68-27,35.140827,138.904449
岩出店,和歌山県岩出市中迫558-1,34.265202,135.314972
青梅店,東京都青梅市新町8-26-2,35.783882,139.312897
神戸伊川谷店,兵庫県神戸市西区伊川谷町潤和714-1,34.667728,135.002274
ベイシア白河店,福島県白河市老久保28,37.11668,140.199799
福井木田橋通り店,福井県福井市木田町1805,36.046658,136.219955
彦根平田店,滋賀県彦根市平田町1115-1,35.25975,136.238266
伊勢中川店,三重県松阪市嬉野中川新町4-34,34.630554,136.47937
瑞穂通四丁目店,愛知県名古屋市瑞穂区瑞穂通4-1,35.129642,136.93457
砂田橋店,愛知県名古屋市東区大幸4-16-1,35.189037,136.953995
出雲姫原店,島根県出雲市姫原4-6-2,35.375534,132.757294
八千代村上店,千葉県八千代市村上南5-5-5,35.720509,140.119308
小野田バイパス店,山口県山陽小野田市大字西高泊字神田沖619-5,34.00922,131.171875
大府駅前店,愛知県大府市中央町6-155,35.00906,136.964523
ゆめマート新宮店,福岡県糟屋郡新宮町緑ケ浜4-18-48,33.712135,130.446716
浜松三方原店,静岡県浜松市中央区三方原町237-1,34.771427,137.711029
和歌山橋本店,和歌山県橋本市神野々515,34.310398,135.577774
岐阜柳津店,岐阜県岐阜市柳津町上佐波西1-104,35.37711,136.713547
ベルコート店,愛知県尾張旭市狩宿町4-35-1,35.211018,137.064056
北千住本町センター通り店,東京都足立区千住2-43,35.748756,139.80275
つくば店,茨城県つくば市小野崎129-1,36.076012,140.106781
桜山店,愛知県名古屋市瑞穂区瑞穂通1-1-6,35.138283,136.933136
岡山大福店,岡山県岡山市南区大福367-1,34.619427,133.874588
岡崎上和田店,愛知県岡崎市天白町東池25-1,34.933838,137.145477
イオンモール高崎店,群馬県高崎市棟高町1400,36.390381,139.006577
上越店,新潟県上越市下門前1645,37.155346,138.253906
深江橋店,大阪府大阪市城東区永田2-17-15,34.684895,135.558426
白壁店,愛知県名古屋市東区白壁3-20-19,35.183662,136.918121
鹿島神宮南店,茨城県鹿嶋市宮中1996-8,35.9646,140.639252
大須スケートリンク店,愛知県名古屋市中区門前町1-60,35.157749,136.898727
こどもの国店,神奈川県横浜市青葉区奈良町832,35.553699,139.49025
ドン・キホーテ新宿店,東京都新宿区大久保1-12-6,35.698322,139.702942
金山二丁目店,愛知県名古屋市中区金山2-8-4,35.145588,136.903427
津みなみ店,三重県津市高茶屋小森町439-2,34.669262,136.490982
天白土原店,愛知県名古屋市天白区土原1-101,35.115345,136.981445
泉大津店,大阪府泉大津市我孫子2-5-2,34.49295,135.413788
姫路国分寺店,兵庫県姫路市御国野町御着字大門687-1,34.817238,134.737473
本庄店,埼玉県本庄市五十子1-1-7,36.228165,139.190765
浅草橋駅前店,東京都台東区柳橋1-20-4,35.697578,139.786636
魚津店,富山県魚津市吉島259-1,36.824738,137.415543
北浜南店,大阪府大阪市中央区淡路町2-1-1,34.687214,135.506409
東近江五個荘店,滋賀県東近江市宮荘町65,35.157421,136.193741
有松店,愛知県名古屋市緑区桶狭間神明346,35.054951,136.963318
牧之原店,静岡県牧之原市細江1347-1,34.750038,138.239395
扶桑伊勢帰店,愛知県丹羽郡扶桑町高雄伊勢帰128-2,35.365543,136.920471
イオンタウン木更津請西店,千葉県木更津市請西南2-27-1,35.360924,139.944809
御殿場店,静岡県御殿場市新橋1537-1,35.299217,138.939316
足立竹の塚店,東京都足立区竹の塚5-25-2,35.796791,139.794998
コメダ珈琲八王子楢原店,東京都八王子市楢原町1247-3,35.679813,139.307434
白雲店,愛知県名古屋市南区白雲町84,35.096622,136.939651
錦・伊勢町通店,愛知県名古屋市中区錦3-722,35.170441,136.906784
さぬき高松今里店,香川県高松市今里町2-29-16,34.32328,134.061905
徳島北島店,徳島県板野郡北島町江尻字柳池9-2,34.12278,134.547455
熊本大窪店,熊本県熊本市北区大窪2-10-8,32.854717,130.709747
武蔵小山店,東京都品川区荏原3-8-7,35.617676,139.706726
丸井中野店,東京都中野区中野3-34-28,35.70472,139.665329
イオンモール大高店,愛知県名古屋市緑区南大高2-450,35.053516,136.947189
浜松原島店,静岡県浜松市中央区原島町359-2,34.732361,137.771515
山手店,愛知県名古屋市昭和区山手通4-15,35.141117,136.96669
ピュア高山店,岐阜県高山市西之一色町3-1195-2,36.131226,137.249817
春日井東谷橋店,愛知県春日井市高蔵寺町4-1-10,35.260185,137.043121
鈴蘭台店,兵庫県神戸市北区山田町下谷上字大正坊3-4,34.743328,135.159897
コメダ珈琲店川口芝店,埼玉県川口市大字芝7229,35.847996,139.684128
武豊里中店,愛知県知多郡武豊町忠白田1-1,34.84211,136.922302
相模原相生店,神奈川県相模原市中央区相生2-1-5,35.565212,139.390274
四日市病院前店,三重県四日市市久保田1-4-28,34.974026,136.608765
伊賀上野店,三重県伊賀市平野城北町108,34.773926,136.132019
可児坂戸店,岐阜県可児市坂戸前田604-1,35.414593,137.036194
滝の水店,愛知県名古屋市緑区滝ノ水1-1001,35.092033,136.980026
周南久米店,山口県周南市久米中央3-1-23,34.034447,131.83934
寒川店,神奈川県高座郡寒川町宮山95-1,35.372326,139.381897
津田沼店,千葉県習志野市津田沼4-5-5,35.68388,140.01889
香芝店,奈良県香芝市北今市5-550-5,34.547897,135.698563
幸田北店,愛知県額田郡幸田町高力越丸26-1,34.888145,137.16629
イオンタウン吉川美南店,埼玉県吉川市美南3-12,35.865154,139.858841
四日市笹川通店,三重県四日市市日永西3-8-11,34.95084,136.595398
吹上店,愛知県名古屋市千種区大久手町6-9,35.159519,136.936111
尾鷲店,三重県尾鷲市小川西町3-10,34.067577,136.190186
船橋日大前店,千葉県船橋市坪井東2-13-21,35.72958,140.060043
龍ケ崎店,茨城県龍ケ崎市中根台4-1-1,35.931358,140.173737
神戸名谷店,兵庫県神戸市垂水区名谷町2247-1,34.668488,135.073898
水口店,滋賀県甲賀市水口町南林口40,34.971428,136.159927
城陽長池店,京都府城陽市長池北清水112-1,34.840755,135.788223
浜松志都呂店,静岡県浜松市中央区西鴨江町646-4,34.698967,137.665512
土浦真鍋店,茨城県土浦市真鍋2-2-26,36.091541,140.199326
岐阜駅前店,岐阜県岐阜市橋本町3-10,35.411144,136.748886
姥子山店,愛知県名古屋市緑区鎌倉台2-1701,35.071186,136.985001
松山山西店,愛媛県松山市山西町793-1,33.849895,132.722794
東郷春木店,愛知県愛知郡東郷町大字春木字新池3917-4,35.09087,137.033264
津島神守店,愛知県津島市越津町柳之内93,35.176559,136.764435
藤枝築地店,静岡県藤枝市築地527-1,34.859589,138.272903
野々市矢作店,石川県野々市市矢作2-47-1,36.520679,136.612366
平安通店,愛知県名古屋市北区八龍町1-51,35.199741,136.931274
イオンモール大日店,大阪府守口市大日東町1-18,34.749195,135.579391
岐阜領下店,岐阜県岐阜市領下1-38-1,35.403126,136.781097
小牧小木店,愛知県小牧市小木西2-246-1,35.273132,136.889923
イオンモール各務原店,岐阜県各務原市那加萱場町3-8,35.392418,136.823975
篭山店,愛知県名古屋市緑区鴻仏目1-605,35.081604,136.981369
ベイシア佐久平店,長野県佐久市佐久平駅南17-5,36.275742,138.466675
安城店,愛知県安城市朝日町20-20,34.956181,137.090378
高知南国店,高知県南国市明見818-1,33.567703,133.627151
岡崎矢作店,愛知県岡崎市矢作町桜海道14-1,34.958298,137.143738
南鴨宮店,神奈川県小田原市南鴨宮2-41-2,35.271805,139.179443
秦野店,神奈川県秦野市曽屋1547,35.379166,139.214691
奈良中央店,奈良県奈良市西木辻町110-6,34.674339,135.824432
福井二の宮店,福井県福井市二の宮2-803-1,36.085651,136.22406
尾張瀬戸店,愛知県瀬戸市陶原町1-38-1,35.222775,137.092438
日進竹の山店,愛知県日進市竹の山2-1924,35.155762,137.035233
瑞浪店,岐阜県瑞浪市西小田町5-65,35.361202,137.228348
福岡原店,福岡県福岡市早良区原7-14-39,33.562939,130.34201
久居店,三重県津市久居北口町510-1,34.68214,136.473526
イオンモール北大路店,京都府京都市北区小山北上総町49-1,35.044804,135.758087
法華店,愛知県名古屋市中川区法華西町1-13,35.13184,136.842133
セントラルパーク店,愛知県名古屋市中区錦3-15-13先,35.171371,136.907822
尾張旭店,愛知県尾張旭市東大道町原田2525-9,35.215183,137.037338
湖南店,滋賀県湖南市吉永20-1,34.984936,136.101883
福山新涯店,広島県福山市西新涯町2-24-8,34.454704,133.387711
橋本店,神奈川県相模原市緑区橋本8-2-1,35.59787,139.337799
日進米野木店,愛知県日進市米野木町南荒田118-2,35.132156,137.055954
小坂井店,愛知県豊川市伊奈町慶応23-194,34.802277,137.343246
鳥居通店,愛知県名古屋市中村区鳥居通3-32,35.174168,136.863297
平塚田村店,神奈川県平塚市田村6-20-11,35.378704,139.361908
中津川店,岐阜県中津川市上金1142-1,35.600571,137.482666
上前津店,愛知県名古屋市中区大須3-31-42,35.158409,136.90509
岐阜駅東店,岐阜県岐阜市高砂町3-50-11,35.409042,136.763229
御坊店,和歌山県御坊市湯川町財部636-1,33.900036,135.156677
瑞穂運動場店,愛知県名古屋市瑞穂区田辺通6-43,35.120712,136.948212
堺鳳店,大阪府堺市西区上670-112,34.523342,135.456863
巣鴨店,東京都豊島区巣鴨3-28-9,35.733635,139.737991
ゆめタウン山口店,山口県山口市大内御堀1302-1,34.138813,131.497375
西高蔵店,愛知県名古屋市熱田区五本松町11-2,35.13427,136.902512
松戸北小金店,千葉県松戸市小金きよしヶ丘2-2-1,35.831738,139.935043
富士宮店,静岡県富士宮市三園平687,35.244644,138.613785
橿原北店,奈良県橿原市十市町430-1,34.533958,135.796753
徳島藍住店,徳島県板野郡藍住町徳命字前須西99-1,34.114395,134.480698
島田吉田インター店,静岡県島田市井口826,34.798283,138.229462
加古川平野店,兵庫県加古川市加古川町平野478,34.760452,134.844193
瀬田川唐橋店,滋賀県大津市瀬田1-31-2,34.97747,135.909668
豊橋大清水店,愛知県豊橋市南大清水町富士見618-1,34.685234,137.35704
湖西店,静岡県湖西市新居町中之郷3952,34.706078,137.547867
亀山上野店,三重県亀山市上野町14-20,34.856277,136.469894
四日市富田店,三重県四日市市十志町160-1,35.011955,136.643524
郡山大槻店,福島県郡山市御前南1-22,37.38575,140.333298
箕面小野原店,大阪府箕面市小野原西6-11-10,34.830154,135.514359
三好インター店,愛知県みよし市福谷町落合18-3,35.11105,137.101212
名古屋駅西店,愛知県名古屋市中村区則武2-3-2,35.171001,136.878189
星ヶ丘店,愛知県名古屋市千種区星ヶ丘井上町43-2,35.16267,136.988098
入間扇台店,埼玉県入間市扇台1-5-12,35.831184,139.393127
東桜武平通店,愛知県名古屋市東区東桜1-201,35.172268,136.911636
逢谷内インター店,新潟県新潟市東区逢谷内3-1-45,37.92062,139.116745
池袋西武前店,東京都豊島区南池袋1-19-6,35.727779,139.712143
大和下和田店,神奈川県大和市下和田字下ノ原731-1,35.429604,139.469864
小松沖店,石川県小松市沖町526,36.399773,136.465027
大阪本町店,大阪府大阪市中央区本町4-4-25,34.68351,135.498779
中割店,愛知県名古屋市南区中割町3-120-1,35.087299,136.919052
松阪中央店,三重県松阪市中央町514-1,34.583153,136.542526
海老名かしわ台店,神奈川県海老名市柏ヶ谷555-1,35.46384,139.41333
江南西店,愛知県江南市東野町米野85,35.336437,136.859375
イオン新潟青山店,新潟県新潟市西区青山2-5-1,37.896366,139.006012
桑名広見ケ丘店,三重県桑名市広見ケ丘1537-8,35.062222,136.683884
城北店,愛知県名古屋市北区八代町2-10-2,35.201881,136.910645
イオンモール新潟南店,新潟県新潟市江南区下早通柳田1-1-1,37.875652,139.083664
国分寺店,東京都国分寺市並木町1-19-3,35.716621,139.457596
守山口店,愛知県名古屋市守山区市場14-16,35.195389,136.950851
岩倉八剱店,愛知県岩倉市八剱町下り松36,35.293175,136.879593
りんくう羽倉崎店,大阪府泉佐野市羽倉崎1-2-12,34.400616,135.298569
浜松駅北店,静岡県浜松市中央区中央1-5-4,34.713226,137.735474
福岡香椎浜店,福岡県福岡市東区香椎浜3-3-11,33.657818,130.429062
野洲店,滋賀県野洲市小篠原2683,35.067711,136.035324
我孫子天王台店,千葉県我孫子市天王台6-17-8,35.866695,140.041565
館林店,群馬県館林市富士見町4-52,36.245026,139.524948
知立堀切店,愛知県知立市鳥居1-13-9,35.002899,137.035004
岡崎大西店,愛知県岡崎市大西2-1-6,34.942905,137.185043
唐木田店,東京都多摩市鶴牧2-24-1,35.616741,139.412979
カインズ伊勢崎店,群馬県伊勢崎市宮子町3154,36.334038,139.159927
守山城下店,愛知県名古屋市守山区小六町21-12,35.194462,136.970184
半田宮本店,愛知県半田市宮本町5-303-12,34.887733,136.907578
草加店,埼玉県草加市弁天4-12-25,35.842518,139.819504
府中白糸台店,東京都府中市白糸台3-5-3,35.665546,139.514771
ユニモール店,愛知県名古屋市中村区名駅4-5-26,35.171429,136.88623
郡上八幡店,岐阜県郡上市八幡町島谷1436-2,35.74704,136.949036
静岡沓谷店,静岡県静岡市葵区沓谷6-18-1,34.996452,138.412628
貴船店,愛知県名古屋市名東区貴船2-703,35.167419,137.014862
北九州上津役店,福岡県北九州市八幡西区下上津役4-11-10,33.827389,130.746902
中割店,愛知県名古屋市南区中割町3-120-1,35.087299,136.919052
松阪中央店,三重県松阪市中央町514-1,34.583153,136.542526
海老名かしわ台店,神奈川県海老名市柏ヶ谷555-1,35.46384,139.41333
江南西店,愛知県江南市東野町米野85,35.336437,136.859375
イオン新潟青山店,新潟県新潟市西区青山2-5-1,37.896366,139.006012
桑名広見ケ丘店,三重県桑名市広見ケ丘1537-8,35.062222,136.683884
城北店,愛知県名古屋市北区八代町2-10-2,35.201881,136.910645
イオンモール新潟南店,新潟県新潟市江南区下早通柳田1-1-1,37.875652,139.083664
国分寺店,東京都国分寺市並木町1-19-3,35.716621,139.457596
守山口店,愛知県名古屋市守山区市場14-16,35.195389,136.950851
岩倉八剱店,愛知県岩倉市八剱町下り松36,35.293175,136.879593
りんくう羽倉崎店,大阪府泉佐野市羽倉崎1-2-12,34.400616,135.298569
浜松駅北店,静岡県浜松市中央区中央1-5-4,34.713226,137.735474
福岡香椎浜店,福岡県福岡市東区香椎浜3-3-11,33.657818,130.429062
野洲店,滋賀県野洲市小篠原2683,35.067711,136.035324
我孫子天王台店,千葉県我孫子市天王台6-17-8,35.866695,140.041565
館林店,群馬県館林市富士見町4-52,36.245026,139.524948
知立堀切店,愛知県知立市鳥居1-13-9,35.002899,137.035004
岡崎大西店,愛知県岡崎市大西2-1-6,34.942905,137.185043
唐木田店,東京都多摩市鶴牧2-24-1,35.616741,139.412979
カインズ伊勢崎店,群馬県伊勢崎市宮子町3154,36.334038,139.159927
守山城下店,愛知県名古屋市守山区小六町21-12,35.194462,136.970184
半田宮本店,愛知県半田市宮本町5-303-12,34.887733,136.907578
草加店,埼玉県草加市弁天4-12-25,35.842518,139.819504
府中白糸台店,東京都府中市白糸台3-5-3,35.665546,139.514771
ユニモール店,愛知県名古屋市中村区名駅4-5-26,35.171429,136.88623
郡上八幡店,岐阜県郡上市八幡町島谷1436-2,35.74704,136.949036
静岡沓谷店,静岡県静岡市葵区沓谷6-18-1,34.996452,138.412628
貴船店,愛知県名古屋市名東区貴船2-703,35.167419,137.014862
北九州上津役店,福岡県北九州市八幡西区下上津役4-11-10,33.827389,130.746902
中割店,愛知県名古屋市南区中割町3-120-1,35.087299,136.919052
松阪中央店,三重県松阪市中央町514-1,34.583153,136.542526
海老名かしわ台店,神奈川県海老名市柏ヶ谷555-1,35.46384,139.41333
江南西店,愛知県江南市東野町米野85,35.336437,136.859375
イオン新潟青山店,新潟県新潟市西区青山2-5-1,37.896366,139.006012
桑名広見ケ丘店,三重県桑名市広見ケ丘1537-8,35.062222,136.683884
城北店,愛知県名古屋市北区八代町2-10-2,35.201881,136.910645
イオンモール新潟南店,新潟県新潟市江南区下早通柳田1-1-1,37.875652,139.083664
国分寺店,東京都国分寺市並木町1-19-3,35.716621,139.457596
守山口店,愛知県名古屋市守山区市場14-16,35.195389,136.950851
岩倉八剱店,愛知県岩倉市八剱町下り松36,35.293175,136.879593
りんくう羽倉崎店,大阪府泉佐野市羽倉崎1-2-12,34.400616,135.298569
浜松駅北店,静岡県浜松市中央区中央1-5-4,34.713226,137.735474
福岡香椎浜店,福岡県福岡市東区香椎浜3-3-11,33.657818,130.429062
野洲店,滋賀県野洲市小篠原2683,35.067711,136.035324
我孫子天王台店,千葉県我孫子市天王台6-17-8,35.866695,140.041565
館林店,群馬県館林市富士見町4-52,36.245026,139.524948
知立堀切店,愛知県知立市鳥居1-13-9,35.002899,137.035004
岡崎大西店,愛知県岡崎市大西2-1-6,34.942905,137.185043
唐木田店,東京都多摩市鶴牧2-24-1,35.616741,139.412979
カインズ伊勢崎店,群馬県伊勢崎市宮子町3154,36.334038,139.159927
守山城下店,愛知県名古屋市守山区小六町21-12,35.194462,136.970184
半田宮本店,愛知県半田市宮本町5-303-12,34.887733,136.907578
草加店,埼玉県草加市弁天4-12-25,35.842518,139.819504
府中白糸台店,東京都府中市白糸台3-5-3,35.665546,139.514771
ユニモール店,愛知県名古屋市中村区名駅4-5-26,35.171429,136.88623
郡上八幡店,岐阜県郡上市八幡町島谷1436-2,35.74704,136.949036
静岡沓谷店,静岡県静岡市葵区沓谷6-18-1,34.996452,138.412628
貴船店,愛知県名古屋市名東区貴船2-703,35.167419,137.014862
北九州上津役店,福岡県北九州市八幡西区下上津役4-11-10,33.827389,130.746902
イオン久里浜店,神奈川県横須賀市久里浜5-13-1,35.229076,139.704102
清水インター店,静岡県静岡市清水区八坂西町15-30,35.033409,138.476822
佐野店,栃木県佐野市高萩町1323-1,36.300369,139.60495
枚方東インター店,大阪府枚方市杉1-1-8,34.81295,135.717575
京田辺三山木店,京都府京田辺市三山木高飛26-1,34.801334,135.776199
姫路市役所南店,兵庫県姫路市佃町33,34.814236,134.685699
鶴見諸口店,大阪府大阪市鶴見区諸口5-浜8-13,34.704048,135.584183
師勝店,愛知県北名古屋市久地野権現1,35.237011,136.897461
大垣南店,岐阜県大垣市築捨町2-29-1,35.340721,136.622253
南久米店,愛媛県松山市南久米町133-1,33.81852,132.803925
福山春日店,広島県福山市春日町6-1-5,34.507187,133.408951
亀岡千代川店,京都府亀岡市千代川町小林北ン田48-1,35.04216,135.548264
堺東店,大阪府堺市堺区三国ケ丘御幸通1-2,34.572697,135.483536
西尾今川店,愛知県西尾市今川町馬捨場16,34.85696,137.062286
広島大町店,広島県広島市安佐南区大町西3-11-40,34.466167,132.462311
大分明野店,大分県大分市明野東2-32-30,33.224182,131.659561
MEGAドン・キホーテ成東店,千葉県山武市成東764-2,35.595505,140.399521
佐屋北一色店,愛知県愛西市北一色町北田面273,35.149883,136.72435
豊岡店,兵庫県豊岡市船町353-1,35.554722,134.81752
流山おおたかの森店,千葉県流山市おおたかの森南1-19-2,35.86837,139.92746
カインズモール鳥取店,鳥取県鳥取市古海514-3,35.496223,134.208298
天神橋筋六丁目店,大阪府大阪市北区天神橋5-8-14,34.708687,135.510971
一宮小信店,愛知県一宮市小信中島川東14-1,35.312271,136.748215
防府八王子店,山口県防府市八王子1-12-15,34.055531,131.564484
三鷹上連雀店,東京都三鷹市上連雀8-1-5,35.687706,139.559052
春日井篠木店,愛知県春日井市下市場町3-4-12,35.257874,136.997818
鳥栖弥生が丘店,佐賀県鳥栖市弥生が丘6-5,33.401798,130.521149
吉野川鴨島店,徳島県吉野川市鴨島町牛島字市瀬790-8,34.081501,134.387527
川崎南加瀬店,神奈川県川崎市幸区南加瀬2-30-7,35.547878,139.65979
広島大手町店,広島県広島市中区大手町2-8-5,34.391014,132.455994
博多駅東店,福岡県福岡市博多区博多駅東2-4-20,33.588173,130.423553
大高店,愛知県名古屋市緑区鳴海町下汐田86,35.072094,136.939453
鎌倉深沢店,神奈川県鎌倉市常盤91-5,35.330524,139.518539
桜通大津店,愛知県名古屋市中区丸の内3-19-30,35.174332,136.906509
深谷店,埼玉県熊谷市新堀新田616-1,36.176025,139.308868
神栖店,茨城県神栖市知手2974-23,35.870178,140.69165
尼崎西立花店,兵庫県尼崎市西立花町3-15-17,34.734104,135.395874
布施駅東店,大阪府東大阪市長堂3-2-22,34.664417,135.566574
古河三杉町店,茨城県古河市三杉町2-3-6,36.203617,139.718414
エミフルMASAKI店,愛媛県伊予郡松前町筒井850,33.789639,132.715591
東大阪渋川店,大阪府東大阪市渋川町3-7-11,34.643616,135.563263
なんばCITY店,大阪府大阪市中央区難波5-1-60,34.664921,135.501114
丸井錦糸町店,東京都墨田区江東橋3-9-10,35.695351,139.813736
高浜店,愛知県高浜市神明町7-1-18,34.934067,137.00148
高速長田駅前店,兵庫県神戸市長田区北町2-1,34.665916,135.152374
岐阜則武店,岐阜県岐阜市則武中2-24-2,35.439983,136.739517
豊橋三本木店,愛知県豊橋市三本木町字新三本木23,34.725365,137.393875
岐阜大学前店,岐阜県岐阜市古市場神田14-1,35.462067,136.731689
春日店,愛知県清須市春日中沼15-1,35.229855,136.855331
小牧岩崎店,愛知県小牧市岩崎1995,35.309284,136.929688
富士見橋店,愛知県名古屋市中区千代田4-1-29,35.151855,136.909485
あべの店,大阪府大阪市阿倍野区阿倍野筋1-6-1,34.646053,135.512772
吉祥寺ダイヤ街店,東京都武蔵野市吉祥寺本町1-8-2,35.704018,139.579193
諏訪店,長野県諏訪市四賀赤沼1750-1,36.018898,138.123627
県総合文化センター前店,三重県津市一身田上津部田1153-1,34.745136,136.506226
松原三宅店,大阪府松原市松ヶ丘3-833,34.584377,135.560608
東小金井店,東京都小金井市梶野町5-2-19,35.702118,139.522079
北九州本城店,福岡県北九州市八幡西区本城学研台3-2-1,33.895145,130.722672
仙台富沢店,宮城県仙台市太白区大野田5-22-1,38.215881,140.871933
豊川末広通店,愛知県豊川市末広通3-44-3,34.830276,137.391861
蒲郡競艇場前店,愛知県蒲郡市拾石町塩浜8,34.82243,137.202255
伊丹昆陽店,兵庫県伊丹市昆陽東6-3-26,34.776447,135.402237
しんしろ店,愛知県新城市片山字西野畑543-3,34.905613,137.494461
藤沢湘南台店,神奈川県藤沢市石川1761-5,35.392807,139.443832
蟹江本町店,愛知県海部郡蟹江町蟹江本町コの割34,35.139008,136.798172
長浜八幡中山店,滋賀県長浜市八幡中山町508,35.392895,136.275269
東近江八日市店,滋賀県東近江市青葉町3-1-5,35.10775,136.200378
一宮神山店,愛知県一宮市神山町1-14-26,35.303108,136.792282
可児広見店,岐阜県可児市広見5-2-1,35.425713,137.06395
北九州桃園公園店,福岡県北九州市八幡東区桃園1-4-36,33.865032,130.784531
下関綾羅木店,山口県下関市綾羅木新町4-3-15,34.008095,130.924805
新浦安店,千葉県浦安市入船1-5-1,35.648975,139.913177
松戸駅西口店,千葉県松戸市松戸1286-1,35.783329,139.898788
ヨシヅヤ津島北テラス店,愛知県津島市片岡町60,35.183228,136.726746
半田亀崎店,愛知県半田市新居町3-84-1,34.908234,136.956863
船橋芝山店,千葉県船橋市芝山4-17-4,35.721657,140.021164
千葉旭店,千葉県旭市ニ517-3,35.72485,140.652878
八王子駅北口店,東京都八王子市東町10-3,35.65844,139.338501
大分中津店,大分県中津市金谷森ノ丁2229-1,33.581989,131.203018
萱津橋店,愛知県あま市坂牧大塚86,35.183994,136.831512
倉敷北店,岡山県倉敷市川入839-28,34.608498,133.759384
津中央店,三重県津市乙部2011,34.720528,136.517181
栄一丁目店,愛知県名古屋市中区栄1-8-18,35.166534,136.895004
熊谷店,埼玉県熊谷市中央1-326,36.158092,139.391373
長野東和田店,長野県長野市東和田508-1,36.655037,138.224991
いなべ店,三重県いなべ市員弁町松之木155,35.107121,136.573441
栄鉄砲町店,愛知県名古屋市中区栄2-14-6,35.166294,136.902313
安城今村店,愛知県安城市今本町4-1-6,34.992737,137.079132
金沢直江店,石川県金沢市直江東1-158,36.613266,136.635193
いわき泉店,福島県いわき市泉町滝尻定ノ田216,36.957367,140.858704
南草津店,滋賀県草津市追分南3-22-11,34.995491,135.964325
昭和橋店,愛知県名古屋市中川区昭和橋通3-16,35.125069,136.867584
伊那ナイスロード店,長野県伊那市上新田2412,35.829227,137.964737
如意店,愛知県名古屋市北区如意4-44-3,35.236126,136.921036
一宮浜町店,愛知県一宮市浜町4-11-1,35.309532,136.812195
岐阜笠松店,岐阜県岐阜市茜部辰新1-60,35.381512,136.762207
多治見住吉店,岐阜県多治見市住吉町6-6,35.344997,137.119659
国立北口店,東京都国立市北1-5-6,35.699905,139.447357
葛飾東水元店,東京都葛飾区東水元3-8-2,35.785454,139.865417
町田鶴川店,東京都町田市能ヶ谷7-12-17,35.589993,139.479111
江南村久野店,愛知県江南市村久野町瀬頭163-5,35.355099,136.873764
松阪殿町店,三重県松阪市殿町1465-7,34.572601,136.524673
大治店,愛知県海部郡大治町馬島大門西48,35.172901,136.81929
岡崎橋目店,愛知県岡崎市小針町字神田57-1,34.98613,137.126984
八尾高美店,大阪府八尾市八尾木北4-17,34.614498,135.611404
矢場町店,愛知県名古屋市中区栄3-31-8,35.163811,136.908447
関池田店,岐阜県関市小瀬字北池田2352-4,35.49514,136.883545
烏丸五条店,京都府京都市下京区松原通烏丸東入ル南側俊成町438,34.99892,135.764771
栄三丁目店,愛知県名古屋市中区栄3-8-8,35.167618,136.905563
平針試験場前店,愛知県名古屋市天白区平針台2-201,35.105579,137.006683
桑名中央通店,三重県桑名市中央町4-26,35.062359,136.686996
中割店,愛知県名古屋市南区中割町3-120-1,35.087299,136.919052
松阪中央店,三重県松阪市中央町514-1,34.583153,136.542526
海老名かしわ台店,神奈川県海老名市柏ヶ谷555-1,35.46384,139.41333
江南西店,愛知県江南市東野町米野85,35.336437,136.859375
イオン新潟青山店,新潟県新潟市西区青山2-5-1,37.896366,139.006012
桑名広見ケ丘店,三重県桑名市広見ケ丘1537-8,35.062222,136.683884
城北店,愛知県名古屋市北区八代町2-10-2,35.201881,136.910645
イオンモール新潟南店,新潟県新潟市江南区下早通柳田1-1-1,37.875652,139.083664
国分寺店,東京都国分寺市並木町1-19-3,35.716621,139.457596
守山口店,愛知県名古屋市守山区市場14-16,35.195389,136.950851
岩倉八剱店,愛知県岩倉市八剱町下り松36,35.293175,136.879593
りんくう羽倉崎店,大阪府泉佐野市羽倉崎1-2-12,34.400616,135.298569
浜松駅北店,静岡県浜松市中央区中央1-5-4,34.713226,137.735474
福岡香椎浜店,福岡県福岡市東区香椎浜3-3-11,33.657818,130.429062
野洲店,滋賀県野洲市小篠原2683,35.067711,136.035324
我孫子天王台店,千葉県我孫子市天王台6-17-8,35.866695,140.041565
館林店,群馬県館林市富士見町4-52,36.245026,139.524948
知立堀切店,愛知県知立市鳥居1-13-9,35.002899,137.035004
岡崎大西店,愛知県岡崎市大西2-1-6,34.942905,137.185043
唐木田店,東京都多摩市鶴牧2-24-1,35.616741,139.412979
カインズ伊勢崎店,群馬県伊勢崎市宮子町3154,36.334038,139.159927
守山城下店,愛知県名古屋市守山区小六町21-12,35.194462,136.970184
半田宮本店,愛知県半田市宮本町5-303-12,34.887733,136.907578
草加店,埼玉県草加市弁天4-12-25,35.842518,139.819504
府中白糸台店,東京都府中市白糸台3-5-3,35.665546,139.514771
ユニモール店,愛知県名古屋市中村区名駅4-5-26,35.171429,136.88623
郡上八幡店,岐阜県郡上市八幡町島谷1436-2,35.74704,136.949036
静岡沓谷店,静岡県静岡市葵区沓谷6-18-1,34.996452,138.412628
貴船店,愛知県名古屋市名東区貴船2-703,35.167419,137.014862
北九州上津役店,福岡県北九州市八幡西区下上津役4-11-10,33.827389,130.746902
熊本桜木店,熊本県熊本市東区桜木6-7-1,32.790123,130.780487
奈良二条大路店,奈良県奈良市二条大路南4-2-1,34.684525,135.791428
池下店,愛知県名古屋市千種区池下1-10-8,35.16798,136.944366
イオンタウン田崎店,熊本県熊本市西区田崎町字下寄380,32.782566,130.676361
鶴ヶ島店,埼玉県川越市鯨井新田20-54,35.933434,139.419571
伊勢上地店,三重県伊勢市上地町下卯起2677-3,34.500214,136.662231
鯖江店,福井県鯖江市神明町3-10-20,35.978134,136.182602
阪急茨木駅前店,大阪府茨木市双葉町8-20,34.816505,135.577087
今福鶴見店,大阪府大阪市鶴見区鶴見3-5-8,34.701931,135.560516
甲子園駅前店,兵庫県西宮市甲子園七番町1-27,34.723389,135.363617
豊田前田店,愛知県豊田市前田町6-39-1,35.061871,137.163498
東川口店,埼玉県川口市戸塚6-2-7,35.865211,139.754166
佐賀兵庫店,佐賀県佐賀市兵庫北3-7-14,33.268261,130.305298
久留米大石町店,福岡県久留米市大石町256-2,33.313221,130.495605
四日市生桑店,三重県四日市市生桑町866-8,34.979706,136.599731
福間駅南店,福岡県福津市日蒔野2-1-8,33.761295,130.485107
近鉄四日市店,三重県四日市市安島1-1-20,34.968182,136.617462
東広島西条店,広島県東広島市西条西本町728,34.42881,132.737
イオンモール新瑞橋店,愛知県名古屋市南区菊住1-7-10,35.114677,136.93689
上尾上店,埼玉県上尾市上303-4,35.996082,139.574905
豊橋平川本町店,愛知県豊橋市平川本町1-1-11,34.761971,137.42244
伊勢楠部店,三重県伊勢市楠部町奥277,34.477661,136.738632
新松戸駅前店,千葉県松戸市新松戸2-121,35.824654,139.919479
南陽町店,愛知県名古屋市港区八百島2-1803,35.117336,136.818069
桜橋店,愛知県名古屋市中区錦1-1-2,35.172329,136.893036
各務原那加住吉店,岐阜県各務原市那加住吉町4-5,35.398415,136.853439
イオンモールナゴヤドーム前店,愛知県名古屋市東区矢田南4-102-3,35.188564,136.944626
覚王山店,愛知県名古屋市千種区山門町2-56,35.167454,136.95311
富山呉羽店,富山県富山市呉羽町草田2425-3,36.714409,137.169754
庄内通店,愛知県名古屋市西区庄内通4-1,35.206532,136.891418
イータウンとなみ店,富山県砺波市三島町11-21,36.632339,136.956116
新大阪店,大阪府大阪市淀川区西中島5-13-9,34.729805,135.499222
高知インター店,高知県高知市杉井流17-9,33.569267,133.556442
町田森野店,東京都町田市森野6-4-12,35.553581,139.427551
松風店,愛知県名古屋市昭和区松風町1-7,35.146915,136.926697
横浜中田店,神奈川県横浜市泉区中田西2-6-8,35.412632,139.504776
コメダ珈琲店山形南館店,山形県山形市南館西1-1,38.238258,140.306091
ゆめモール柳川店,福岡県柳川市三橋町蒲船津1406-7,33.162758,130.423599
丸亀土器店,香川県丸亀市土器町東4-815,34.293007,133.818649
西大路八条店,京都府京都市下京区梅小路高畑町17,34.983749,135.734909
栄五丁目店,愛知県名古屋市中区栄5-25-35,35.162216,136.912964
大府共和店,愛知県大府市共栄町8-13-3,35.040672,136.954422
河原町三条店,京都府京都市中京区中島町84-2,35.009022,135.769897
京都二条駅前店,京都府京都市中京区西ノ京職司町35-1,35.011234,135.743149
奈良御所店,奈良県御所市大字元町104-1,34.471157,135.732559
忠次店,愛知県名古屋市南区忠次2-1-1,35.102673,136.918396
守谷高野店,茨城県守谷市高野669-1,35.927662,139.995911
姫路太子店,兵庫県揖保郡太子町東出221-1,34.832455,134.594635
石和店,山梨県笛吹市石和町窪中島字北新開町587-19,35.64669,138.630936
西尾寺津店,愛知県西尾市寺津2-10-14,34.849037,137.019516
テレピア店,愛知県名古屋市東区東桜1-1413,35.172268,136.911636
花小金井店,東京都小平市花小金井3-21-4,35.737339,139.513199
松阪川井町店,三重県松阪市川井町748,34.579876,136.517746
塩尻広丘店,長野県塩尻市広丘野村1702-3,36.150074,137.951523
イオンタウン千種店,愛知県名古屋市千種区千種2-16-13,35.160912,136.923828
高砂松陽店,兵庫県高砂市伊保崎6-10-15,34.776775,134.783646
日置橋店,愛知県名古屋市中区松原1-3-28,35.157593,136.893433
京都伏見店,京都府京都市伏見区下鳥羽東柳長町26,34.937206,135.744736
豊中上新田店,大阪府豊中市上新田4-29-16,34.799812,135.498962
ららぽーと新三郷店,埼玉県三郷市新三郷ららシティ3-1-1,35.861301,139.864319
鎌倉小町店,神奈川県鎌倉市小町2-2-18,35.32082,139.551941
金沢松村店,石川県金沢市松村3-358,36.582657,136.61438
梅森台店,愛知県日進市梅森台1-174,35.131847,137.014175
稲沢大塚店,愛知県稲沢市大塚北8-56-3,35.242832,136.79808
大津堅田店,滋賀県大津市本堅田3-13-2,35.116005,135.914322
阪南店,大阪府阪南市黒田426-8,34.355659,135.244858
天理岩室店,奈良県天理市岩室町88-1,34.595329,135.811462
横浜江田店,神奈川県横浜市青葉区荏田北3-5-10,35.560345,139.549881
栄生駅前店,愛知県名古屋市西区栄生1-35-20,35.183662,136.874146
ルーセントタワー店,愛知県名古屋市西区牛島町6-1,35.175369,136.881287
稲城向陽台店,東京都稲城市向陽台6-10,35.641743,139.490433
エスカ店,愛知県名古屋市中村区椿町6-9,35.170307,136.879837
一社店,愛知県名古屋市名東区一社1-87,35.167755,136.995193
京都八幡店,京都府八幡市戸津東代60-1,34.864788,135.722549
松本庄内店,長野県松本市出川町1-12-1,36.210831,137.970108
米子弓ヶ浜店,鳥取県米子市大篠津町689-11,35.49715,133.262238
なぎさモール辻堂店,神奈川県藤沢市辻堂西海岸2-11-4,35.324791,139.442505
板橋四葉店,東京都板橋区四葉2-6-10,35.780518,139.651749
静岡インター店,静岡県静岡市駿河区緑が丘町2-1,34.955585,138.381989
太田川店,愛知県東海市大田町東畑158,35.016376,136.897018
宇都宮平松本町店,栃木県宇都宮市平松本町1109-4,36.544331,139.9039
春日部店,埼玉県春日部市谷原3-2-2,35.971657,139.750381
横浜鍛冶ヶ谷店,神奈川県横浜市栄区鍛冶ヶ谷1-2-3,35.366447,139.55954
守山八剣店,愛知県名古屋市守山区元郷2-802,35.202969,137.001358
三木平田店,兵庫県三木市平田2-1-5,34.804409,134.975433
メッツ大曽根店,愛知県名古屋市東区矢田2-1-95,35.191898,136.940369
近江八幡店,滋賀県近江八幡市鷹飼町北3-15-8,35.131592,136.10379
安井店,愛知県名古屋市北区安井町4-13-25,35.211525,136.922882
カインズ木更津金田店,千葉県木更津市中島426東153街区1画地,35.434689,139.917969
松戸常盤平店,千葉県松戸市常盤平6-28-3,35.793774,139.956879
中割店,愛知県名古屋市南区中割町3-120-1,35.087299,136.919052
松阪中央店,三重県松阪市中央町514-1,34.583153,136.542526
海老名かしわ台店,神奈川県海老名市柏ヶ谷555-1,35.46384,139.41333
江南西店,愛知県江南市東野町米野85,35.336437,136.859375
イオン新潟青山店,新潟県新潟市西区青山2-5-1,37.896366,139.006012
桑名広見ケ丘店,三重県桑名市広見ケ丘1537-8,35.062222,136.683884
城北店,愛知県名古屋市北区八代町2-10-2,35.201881,136.910645
イオンモール新潟南店,新潟県新潟市江南区下早通柳田1-1-1,37.875652,139.083664
国分寺店,東京都国分寺市並木町1-19-3,35.716621,139.457596
守山口店,愛知県名古屋市守山区市場14-16,35.195389,136.950851
岩倉八剱店,愛知県岩倉市八剱町下り松36,35.293175,136.879593
りんくう羽倉崎店,大阪府泉佐野市羽倉崎1-2-12,34.400616,135.298569
浜松駅北店,静岡県浜松市中央区中央1-5-4,34.713226,137.735474
福岡香椎浜店,福岡県福岡市東区香椎浜3-3-11,33.657818,130.429062
野洲店,滋賀県野洲市小篠原2683,35.067711,136.035324
我孫子天王台店,千葉県我孫子市天王台6-17-8,35.866695,140.041565
館林店,群馬県館林市富士見町4-52,36.245026,139.524948
知立堀切店,愛知県知立市鳥居1-13-9,35.002899,137.035004
岡崎大西店,愛知県岡崎市大西2-1-6,34.942905,137.185043
唐木田店,東京都多摩市鶴牧2-24-1,35.616741,139.412979
カインズ伊勢崎店,群馬県伊勢崎市宮子町3154,36.334038,139.159927
守山城下店,愛知県名古屋市守山区小六町21-12,35.194462,136.970184
半田宮本店,愛知県半田市宮本町5-303-12,34.887733,136.907578
草加店,埼玉県草加市弁天4-12-25,35.842518,139.819504
府中白糸台店,東京都府中市白糸台3-5-3,35.665546,139.514771
ユニモール店,愛知県名古屋市中村区名駅4-5-26,35.171429,136.88623
郡上八幡店,岐阜県郡上市八幡町島谷1436-2,35.74704,136.949036
静岡沓谷店,静岡県静岡市葵区沓谷6-18-1,34.996452,138.412628
貴船店,愛知県名古屋市名東区貴船2-703,35.167419,137.014862
北九州上津役店,福岡県北九州市八幡西区下上津役4-11-10,33.827389,130.746902
横浜中山店,神奈川県横浜市緑区中山町310-5,35.51601,139.539886
瀬戸山口店,愛知県瀬戸市今林町395,35.200768,137.092819
甚目寺森店,愛知県あま市森4-2-10,35.211414,136.809967
生駒店,奈良県生駒市上町2548-1,34.718609,135.721741
桃花台店,愛知県小牧市高根2-189-5,35.293137,136.977524
刈谷恩田店,愛知県刈谷市恩田町2-153-6,35.006432,137.016937
東村山店,東京都東村山市久米川町4-8-21,35.760399,139.469788
東郊通店,愛知県名古屋市昭和区御器所1-3-1,35.149971,136.918671
名東藤森店,愛知県名古屋市名東区藤森1-6-1,35.181175,137.007706
成田ニュータウン店,千葉県成田市赤坂3-4,35.779293,140.288483
四ツ橋新町店,大阪府大阪市西区新町1-4-24,34.676193,135.497162
飯田店,長野県飯田市鼎一色190-1,35.501358,137.811676
千種駅前店,愛知県名古屋市千種区内山3-25-6,35.169979,136.931732
ふじみ野店,埼玉県ふじみ野市ふじみ野3-10-26,35.859795,139.515839
大宮土呂店,埼玉県さいたま市北区土呂町1-63-9,35.936699,139.632416
大東谷川店,大阪府大東市谷川2-9-15,34.711605,135.631531
下関長府店,山口県下関市ゆめタウン1-10,34.029869,131.012619
大府インター店,愛知県大府市宮内町4-378,35.00547,136.924164
奈良中町店,奈良県奈良市中町2595-2,34.678993,135.74115
イオンモール伊丹店,兵庫県伊丹市藤ノ木1-1-1,34.781769,135.423691
なんば千日前店,大阪府大阪市中央区難波3-3-4,34.666428,135.501877
富山掛尾店,富山県富山市掛尾町26-1,36.664433,137.209702
浜松領家店,静岡県浜松市中央区領家1-2-11,34.699272,137.750504
上田緑が丘店,長野県上田市緑が丘1-1-6,36.410614,138.251907
守山志段味店,愛知県名古屋市守山区平池東町315,35.236645,137.006226
枚方南店,大阪府枚方市釈尊寺町8-1,34.791763,135.666122
カインズモール津山店,岡山県津山市高野本郷1451-1,35.072571,134.053955
白島キューガーデン店,広島県広島市中区東白島町14-15,34.404888,132.464172
東静岡店,静岡県静岡市駿河区曲金6-378-1,34.981461,138.412125
新高岡店,富山県高岡市二塚414-1,36.71138,137.009033
富士吉田店,山梨県富士吉田市新西原5-5597-16,35.484196,138.779373
守山白沢店,愛知県名古屋市守山区川村町365,35.213215,136.968658
豊橋藤沢店,愛知県豊橋市小浜町11,34.740433,137.365784
犬山五郎丸店,愛知県犬山市五郎丸上前田23,35.366192,136.943481
日野多摩平店,東京都日野市多摩平6-1-8,35.668152,139.379623
揖斐大野店,岐阜県揖斐郡大野町大字中之元972-2,35.465179,136.612976
金剛東店,大阪府富田林市小金台1-4-22,34.500351,135.582748
海老名大谷店,神奈川県海老名市大谷808-1,35.443787,139.390625
錦東櫻店,愛知県名古屋市東区東桜2-15-20,35.170803,136.916946
港栄店,愛知県名古屋市港区港栄1-2-5,35.105511,136.884247
一宮森本店,愛知県一宮市森本1-22-5,35.294186,136.81604
大府名高山店,愛知県大府市横根町名高山26-10,35.034431,136.971497
郡山富田店,福島県郡山市富田東1-320,37.418411,140.363419
イオンモール和歌山店,和歌山県和歌山市中字楠谷573,34.271103,135.148483
鹿沼店,栃木県鹿沼市西茂呂2-23-14,36.553074,139.769211
豊明前後店,愛知県豊明市前後町螺貝1378-1,35.058846,136.989044
法隆寺店,奈良県生駒郡斑鳩町東福寺1-33-1,34.613411,135.745529
枚方とうかえでの道店,大阪府枚方市招提元町3-30-22,34.841671,135.687836
ゆめタウン筑紫野店,福岡県筑紫野市針摺東3-2-3,33.485725,130.538559
ゆめタウン廿日市店,広島県廿日市市下平良2-2-1,34.345757,132.335617
和歌山大谷店,和歌山県和歌山市大谷13-1,34.259995,135.181335
尼崎つかしん店,兵庫県尼崎市塚口本町4-8-1,34.761581,135.417938
名東山の手店,愛知県名古屋市名東区山の手3-901,35.186089,136.99559
大井松田店,神奈川県足柄上郡大井町金子138-1,35.335247,139.154694
岐阜長良店,岐阜県岐阜市長良東1-3,35.44622,136.78508
豊橋下地店,愛知県豊橋市下地町字操穴32,34.787277,137.388382
小山店,栃木県小山市西城南3-21-1,36.295242,139.804932
ZENT名古屋北店,愛知県名古屋市北区中切町5-5,35.216522,136.909546
刈谷稲場店,愛知県刈谷市稲場町1-121,35.00399,136.997711
前浜店,愛知県名古屋市南区寺部通3-5,35.093208,136.929596
池袋西口店,東京都豊島区西池袋1-24-1,35.73177,139.710495
白子稲生店,三重県鈴鹿市稲生西3-12-40,34.840874,136.558929
小浜店,福井県小浜市駅前町13-11,35.492023,135.748596
堺なかもず店,大阪府堺市北区長曽根町3073-7,34.562061,135.512222
岡山福浜店,岡山県岡山市南区富浜町2-70,34.624973,133.940277
ひたちなか長堀店,茨城県ひたちなか市長堀町3-11-2,36.389851,140.543716
本町店,愛知県名古屋市中区大須2-5-13,35.161789,136.901947
ららぽーと富士見店,埼玉県富士見市山室1-1313,35.858746,139.547913
今治立花店,愛媛県今治市郷六ヶ内町2-4-37,34.044792,132.999191
堺深阪店,大阪府堺市中区深阪2-10-35,34.509144,135.498962
石岡旭台店,茨城県石岡市旭台2-17-4,36.193115,140.302811
福岡八田店,福岡県福岡市東区八田1-6-25,33.633274,130.45961
掛川宮脇店,静岡県掛川市宮脇1-15-12,34.779472,138.027985
植田店,愛知県名古屋市天白区植田本町2-1010,35.132874,136.991852
武生店,福井県越前市芝原5-3-8,35.920269,136.159027
浦里店,愛知県名古屋市緑区浦里1-160,35.091084,136.944534
あきる野店,東京都あきる野市秋川1-6-4,35.729061,139.287704
日比野店,愛知県名古屋市熱田区大宝3-9-8,35.13036,136.894577
ゆめモール筑後店,福岡県筑後市前津土地区画整理事業区域内10画地,33.226082,130.513794
大杉店,愛知県名古屋市北区大杉町4-62-2,35.190941,136.919525
豊田梅坪店,愛知県豊田市梅坪町1-18-1,35.105095,137.158401
リソラ大府店,愛知県大府市柊山町1-98,35.016514,136.957581
イオンモール茨木店,大阪府茨木市松ケ本町8-30,34.811398,135.557831
小牧中央店,愛知県小牧市中央6-332,35.284218,136.936005
三条店,新潟県三条市下須頃217,37.645252,138.944962
焼津インター店,静岡県焼津市八楠4-13-1,34.88102,138.303802
九大学研都市店,福岡県福岡市西区西都1-17-19,33.580727,130.260025
大和つきみ野店,神奈川県大和市つきみ野5-17-1,35.511318,139.459122
岡崎若松店,愛知県岡崎市若松町横手16-1,34.913654,137.162918
松江学園店,島根県松江市学園1-6-18,35.480358,133.06398
栗東綣店,滋賀県栗東市綣9-12-2,35.043697,135.978424
岩塚店,愛知県名古屋市中村区畑江通8-43-1,35.157413,136.858963
京都宇治店,京都府宇治市槇島町五才田5,34.898949,135.792053
新所沢店,埼玉県所沢市緑町3-36-20,35.802742,139.444748
函南町店,静岡県田方郡函南町間宮437-1,35.083794,138.937286
奈良五條店,奈良県五條市新町3-4-21,34.349236,135.690216
米子車尾店,鳥取県米子市車尾3-1-35,35.432774,133.35257
清須店,愛知県清須市西市場6-9-23,35.220348,136.828323
西尾道光寺店,愛知県西尾市道光寺町堰板37-1,34.873039,137.061157
浜松佐鳴台店,静岡県浜松市中央区佐鳴台1-4-18,34.703625,137.703186
岡山大安寺店,岡山県岡山市北区大安寺南町1-1-85,34.659565,133.893784
新栄店,愛知県名古屋市中区新栄1-17-1,35.166248,136.918915
朝霞台店,埼玉県朝霞市東弁財1-7-36,35.813076,139.584473
イオンモール草津店,滋賀県草津市新浜町300,34.99818,135.912125
宇都宮下戸祭店,栃木県宇都宮市下戸祭1-6-1,36.573467,139.880966
福岡東那珂店,福岡県福岡市博多区東那珂1-16-20,33.575874,130.443176
松阪花岡店,三重県松阪市駅部田町水利81,34.55479,136.528061
野並店,愛知県名古屋市天白区井の森町232-1,35.104298,136.951508
本町田店,東京都町田市本町田2721-1,35.565926,139.444748
稲沢駅東店,愛知県稲沢市下津北山1-7-7,35.257191,136.822464
東大阪吉田店,大阪府東大阪市島之内2-4-27,34.676453,135.623062
安曇野豊科店,長野県安曇野市豊科南穂高768-1,36.303997,137.912949
イオンモール太田店,群馬県太田市石原町81,36.294003,139.400223
荻窪南口店,東京都杉並区荻窪5-30-6,35.703796,139.62149
津島愛宕店,愛知県津島市愛宕町4-25-1,35.169476,136.737213
久喜店,埼玉県久喜市青毛2-2-14,36.073895,139.702164
裾野店,静岡県裾野市平松529-1,35.17131,138.907501
成増駅前店,東京都板橋区成増2-15-18,35.777088,139.632294
西那須野店,栃木県那須塩原市下永田1-1003-2,36.882225,139.99707
イオン東雲店,東京都江東区東雲1-9-10,35.645931,139.802155
蒲郡三谷店,愛知県蒲郡市三谷北通1-159,34.819149,137.250626
大宮上小町店,埼玉県さいたま市大宮区上小町57-1,35.906013,139.608994
三軒茶屋店,東京都世田谷区三軒茶屋1-38-8,35.643482,139.671463
カインズ三浦店,神奈川県三浦市初声町入江字2-186-1,35.186684,139.626068
富士中央店,静岡県富士市永田町2-94,35.163311,138.669739
桜台店,愛知県名古屋市南区鳥栖2-13-2,35.109547,136.943741
久留米インター店,福岡県久留米市東合川2-5-11,33.320286,130.549438
神戸西代店,兵庫県神戸市長田区御屋敷通3-1-34,34.659988,135.141953
平和店,愛知県名古屋市中区平和1-10-10,35.148346,136.906647
岐阜穂積店,岐阜県瑞穂市馬場春雨町1-22,35.413021,136.686951
岐阜公園店,岐阜県岐阜市松ヶ枝町6-1,35.431934,136.772202
中小田井店,愛知県名古屋市西区中小田井3-234,35.213917,136.86908
伊勢一之木店,三重県伊勢市一之木5-647-8,34.50148,136.708801
阪神西宮店,兵庫県西宮市六湛寺町14-5,34.737743,135.3396
福岡ももち店,福岡県福岡市早良区百道浜2-1-22,33.59309,130.355576
西舞鶴店,京都府舞鶴市字下福井小字大野辺897-3,35.447685,135.309265
上平塚店,神奈川県平塚市上平塚3-12,35.333389,139.324615
岩倉川井町店,愛知県岩倉市川井町白山27,35.265129,136.86673
川崎武蔵中原店,神奈川県川崎市中原区上小田中6-15-8,35.580322,139.643555
厚木妻田店,神奈川県厚木市妻田南1-17-43,35.453514,139.359711
仙台桂店,宮城県仙台市泉区桂1-16-7,38.334419,140.866119
沼津鳥谷店,静岡県沼津市鳥谷2-1,35.135052,138.814804
名張店,三重県名張市鴻之台1-191,34.626869,136.109161
藤枝駅南店,静岡県藤枝市前島1-2-1,34.848877,138.252335
千葉ニュータウン店,千葉県印西市泉野1-144-6,35.804344,140.124847
イオン名古屋東店,愛知県名古屋市名東区猪子石原2-1701,35.195339,136.99379
港店,愛知県名古屋市港区名港2-9-27,35.094803,136.882385
昭島店,東京都昭島市上川原町1-10-20,35.710014,139.362289
大垣林町店,岐阜県大垣市林町1-1-1,35.368023,136.62175
安城末広店,愛知県安城市錦町33,34.95322,137.084091
