name,address,latitude,longitude
中割店,愛知県名古屋市南区中割町3-120-1,35.087299,136.919052
松阪中央店,三重県松阪市中央町514-1,34.583153,136.542526
海老名かしわ台店,神奈川県海老名市柏ヶ谷555-1,35.46384,139.41333
江南西店,愛知県江南市東野町米野85,35.336437,136.859375
イオン新潟青山店,新潟県新潟市西区青山2-5-1,37.896366,139.006012
桑名広見ケ丘店,三重県桑名市広見ケ丘1537-8,35.062222,136.683884
城北店,愛知県名古屋市北区八代町2-10-2,35.201881,136.910645
イオンモール新潟南店,新潟県新潟市江南区下早通柳田1-1-1,37.875652,139.083664
国分寺店,東京都国分寺市並木町1-19-3,35.716621,139.457596
守山口店,愛知県名古屋市守山区市場14-16,35.195389,136.950851
岩倉八剱店,愛知県岩倉市八剱町下り松36,35.293175,136.879593
りんくう羽倉崎店,大阪府泉佐野市羽倉崎1-2-12,34.400616,135.298569
浜松駅北店,静岡県浜松市中央区中央1-5-4,34.713226,137.735474
福岡香椎浜店,福岡県福岡市東区香椎浜3-3-11,33.657818,130.429062
野洲店,滋賀県野洲市小篠原2683,35.067711,136.035324
我孫子天王台店,千葉県我孫子市天王台6-17-8,35.866695,140.041565
館林店,群馬県館林市富士見町4-52,36.245026,139.524948
知立堀切店,愛知県知立市鳥居1-13-9,35.002899,137.035004
岡崎大西店,愛知県岡崎市大西2-1-6,34.942905,137.185043
唐木田店,東京都多摩市鶴牧2-24-1,35.616741,139.412979
カインズ伊勢崎店,群馬県伊勢崎市宮子町3154,36.334038,139.159927
守山城下店,愛知県名古屋市守山区小六町21-12,35.194462,136.970184
半田宮本店,愛知県半田市宮本町5-303-12,34.887733,136.907578
草加店,埼玉県草加市弁天4-12-25,35.842518,139.819504
府中白糸台店,東京都府中市白糸台3-5-3,35.665546,139.514771
ユニモール店,愛知県名古屋市中村区名駅4-5-26,35.171429,136.88623
郡上八幡店,岐阜県郡上市八幡町島谷1436-2,35.74704,136.949036
静岡沓谷店,静岡県静岡市葵区沓谷6-18-1,34.996452,138.412628
貴船店,愛知県名古屋市名東区貴船2-703,35.167419,137.014862
北九州上津役店,福岡県北九州市八幡西区下上津役4-11-10,33.827389,130.746902
