name,address,latitude,longitude
広島紙屋町店,広島県広島市中区大手町1-5-2,34.394505,132.456009
MEGAドン・キホーテ姫路広畑店,兵庫県姫路市広畑区夢前町1-1,34.796844,134.637177
ベルテラスいこま店,奈良県生駒市北新町2043,34.694721,135.691833
イオンモール幕張新都心店,千葉県千葉市美浜区豊砂1-13他,35.65609,140.02652
ららぽーと柏の葉店,千葉県柏市若柴175,35.893353,139.951187
イオンモール堺北花田店,大阪府堺市北区東浅香山町4-1-12,34.584618,135.513718
デュオこうべ店,兵庫県神戸市中央区東川崎町1-2-3,34.678898,135.179108
寝屋川市駅店,大阪府寝屋川市早子町16-10,34.763706,135.620667
イオンモール長久手店,愛知県長久手市長久手中央土地区画整理事業地内,35.167709,137.038513
イオンモール堺鉄砲町店,大阪府堺市堺区鉄砲町1,34.594856,135.481125
仙台クリスロード店,宮城県仙台市青葉区中央2-5-8,38.261368,140.876404
イーアスつくばSC店,茨城県つくば市研究学園5-19,36.088585,140.084579
港北東急SC店,神奈川県横浜市都筑区茅ヶ崎中央5-1,35.544209,139.572586
イオンモール多摩平の森店,東京都日野市多摩平2-4,35.662437,139.38092
イーアス高尾店,東京都八王子市東浅川町550-1,35.643543,139.289185
ゆめタウン博多店,福岡県福岡市東区東浜1-1-1,33.61153,130.412064
大阪安土町店,大阪府大阪市中央区備後町3-2-15,34.684933,135.503525
池袋メトロポリタン口店,東京都豊島区西池袋1-3-6,35.728294,139.709244
東武みずほ台店,埼玉県富士見市東みずほ台2-29-4,35.838673,139.549988
吉備SA（下り）店,岡山県岡山市北区今岡476,34.690125,133.870392
大阪府枚方市役所前店,大阪府枚方市岡東町8-6,34.81551,135.650208
沖縄パルコシティ店,沖縄県浦添市西洲3-1-1,26.260212,127.695946
イオンモール木曽川店,愛知県一宮市木曽川町黒田字南ハツケ池25-1,35.338959,136.795654
青森サンロード店,青森県青森市緑3-9-2,40.806904,140.753311
ららぽーと磐田店,静岡県磐田市高見丘1200,34.750164,137.842026
新宿新南口店,東京都新宿区新宿4-1-1,35.687981,139.702744
プロメナ神戸店,兵庫県神戸市中央区東川崎町1-8-1,34.680454,135.181808
名古屋名鉄メンズ館店,愛知県名古屋市中村区名駅1-2-4,35.168564,136.88475
イオンモール各務原店,岐阜県各務原市那加萱場町3-8,35.392418,136.823975
イオンモール福岡店,福岡県糟屋郡粕屋町大字酒殿字老ノ木192-1,33.596455,130.480286
渋谷道玄坂店,東京都渋谷区道玄坂2-29-8,35.659164,139.6978
戸塚店,神奈川県横浜市戸塚区上倉田町493-1,35.399853,139.535812
ららぽーと豊洲店,東京都江東区豊洲2-4-9,35.6563,139.792923
オペラパーク住道店,大阪府大東市赤井1-4-1,34.70892,135.619995
西鉄イン新宿店,東京都新宿区西新宿7-23-2,35.694111,139.694229
イオンモール越谷レイクタウンMORI店,埼玉県越谷市レイクタウン3-1-1,35.882484,139.828323
なんばウォーク店,大阪府大阪市中央区難波1,34.667603,135.501724
経堂店,東京都世田谷区宮坂2-19-5,35.651161,139.637711
イオンモール浜松市野店,静岡県浜松市中央区天王寺町字諏訪1981-3,34.737686,137.771011
イズミヤカナートモール和泉府中店,大阪府泉大津市東豊中町1-5-10,34.491951,135.423172
水道橋東口店,東京都千代田区三崎町2-9-2,35.700848,139.755112
ミウイ橋本店,神奈川県相模原市緑区橋本3-28-1,35.594326,139.346558
マークイズ静岡店,静岡県静岡市葵区柚木1026,34.982403,138.408173
ゆめタウン三豊店,香川県三豊市豊中町本山甲22,34.145252,133.699081
ゆめタウン丸亀店,香川県丸亀市新田町橋本171-2,34.269348,133.788101
姫路フェスタ店,兵庫県姫路市駅前町363-1,34.827621,134.690842
イオンモール津山店,岡山県津山市河辺1000-1,35.05909,134.051727
イオンモール今治新都市店,愛媛県今治市にぎわい広場1-1,34.044254,132.962463
イオンモール神戸北店,兵庫県神戸市北区上津台8-1-1,34.860859,135.196518
ノースポートモール店,神奈川県横浜市都筑区中川中央1-25-1,35.553181,139.579468
千駄木店,東京都文京区千駄木2-32-6,35.724621,139.762894
ゆめタウン徳島店,徳島県板野郡藍住町奥野字東中須88-1,34.119118,134.500977
ニトリモール枚方店,大阪府枚方市北山1-2-1,34.83696,135.694595
イオンモール高崎店,群馬県高崎市棟高町1400,36.390381,139.006577
ニッケパークタウン加古川店,兵庫県加古川市加古川町寺家町173-1,34.769508,134.835693
小田急マルシェ大和店,神奈川県大和市中央1-1-26,35.469303,139.4608
イオンモール日吉津店,鳥取県西伯郡日吉津村大字日吉津1319-1,35.445889,133.384415
MOMOテラス店,京都府京都市伏見区桃山町山ノ下32,34.937057,135.7948
阪急かっぱ横丁店,大阪府大阪市北区芝田1-7-2,34.707165,135.498108
田無店,東京都西東京市田無町4-28-14,35.72892,139.539688
プレナ幕張店,千葉県千葉市美浜区ひび野2-4,35.647892,140.040405
三鷹駅南口店,東京都三鷹市下連雀3-36,35.701664,139.56012
イオンモール京都五条店,京都府京都市右京区西院追分町25-1,34.997326,135.727249
恵比寿東口店,東京都渋谷区恵比寿1-8-1,35.648045,139.710114
銀座みゆき通り店,東京都中央区銀座6-12-1,35.669495,139.765091
福岡天神地下街店,福岡県福岡市中央区天神2-1004,33.58939,130.398041
イオンモール銚子店,千葉県銚子市三崎町2-2660-1,35.709991,140.787796
イトーヨーカドー武蔵小金井店,東京都小金井市本町6-14-9,35.700085,139.505447
東京上十条店,東京都北区上十条2-30-6,35.761314,139.721405
三軒茶屋店,東京都世田谷区太子堂4-23-2,35.643684,139.670715
エアポートウォーク名古屋店,愛知県西春日井郡豊山町豊場林先1-8,35.248695,136.923584
スフィアタワー天王洲店,東京都品川区東品川2-2-8,35.623135,139.749969
アピタ岩倉店,愛知県岩倉市旭町1-25,35.276749,136.872086
岡山空港店,岡山県岡山市北区日応寺1277,34.760391,133.860855
綾瀬リエッタ店,東京都足立区綾瀬3-1-12,35.762379,139.825729
高松丸亀町店,香川県高松市丸亀町2-3,34.345177,134.050171
奈良東向商店街店,奈良県奈良市東向中町23,34.683777,135.828506
松山湊町店,愛媛県松山市湊町4-6-6,33.835808,132.766281
新宿アイランド店,東京都新宿区西新宿6-5-1,35.692986,139.693329
富山駅店,富山県富山市明輪町1-70,36.701954,137.213074
イオンモール和歌山店,和歌山県和歌山市中字楠谷573,34.271103,135.148483
イオンモールつくば店,茨城県つくば市稲岡66-1,36.034595,140.132721
淵野辺駅店,神奈川県相模原市中央区淵野辺3-5-16,35.568989,139.394836
人形町店,東京都中央区日本橋人形町3-4-14,35.686024,139.781403
溝の口店,神奈川県川崎市高津区溝口1-8-5,35.599628,139.6129
横浜ワールドポーターズ店,神奈川県横浜市中区新港2-2-1,35.453987,139.638855
岡山表町店,岡山県岡山市北区表町2-2-84,34.662094,133.929306
吉祥寺北口駅前店,東京都武蔵野市吉祥寺本町1-4-17,35.703358,139.578903
イオンモール沖縄ライカム店,沖縄県中頭郡北中城村字ライカム1,26.314575,127.796043
上尾ショーサンプラザ店,埼玉県上尾市谷津2-1-1,35.971439,139.589676
東京大久保店,東京都新宿区百人町2-23-1,35.70179,139.696976
上野広小路店,東京都台東区上野4-5-8,35.709126,139.773834
イオンモールりんくう泉南店,大阪府泉南市りんくう南浜3-12,34.382992,135.267197
浅草橋東口店,東京都台東区浅草橋1-30-12,35.697918,139.786438
海老名ビナウォーク店,神奈川県海老名市中央1-4-1,35.452129,139.392563
ポートウォークみなと店,愛知県名古屋市港区当知2-1501,35.109409,136.847565
アリオ西新井SC店,東京都足立区西新井栄町1-20-1,35.774689,139.785782
トキハわさだタウン店,大分県大分市玉沢755-1,33.188679,131.581497
代々木上原店,東京都渋谷区西原3-8-5,35.66946,139.680283
プライムツリー赤池店,愛知県日進市赤池町箕ノ手1,35.117123,137.021759
あまがさきキューズモール店,兵庫県尼崎市潮江1-3-1,34.733112,135.431763
アスピア明石店,兵庫県明石市東仲ノ町6-1,34.64809,134.995071
目黒西口店,東京都品川区上大崎2-27-1,35.634377,139.714935
くずはモール店,大阪府枚方市楠葉花園町10-85,34.859894,135.67688
イオンモールいわき小名浜店,福島県いわき市小名浜港背後地土地区画整理事業地内,36.94548,140.916428
プレ葉ウォーク浜北店,静岡県浜松市浜名区貴布祢1200,34.797241,137.779282
新宿西口駅前店,東京都新宿区西新宿1-4-2,35.692825,139.699081
おのだサンパーク店,山口県山陽小野田市中川6-4-1,33.985802,131.170547
ララガーデン川口店,埼玉県川口市宮町18-9,35.806213,139.699142
小田急豪徳寺駅店,東京都世田谷区豪徳寺1-43-4,35.653854,139.647202
イオンモール秋田店,秋田県秋田市御所野地蔵田1-1-1,39.663094,140.160889
港南台バーズ店,神奈川県横浜市港南区港南台3-1-3,35.375042,139.577301
京都河原町三条店,京都府京都市中京区河原町通三条下る二丁目山崎町237-6,35.009998,135.751389
広島パルコ前店,広島県広島市中区堀川町6-9,34.392593,132.462173
イオン相模原SC店,神奈川県相模原市南区古淵2-10-1,35.554676,139.417847
アリオ川口店,埼玉県川口市並木元町1-79,35.806885,139.71582
リバーサイド千秋店,新潟県長岡市千秋2-278,37.460854,138.827026
キュービックプラザ新横浜店,神奈川県横浜市港北区篠原町2937,35.506004,139.616486
イオンモール川口前川店,埼玉県川口市前川1-1-11,35.833347,139.706055
大阪南海なんば駅店,大阪府大阪市中央区難波5-1-60,34.664921,135.501114
北千住マルイ店,東京都足立区千住旭町3-7,35.749481,139.805878
佐世保四ヶ町店,長崎県佐世保市本島町4-1,33.170174,129.721848
東武上福岡店,埼玉県ふじみ野市上福岡1-1-1,35.874031,139.511887
カメイドクロック店,東京都江東区亀戸6‐31,35.69574,139.829071
プラーレ松戸店,千葉県松戸市松戸1149-1,35.782894,139.902496
イオンモール北戸田店,埼玉県戸田市美女木東1-3-1,35.826706,139.65303
高知帯屋町店,高知県高知市帯屋町1-14-7,33.560543,133.538589
瑞江駅前店,東京都江戸川区瑞江2-2-1,35.69334,139.897751
Echikafit上野店,東京都台東区上野7-1-1,35.713696,139.776917
イオンモール徳島店,徳島県徳島市南末広町4-1,34.063049,134.573135
ららぽーと海老名店,神奈川県海老名市扇町13-1,35.45557,139.388977
本町信濃橋店,大阪府大阪市西区西本町1-2-17,34.683544,135.497284
岸和田カンカンベイサイドモール店,大阪府岸和田市港緑町2-1,34.466705,135.371613
JR中山駅前店,神奈川県横浜市緑区寺山町72,35.514545,139.539505
パークスクエア横浜店,神奈川県横浜市中区吉浜町1-2,35.439529,139.642532
三宮センター街店,兵庫県神戸市中央区三宮町1-5-8-29,34.691555,135.194107
パサージオ西新井店,東京都足立区西新井栄町1-17-1,35.774784,139.789597
神戸キャンパススクエア店,兵庫県神戸市西区学園西町1-4,34.683105,135.057236
大阪北浜店,大阪府大阪市中央区高麗橋2-1-2,34.689842,135.506439
埼玉アトレ川越店,埼玉県川越市脇田町105,35.908382,139.483047
ワカバウォーク店,埼玉県鶴ケ島市富士見1-2-1,35.949432,139.409744
イオンモール高松店,香川県高松市香西本町1-1,34.351009,134.003082
千葉C－one店,千葉県千葉市中央区富士見2-24-1,35.609623,140.116653
四ツ谷駅前店,東京都新宿区四谷1-2-4,35.68578,139.728958
中野坂上店,東京都中野区中央2-5-4,35.697495,139.679504
福岡天神駅店,福岡県福岡市中央区天神2-11-3,33.59042,130.398895
尼崎神田中通店,兵庫県尼崎市神田中通3-38,34.720352,135.413055
イオン洛南店,京都府京都市南区吉祥院御池町31,34.975109,135.735428
熊本下通り店,熊本県熊本市中央区手取本町5-20,32.802746,130.709763
フレスポ八潮店,埼玉県八潮市大瀬1-1-3,35.808826,139.842911
日本橋八重洲通り店,東京都中央区日本橋3-5-15,35.679256,139.772308
ラゾーナ川崎店,神奈川県川崎市幸区堀川町72,35.531395,139.695801
長崎浜町店,長崎県長崎市浜町1-11,32.744434,129.877258
イオンモール札幌発寒店,北海道札幌市西区発寒8条12-1,43.095791,141.278183
アピタ四日市店,三重県四日市市安島1-3-31,34.968884,136.616714
イオンモール鈴鹿店,三重県鈴鹿市庄野羽山4-1-2,34.87376,136.533142
大阪天神橋店,大阪府大阪市北区天神橋4-8-26,34.704586,135.511353
イオンモール大和店,神奈川県大和市下鶴間1-2-1,35.488842,139.457626
ゆめタウンはません店,熊本県熊本市南区田井島1-2-1,32.773132,130.723999
ディアモール大阪店,大阪府大阪市北区梅田1,34.700012,135.497726
西武新宿ぺぺ店,東京都新宿区歌舞伎町1-30-1,35.695972,139.699722
ダイナシティ小田原店,神奈川県小田原市中里313-1,35.28352,139.18808
モラージュ菖蒲SC店,埼玉県久喜市菖蒲町菖蒲6005-1,36.075214,139.611633
神戸さんちか店,兵庫県神戸市中央区三宮町1-10-1,34.693146,135.193771
高円寺南口店,東京都杉並区高円寺南3-58-29,35.704033,139.648834
アリオ鷲宮店,埼玉県久喜市久本寺谷田7-1,36.078667,139.661331
ニトリモール宮崎店,宮崎県宮崎市源藤町東田423,31.88496,131.412674
イオンモール浦和美園店,埼玉県さいたま市緑区大門3710,35.882477,139.731079
アリオ鳳店,大阪府堺市西区鳳南町3-199-12,34.526146,135.456894
武蔵浦和マーレ店,埼玉県さいたま市南区白幡5-19-19,35.84491,139.647385
仙台一番町店,宮城県仙台市青葉区一番町3-11-8,38.261532,140.87175
渋谷公園通り店,東京都渋谷区宇田川町2-1,35.663883,139.698929
MORUE中島店,北海道室蘭市中島本町1-4-4,42.35384,141.012665
スマーク伊勢崎店,群馬県伊勢崎市西小保方町368,36.339588,139.232391
大阪府本町南久宝寺店,大阪府大阪市中央区南久宝寺町3-6-13,34.67889,135.501419
南海堺東駅店,大阪府堺市堺区三国ヶ丘御幸通61,34.574661,135.484177
ららぽーと甲子園店,兵庫県西宮市甲子園八番町1-100,34.717068,135.36261
沼津アントレ店,静岡県沼津市大手町1-1-1,35.103424,138.861343
新さっぽろサンピアザ店,北海道札幌市厚別区厚別中央2条5-7-2,43.036667,141.471664
アピタ新潟亀田店,新潟県新潟市江南区鵜ノ子4-466,37.871838,139.089905
イオンモール橿原店,奈良県橿原市曲川町7-20-1,34.505554,135.764832
両国西口店,東京都墨田区両国2-19-1,35.695267,139.792068
モレラ岐阜店,岐阜県本巣市三橋1100,35.454281,136.675323
シャポー船橋店,千葉県船橋市本町7-1-1,35.702137,139.983231
ユニバーサル・シティウォーク店,大阪府大阪市此花区島屋6-2-61,34.668201,135.436172
浅草ROX店,東京都台東区浅草1-25-15,35.71294,139.793137
エルパ福井店,福井県福井市大和田2-1212,36.096699,136.250656
荻窪南口店,東京都杉並区荻窪5-27-8,35.704159,139.620239
けやきウォーク前橋店,群馬県前橋市文京町2-1-1,36.380619,139.076813
三井アウトレットパーク入間店,埼玉県入間市宮寺3169-1,35.811535,139.379013
大阪堂島店,大阪府大阪市北区曾根崎新地1-3-16,34.697609,135.495667
イオンモール鹿児島店,鹿児島県鹿児島市東開町7,31.527231,130.53653
池袋東口店,東京都豊島区南池袋1-24-6,35.729,139.713013
ゆめタウン出雲店,島根県出雲市大塚町650-1,35.377205,132.754807
ゆめタウン光の森店,熊本県菊池郡菊陽町光の森7-33-1,32.860233,130.784576
テラスモール松戸店,千葉県松戸市八ヶ崎2-8-1,35.817673,139.932816
岡山今店,岡山県岡山市北区今7-22-131,34.640762,133.891769
本郷三丁目メトロピア店,東京都文京区本郷2-39-1,35.706726,139.76001
アリオ八尾店,大阪府八尾市光町2-3,34.632385,135.60582
多摩丘の上プラザ店,東京都多摩市落合1-44,35.623787,139.425888
札幌ル・トロワ店,北海道札幌市中央区大通西1-13,43.060329,141.355835
ニトリ守口大日店,大阪府守口市大日町3-129-1,34.753284,135.581543
イオンモール甲府昭和店,山梨県中巨摩郡昭和町飯喰1505-1,35.622814,138.522202
名古屋パルコ店,愛知県名古屋市中区栄3-29-1,35.1642,136.907303
北習志野店,千葉県船橋市習志野台2-1-6,35.722225,140.042435
モラージュ佐賀店,佐賀県佐賀市巨勢町大字牛島730,33.252487,130.31868
静岡伊勢丹前店,静岡県静岡市葵区呉服町1-30,34.975536,138.380112
品川インターシティ店,東京都港区港南2-15-2,35.626335,139.742004
イオンモール土浦店,茨城県土浦市上高津367,36.08086,140.17955
テラスモール湘南店,神奈川県藤沢市辻堂神台1-3-1,35.337242,139.446487
マリンピア稲毛海岸店,千葉県千葉市美浜区高洲3-13-1,35.628323,140.073074
原尾島店,岡山県岡山市中区東川原239-1,34.674454,133.943619
浅草EKIMISE店,東京都台東区花川戸1-4-1,35.71122,139.797836
新宿モノリスビル店,東京都新宿区西新宿2-3-1,35.688267,139.694778
奈良三条店,奈良県奈良市三条町499-1,34.681595,135.821198
サニーサイドモール小倉店,福岡県北九州市小倉南区下曽根新町10-1,33.832268,130.932846
サンシティ三宮店,兵庫県神戸市中央区雲井通6-1-15,34.695,135.196228
マルイファミリー志木店,埼玉県志木市本町5-26-1,35.823555,139.574921
アピタ宇都宮店,栃木県宇都宮市江曽島本町22-7,36.532841,139.86731
中央林間店,神奈川県大和市中央林間3-2-10,35.507694,139.443741
荻窪タウンセブン店,東京都杉並区上荻1-9-1,35.705223,139.619812
イオンモール日の出SC店,東京都西多摩郡日の出町平井237-3,35.734825,139.275146
大阪梅田茶屋町店,大阪府大阪市北区茶屋町1-27,34.704899,135.499268
イオンモール四條畷店,大阪府四條畷市砂4-3-2,34.744938,135.631226
イオンマリナタウン店,福岡県福岡市西区豊浜3-1-10,33.58942,130.333771
目黒東口店,東京都品川区上大崎2-13-38,35.634026,139.7173
恵比寿駅前店,東京都渋谷区恵比寿西1-8-8,35.647255,139.708649
フジグラン広島店,広島県広島市中区宝町2-1,34.386375,132.465012
武蔵小山店,東京都品川区小山3-25-1,35.619713,139.704163
ららぽーと堺店,大阪府堺市美原区黒山22-1,34.542019,135.55838
熊本上通店,熊本県熊本市中央区上通町9-1,32.805473,130.711334
エル守口店,大阪府大阪市中央区難波1-5-14,34.667622,135.501373
イオンモール大高店,愛知県名古屋市緑区大高町字奥平子1-1,35.053337,136.95018
ララガーデン長町店,宮城県仙台市太白区長町7-20-5,38.225822,140.876862
ららぽーと愛知東郷店,愛知県愛知郡東郷町東郷中央土地区画整理事業62街区1・3,35.096897,137.052643
岡山一番街店,岡山県岡山市北区駅元町一番街地下6,34.665607,133.918015
イオンタウン富士南店,静岡県富士市鮫島118-10,35.139099,138.677155
南海天王寺店,大阪府大阪市天王寺区悲田院町10-48,34.647835,135.513748
イオンモール高岡店,富山県高岡市下伏間江383,36.723873,137.016861
大阪OMMビル店,大阪府大阪市中央区大手前1-7-31,34.689873,135.517899
渋谷道玄坂店,東京都渋谷区道玄坂2-29-8,35.659164,139.6978
戸塚店,神奈川県横浜市戸塚区上倉田町493-1,35.399853,139.535812
ららぽーと豊洲店,東京都江東区豊洲2-4-9,35.6563,139.792923
オペラパーク住道店,大阪府大東市赤井1-4-1,34.70892,135.619995
西鉄イン新宿店,東京都新宿区西新宿7-23-2,35.694111,139.694229
イオンモール越谷レイクタウンMORI店,埼玉県越谷市レイクタウン3-1-1,35.882484,139.828323
なんばウォーク店,大阪府大阪市中央区難波1,34.667603,135.501724
経堂店,東京都世田谷区宮坂2-19-5,35.651161,139.637711
イオンモール浜松市野店,静岡県浜松市中央区天王寺町字諏訪1981-3,34.737686,137.771011
イズミヤカナートモール和泉府中店,大阪府泉大津市東豊中町1-5-10,34.491951,135.423172
水道橋東口店,東京都千代田区三崎町2-9-2,35.700848,139.755112
ミウイ橋本店,神奈川県相模原市緑区橋本3-28-1,35.594326,139.346558
マークイズ静岡店,静岡県静岡市葵区柚木1026,34.982403,138.408173
ゆめタウン三豊店,香川県三豊市豊中町本山甲22,34.145252,133.699081
ゆめタウン丸亀店,香川県丸亀市新田町橋本171-2,34.269348,133.788101
姫路フェスタ店,兵庫県姫路市駅前町363-1,34.827621,134.690842
イオンモール津山店,岡山県津山市河辺1000-1,35.05909,134.051727
イオンモール今治新都市店,愛媛県今治市にぎわい広場1-1,34.044254,132.962463
イオンモール神戸北店,兵庫県神戸市北区上津台8-1-1,34.860859,135.196518
ノースポートモール店,神奈川県横浜市都筑区中川中央1-25-1,35.553181,139.579468
千駄木店,東京都文京区千駄木2-32-6,35.724621,139.762894
ゆめタウン徳島店,徳島県板野郡藍住町奥野字東中須88-1,34.119118,134.500977
ニトリモール枚方店,大阪府枚方市北山1-2-1,34.83696,135.694595
イオンモール高崎店,群馬県高崎市棟高町1400,36.390381,139.006577
ニッケパークタウン加古川店,兵庫県加古川市加古川町寺家町173-1,34.769508,134.835693
小田急マルシェ大和店,神奈川県大和市中央1-1-26,35.469303,139.4608
イオンモール日吉津店,鳥取県西伯郡日吉津村大字日吉津1319-1,35.445889,133.384415
MOMOテラス店,京都府京都市伏見区桃山町山ノ下32,34.937057,135.7948
阪急かっぱ横丁店,大阪府大阪市北区芝田1-7-2,34.707165,135.498108
田無店,東京都西東京市田無町4-28-14,35.72892,139.539688
いよてつ高島屋店,愛媛県松山市湊町5-1-1,33.835556,132.763
イオンタウン防府店,山口県防府市鐘紡町7-1,34.048691,131.587585
川崎ラチッタデッラ店,神奈川県川崎市川崎区小川町4-1,35.528072,139.697968
ゆめタウン広島店,広島県広島市南区皆実町2-8-17,34.375362,132.464935
イオン千葉ニュータウン店,千葉県印西市中央北3-1-1,35.802967,140.113617
神田北口店,東京都千代田区神田鍛冶町3-3-31,35.693642,139.77066
神保町すずらん通り店,東京都千代田区神田神保町1-5-1,35.695469,139.759216
ゆめタウン廿日市店,広島県廿日市市下平良2-1317-30,34.345974,132.334503
小伝馬町駅前店,東京都中央区日本橋小伝馬町3-8,35.69075,139.778259
ららぽーと沼津店,静岡県沼津市東椎路字東荒301-3,35.128609,138.837143
静岡葵タワー店,静岡県静岡市葵区紺屋町17-1,34.972416,138.386047
御嶽山店,東京都大田区北嶺町11-11,35.585636,139.682404
新潟万代シティ店,新潟県新潟市中央区万代1-6-1,37.916565,139.056198
目白駅前店,東京都豊島区目白3-4-14,35.72176,139.706238
bono相模大野店,神奈川県相模原市南区相模大野3-2,35.531067,139.434906
イオンモール倉敷店,岡山県倉敷市水江1,34.601658,133.744385
横浜ビブレ店,神奈川県横浜市西区南幸2-15-13,35.464622,139.617844
イオンタウンおゆみ野店,千葉県千葉市緑区おゆみ野南5-37-1,35.543961,140.173523
イオンモール大和郡山店,奈良県大和郡山市下三橋町705-1外,34.650848,135.802139
イオンタウン守谷店,茨城県守谷市百合ヶ丘3-249-1,35.945404,139.992081
阿佐ヶ谷駅前店,東京都杉並区阿佐谷南2-15-2,35.70438,139.636765
リーフウォーク稲沢店,愛知県稲沢市長野7-1-2,35.261143,136.819443
ゆめタウン佐賀店,佐賀県佐賀市兵庫北5-14-1,33.275646,130.308182
サンポップマチヤ店,東京都荒川区荒川7-50-9,35.742722,139.780869
新宿御苑前店,東京都新宿区新宿1-7-10,35.689041,139.710312
ニッケコルトンプラザ店,千葉県市川市鬼高1-1-1,35.715031,139.932663
ユアエルム八千代台店,千葉県八千代市八千代台東1-1-10,35.700851,140.092468
イオンモール盛岡南店,岩手県盛岡市本宮7-1-1,39.684128,141.128922
藤が丘駅前店,神奈川県横浜市青葉区藤が丘2-5,35.543583,139.527344
御徒町南口店,東京都台東区上野3-27-3,35.707104,139.774048
